{"type":"FeatureCollection", "features": [
{"type":"Feature","geometry":{"type":"Polygon","coordinates":[[[71.78961,21.50045],[71.78961,21.50043],[71.78966,21.50019],[71.78938,21.49992],[71.7888,21.49933],[71.78875,21.49889],[71.7889,21.49858],[71.78911,21.49804],[71.78896,21.49792],[71.78916,21.49776],[71.78956,21.49756],[71.78987,21.49728],[71.79006,21.49711],[71.79026,21.49672],[71.79044,21.49633],[71.79069,21.49628],[71.79063,21.49612],[71.79076,21.49501],[71.79073,21.49475],[71.79066,21.49405],[71.7904,21.49376],[71.78987,21.49386],[71.78976,21.49384],[71.78884,21.49402],[71.78859,21.49445],[71.78723,21.49316],[71.78637,21.49263],[71.78569,21.49199],[71.78541,21.49204],[71.78522,21.49192],[71.78495,21.49186],[71.78454,21.4917],[71.78445,21.49166],[71.78359,21.4903],[71.78315,21.48963],[71.78356,21.48942],[71.78388,21.48959],[71.78417,21.48947],[71.78384,21.48346],[71.78363,21.48325],[71.78369,21.48304],[71.78354,21.48276],[71.78331,21.4816],[71.78388,21.48094],[71.78457,21.48027],[71.7851,21.47973],[71.78433,21.47946],[71.78243,21.47883],[71.78053,21.47815],[71.77944,21.47787],[71.77864,21.4776],[71.77752,21.47715],[71.77614,21.47672],[71.77529,21.47643],[71.77407,21.476],[71.77267,21.47708],[71.77184,21.47773],[71.77114,21.47835],[71.77034,21.47893],[71.76996,21.47925],[71.76953,21.47959],[71.76821,21.48071],[71.76811,21.48079],[71.76743,21.48142],[71.76688,21.48187],[71.76608,21.4826],[71.76592,21.48275],[71.76572,21.48295],[71.75876,21.47944],[71.7589,21.47908],[71.75951,21.47723],[71.75996,21.47638],[71.75986,21.47461],[71.7596,21.47221],[71.75919,21.4719],[71.75857,21.47115],[71.7581,21.47038],[71.75834,21.47038],[71.75941,21.4712],[71.76106,21.47128],[71.7612,21.4703],[71.76146,21.46971],[71.76196,21.46943],[71.76232,21.46907],[71.76335,21.46891],[71.76351,21.46923],[71.76382,21.4691],[71.764,21.46876],[71.76447,21.46858],[71.7647,21.46858],[71.76568,21.46854],[71.76613,21.46887],[71.76667,21.46864],[71.76714,21.46875],[71.76755,21.46886],[71.76758,21.46898],[71.7679,21.46927],[71.76924,21.46887],[71.76975,21.46891],[71.77011,21.4691],[71.77092,21.4696],[71.77115,21.46986],[71.77191,21.4697],[71.77238,21.47034],[71.77256,21.47043],[71.77433,21.47051],[71.77532,21.47033],[71.77645,21.47041],[71.77721,21.47046],[71.77709,21.46993],[71.77656,21.46945],[71.77632,21.4693],[71.77622,21.46888],[71.77591,21.46876],[71.77544,21.46839],[71.77498,21.46801],[71.77487,21.46791],[71.77456,21.46719],[71.77446,21.46681],[71.77517,21.46649],[71.77759,21.46648],[71.77773,21.46651],[71.78064,21.46794],[71.78074,21.46809],[71.78166,21.46824],[71.78236,21.46835],[71.78545,21.46882],[71.7862,21.46893],[71.78716,21.46935],[71.78941,21.47019],[71.79087,21.4707],[71.79168,21.47084],[71.79197,21.47089],[71.79593,21.46863],[71.79615,21.46857],[71.80729,21.47576],[71.81135,21.47836],[71.8113,21.47858],[71.81067,21.47909],[71.81058,21.47941],[71.81047,21.47965],[71.81022,21.47983],[71.80964,21.48142],[71.80969,21.48161],[71.80957,21.48226],[71.80937,21.48263],[71.80945,21.48301],[71.80962,21.48351],[71.81024,21.48413],[71.81114,21.48397],[71.81124,21.48396],[71.81138,21.4839],[71.81182,21.4836],[71.81227,21.48353],[71.81336,21.48249],[71.81429,21.48138],[71.81476,21.48093],[71.81529,21.48021],[71.81568,21.47945],[71.81612,21.47964],[71.81619,21.48018],[71.81637,21.48069],[71.81693,21.48186],[71.81796,21.48182],[71.81857,21.48217],[71.81863,21.4822],[71.82002,21.48316],[71.82034,21.48324],[71.82039,21.48335],[71.82121,21.48514],[71.82135,21.4855],[71.8217,21.4866],[71.82199,21.48747],[71.82076,21.48734],[71.82019,21.48753],[71.8195,21.48778],[71.81985,21.48863],[71.81975,21.4892],[71.82002,21.48938],[71.82026,21.48954],[71.82056,21.48982],[71.82032,21.49001],[71.82035,21.49016],[71.82046,21.49076],[71.82042,21.49135],[71.82048,21.49163],[71.82077,21.49182],[71.82126,21.49184],[71.82125,21.49187],[71.82109,21.49256],[71.82092,21.49326],[71.82077,21.49383],[71.82063,21.49432],[71.82054,21.49495],[71.82038,21.49573],[71.82024,21.49623],[71.8201,21.49672],[71.82001,21.49715],[71.81996,21.49754],[71.81989,21.49805],[71.81982,21.49815],[71.8198,21.4983],[71.81985,21.49836],[71.81988,21.49872],[71.81991,21.49886],[71.81994,21.49957],[71.81989,21.50003],[71.81992,21.50026],[71.81989,21.50052],[71.81988,21.5007],[71.81984,21.50075],[71.81982,21.50093],[71.82,21.50112],[71.81998,21.50158],[71.81987,21.50164],[71.8196,21.50181],[71.81936,21.50195],[71.8191,21.50212],[71.81877,21.5023],[71.81866,21.50256],[71.81862,21.50268],[71.81857,21.50277],[71.8185,21.50296],[71.8184,21.50324],[71.81837,21.50334],[71.81827,21.5035],[71.81825,21.50359],[71.81812,21.50382],[71.81807,21.50395],[71.81788,21.50408],[71.81771,21.50419],[71.8175,21.50432],[71.81734,21.50443],[71.81715,21.50451],[71.81687,21.50461],[71.81679,21.50469],[71.81661,21.50475],[71.8162,21.50488],[71.81604,21.5049],[71.81585,21.50492],[71.81556,21.50496],[71.8151,21.50501],[71.81489,21.50502],[71.81463,21.50508],[71.81438,21.50505],[71.81423,21.50507],[71.81407,21.50511],[71.81367,21.50523],[71.81362,21.50526],[71.81358,21.50528],[71.81321,21.50543],[71.81296,21.50547],[71.81276,21.50549],[71.81249,21.50554],[71.81231,21.50552],[71.81206,21.50553],[71.8117,21.50552],[71.81146,21.50552],[71.81108,21.50553],[71.81073,21.50552],[71.81024,21.5055],[71.81007,21.50546],[71.80973,21.50536],[71.80957,21.50533],[71.80918,21.5054],[71.80896,21.50549],[71.80874,21.50559],[71.80853,21.5056],[71.80843,21.50564],[71.80824,21.5057],[71.80786,21.50571],[71.80724,21.50576],[71.80712,21.50577],[71.80658,21.50579],[71.80655,21.50546],[71.80656,21.50533],[71.80656,21.50525],[71.80648,21.50475],[71.80644,21.50457],[71.80621,21.50376],[71.80599,21.50286],[71.80558,21.50206],[71.80516,21.50124],[71.80484,21.50126],[71.80472,21.50128],[71.80442,21.50127],[71.80335,21.50119],[71.8026,21.50117],[71.80231,21.50119],[71.8016,21.5012],[71.80068,21.50115],[71.79977,21.50109],[71.79928,21.5011],[71.79835,21.5011],[71.79775,21.50104],[71.79731,21.50105],[71.79689,21.50102],[71.79669,21.50101],[71.79633,21.50098],[71.79588,21.50095],[71.79538,21.50088],[71.79524,21.50086],[71.79494,21.50081],[71.79455,21.50079],[71.79436,21.50078],[71.79412,21.50071],[71.79404,21.50071],[71.79354,21.50072],[71.7934,21.50074],[71.79306,21.50074],[71.79281,21.50072],[71.79251,21.50073],[71.79216,21.50068],[71.79189,21.50061],[71.7914,21.50059],[71.79124,21.50062],[71.79098,21.50058],[71.79085,21.50053],[71.79005,21.50054],[71.78969,21.50046],[71.78961,21.50045]]]},"properties":{"Name":null,"District":"BHAVNAGAR","Taluka":"PALITANA","Village":"PALITANA (M)","Taluka_Id":null,"Village_Id":"14009IX","Sno":null,"Check":"Check Sno","F_SNO":"495","F_TYPE":"Reserved","SECTION":"SECTION-20","FG_AREA_Ha":1406.88,"REMARKS":"As per forest map","BEAT":null,"ROUND":null,"RANGE":"PALITANA","DIVISION":"Bhavnagar Forest Division","CATEGORY":null,"GN_NO":null,"GN_DATE":null,"COMPARTMEN":null,"SANC_AR_Ha":0}},
{"type":"Feature","geometry":{"type":"Polygon","coordinates":[[[71.7958,21.50981],[71.79567,21.50984],[71.79557,21.50989],[71.7954,21.51028],[71.79527,21.51034],[71.79478,21.5105],[71.79469,21.5105],[71.79419,21.51042],[71.79365,21.5104],[71.79321,21.51041],[71.79239,21.51035],[71.79205,21.51032],[71.79131,21.50998],[71.79071,21.50972],[71.79053,21.50964],[71.7898,21.50922],[71.78917,21.5088],[71.78899,21.5087],[71.78878,21.50849],[71.78828,21.50797],[71.78821,21.50792],[71.78824,21.50778],[71.78835,21.50759],[71.78839,21.50754],[71.78819,21.50677],[71.78826,21.50665],[71.78812,21.50659],[71.78813,21.50646],[71.78737,21.50638],[71.78685,21.50589],[71.78667,21.50563],[71.78633,21.50509],[71.78571,21.50411],[71.78625,21.50319],[71.78683,21.50266],[71.7872,21.50226],[71.78815,21.50117],[71.78838,21.50118],[71.78901,21.50126],[71.78976,21.50149],[71.78986,21.50128],[71.78971,21.50073],[71.78961,21.50045],[71.78969,21.50046],[71.79005,21.50054],[71.79085,21.50053],[71.79098,21.50058],[71.79124,21.50062],[71.7914,21.50059],[71.79189,21.50061],[71.79216,21.50068],[71.79251,21.50073],[71.79281,21.50072],[71.79306,21.50074],[71.7934,21.50074],[71.79354,21.50072],[71.79404,21.50071],[71.79412,21.50071],[71.79436,21.50078],[71.79455,21.50079],[71.79494,21.50081],[71.79524,21.50086],[71.79538,21.50088],[71.79588,21.50095],[71.79633,21.50098],[71.79669,21.50101],[71.79689,21.50102],[71.79731,21.50105],[71.79775,21.50104],[71.79835,21.5011],[71.79928,21.5011],[71.79977,21.50109],[71.80068,21.50115],[71.8016,21.5012],[71.80231,21.50119],[71.8026,21.50117],[71.80335,21.50119],[71.80442,21.50127],[71.80472,21.50128],[71.80484,21.50126],[71.80516,21.50124],[71.80558,21.50206],[71.80599,21.50286],[71.80621,21.50376],[71.80644,21.50457],[71.80648,21.50475],[71.80656,21.50525],[71.80656,21.50533],[71.80625,21.50535],[71.80602,21.50531],[71.8054,21.50564],[71.80509,21.50582],[71.80488,21.50585],[71.80481,21.50589],[71.80478,21.50615],[71.80475,21.50646],[71.80472,21.50703],[71.8047,21.50733],[71.80431,21.50746],[71.80421,21.50748],[71.8036,21.50768],[71.80252,21.50805],[71.80246,21.5081],[71.80244,21.50806],[71.80199,21.50817],[71.80165,21.50824],[71.80142,21.50831],[71.80118,21.50812],[71.80085,21.50816],[71.80017,21.50827],[71.80002,21.5083],[71.79973,21.50835],[71.79966,21.50839],[71.79958,21.50838],[71.79943,21.50842],[71.79919,21.50855],[71.79872,21.50879],[71.79856,21.50888],[71.7984,21.50891],[71.79797,21.50902],[71.79779,21.50912],[71.79739,21.50935],[71.7972,21.50947],[71.79705,21.50949],[71.79667,21.50956],[71.79644,21.50962],[71.79626,21.50967],[71.79586,21.50977],[71.7958,21.50981]]]},"properties":{"Name":null,"District":"BHAVNAGAR","Taluka":"PALITANA","Village":"PALITANA (M)","Taluka_Id":null,"Village_Id":"14009IX","Sno":null,"Check":"Check Sno","F_SNO":"494","F_TYPE":"Reserved","SECTION":"SECTION-20","FG_AREA_Ha":159.98,"REMARKS":"As per forest map","BEAT":null,"ROUND":null,"RANGE":"PALITANA","DIVISION":"Bhavnagar Forest Division","CATEGORY":null,"GN_NO":null,"GN_DATE":null,"COMPARTMEN":null,"SANC_AR_Ha":0}},
{"type":"Feature","geometry":{"type":"Polygon","coordinates":[[[71.7958,21.50981],[71.79613,21.51015],[71.79615,21.5102],[71.79621,21.51035],[71.79629,21.51097],[71.79629,21.51099],[71.79621,21.5113],[71.79617,21.51163],[71.79611,21.51214],[71.79549,21.51194],[71.79518,21.51183],[71.79493,21.51174],[71.79431,21.51152],[71.79387,21.51139],[71.79386,21.51117],[71.79365,21.51109],[71.79266,21.51071],[71.79242,21.51063],[71.79143,21.51059],[71.79125,21.51063],[71.79087,21.51043],[71.78997,21.50996],[71.78992,21.5103],[71.78917,21.5099],[71.78903,21.50986],[71.78883,21.5093],[71.78862,21.50921],[71.78852,21.50911],[71.78834,21.50867],[71.78783,21.50782],[71.78796,21.50739],[71.78808,21.50697],[71.78818,21.50679],[71.78819,21.50677],[71.78839,21.50754],[71.78835,21.50759],[71.78824,21.50778],[71.78821,21.50792],[71.78828,21.50797],[71.78878,21.50849],[71.78899,21.5087],[71.78917,21.5088],[71.7898,21.50922],[71.79053,21.50964],[71.79071,21.50972],[71.79131,21.50998],[71.79205,21.51032],[71.79239,21.51035],[71.79321,21.51041],[71.79365,21.5104],[71.79419,21.51042],[71.79469,21.5105],[71.79478,21.5105],[71.79527,21.51034],[71.7954,21.51028],[71.79557,21.50989],[71.79567,21.50984],[71.7958,21.50981]]]},"properties":{"Name":null,"District":"BHAVNAGAR","Taluka":"PALITANA","Village":"PALITANA (M)","Taluka_Id":null,"Village_Id":"14009IX","Sno":"233","Check":null,"F_SNO":"233","F_TYPE":"Reserved","SECTION":"SECTION-20","FG_AREA_Ha":8.42,"REMARKS":"As per forest map","BEAT":null,"ROUND":null,"RANGE":"PALITANA","DIVISION":"Bhavnagar Forest Division","CATEGORY":null,"GN_NO":null,"GN_DATE":null,"COMPARTMEN":null,"SANC_AR_Ha":0}}
]}