{"type":"FeatureCollection", "features": [
{"type":"Feature","geometry":{"type":"LineString","coordinates":[[71.71776,21.48664],[71.71758,21.48629],[71.71708,21.48587],[71.71716,21.48529],[71.71737,21.48482],[71.71754,21.48448],[71.71756,21.48402],[71.71756,21.48365],[71.71777,21.48332],[71.71789,21.4825],[71.718,21.48167],[71.71818,21.48088],[71.71832,21.47999],[71.71846,21.47925],[71.71852,21.47796],[71.71853,21.4764],[71.7186,21.47589],[71.71874,21.47522],[71.71877,21.47389],[71.71888,21.47334],[71.71898,21.47294],[71.71924,21.47166],[71.71931,21.47131],[71.71933,21.47065],[71.71943,21.47009],[71.71963,21.4684],[71.71975,21.46736],[71.71982,21.46665],[71.71979,21.46625],[71.7197,21.46592],[71.71963,21.46569],[71.7196,21.46535],[71.71965,21.46494],[71.71962,21.46455],[71.71956,21.4642],[71.71939,21.46357],[71.71913,21.46298],[71.71865,21.46199],[71.71838,21.46128],[71.71814,21.46037],[71.71802,21.45981],[71.71801,21.45951],[71.7179,21.45896],[71.71812,21.45772],[71.71811,21.45728],[71.718,21.45686],[71.71794,21.45664],[71.71787,21.45636],[71.71775,21.45602],[71.7174,21.45545],[71.71729,21.45479]]},"properties":{"icon":null,"CAT":"VR(NP)","NAME":"Dedarda Hathsani Road","FROM_KM":0,"TO_KM":4,"BSSLANE":4,"SSLANE":0,"INTER":0,"SDLANE":0,"SMLTL":0,"CAR_WIDTH":0,"FOR_WIDTH":5,"LAND_WIDTH":10,"LENGTH_ROA":4,"SURFACE":"Earthen","SP":null,"REMARK":null,"CAT_SP":"VR(NP) P","CAT_SURFAC":"VR(NP) Earthen","NEW_SURFAC":"Earthen","YEARS":"DEVL. IN 2006 OR BE.","SH_NH_ID":null,"DISTRICT":"Bhavnagar","Category":"Village Road"}},
{"type":"Feature","geometry":{"type":"LineString","coordinates":[[71.71707,21.49215],[71.71708,21.49196],[71.71712,21.49171],[71.71725,21.49145],[71.7174,21.49113],[71.71752,21.49082],[71.71756,21.49046],[71.71758,21.49002],[71.71789,21.49002],[71.71809,21.48999],[71.71822,21.48991],[71.71834,21.48962],[71.71846,21.48941],[71.71856,21.48934],[71.7186,21.48901],[71.71863,21.48877],[71.71888,21.48867],[71.71904,21.48856],[71.71909,21.48845],[71.71925,21.48843],[71.71935,21.48824],[71.71925,21.48797],[71.71923,21.48771]]},"properties":{"icon":null,"CAT":"VR(NP)","NAME":"Dedarda Dudhala Road","FROM_KM":0,"TO_KM":3,"BSSLANE":3,"SSLANE":0,"INTER":0,"SDLANE":0,"SMLTL":0,"CAR_WIDTH":0,"FOR_WIDTH":5,"LAND_WIDTH":10,"LENGTH_ROA":3,"SURFACE":"Earthen","SP":null,"REMARK":null,"CAT_SP":"VR(NP) P","CAT_SURFAC":"VR(NP) Earthen","NEW_SURFAC":"Earthen","YEARS":"DEVL. IN 2006 OR BE.","SH_NH_ID":null,"DISTRICT":"Bhavnagar","Category":"Village Road"}},
{"type":"Feature","geometry":{"type":"LineString","coordinates":[[71.73995,21.50583],[71.73922,21.50535],[71.73826,21.50511],[71.73761,21.50456],[71.73696,21.50398],[71.73607,21.50296],[71.73479,21.50157],[71.73348,21.50044],[71.73277,21.4998],[71.73242,21.49949],[71.73198,21.49918],[71.73163,21.4988],[71.73128,21.49841],[71.73071,21.49791],[71.73029,21.49763],[71.72922,21.497],[71.72783,21.49615],[71.72692,21.49561],[71.72633,21.4951],[71.72598,21.49483],[71.72468,21.49382],[71.72395,21.49328],[71.72343,21.49274],[71.72286,21.49207],[71.72206,21.49132],[71.72131,21.49051],[71.72096,21.49013],[71.72044,21.48932],[71.71997,21.48904],[71.71958,21.48879],[71.71935,21.48863],[71.71863,21.48826],[71.71839,21.48775],[71.71808,21.48736],[71.71795,21.48689],[71.71786,21.48658]]},"properties":{"icon":null,"CAT":"VR(NP)","NAME":"Nani Mandedarada Road","FROM_KM":0,"TO_KM":3,"BSSLANE":0,"SSLANE":3,"INTER":0,"SDLANE":0,"SMLTL":0,"CAR_WIDTH":3.75,"FOR_WIDTH":6,"LAND_WIDTH":10,"LENGTH_ROA":3,"SURFACE":"BT","SP":null,"REMARK":null,"CAT_SP":"VR(NP) P","CAT_SURFAC":"VR(NP) BT","NEW_SURFAC":"BT","YEARS":"31 March 2010-11","SH_NH_ID":null,"DISTRICT":"Bhavnagar","Category":"Village Road"}},
{"type":"Feature","geometry":{"type":"LineString","coordinates":[[71.73995,21.50583],[71.7402,21.50595],[71.74082,21.50598],[71.74172,21.50644],[71.742,21.50658],[71.74314,21.50727],[71.74359,21.50804],[71.74492,21.50937],[71.74786,21.51265],[71.74996,21.51478],[71.75131,21.51639],[71.75289,21.51829],[71.75404,21.51939],[71.75706,21.51949],[71.76058,21.51949],[71.76304,21.51937],[71.76428,21.51924],[71.76483,21.51917],[71.76558,21.51888]]},"properties":{"icon":null,"CAT":"MDR","NAME":"Gjeti Nanimal Road","FROM_KM":0,"TO_KM":3.6,"BSSLANE":3.6,"SSLANE":0,"INTER":0,"SDLANE":0,"SMLTL":0,"CAR_WIDTH":3.6,"FOR_WIDTH":6,"LAND_WIDTH":24,"LENGTH_ROA":3.6,"SURFACE":"BT","SP":null,"REMARK":null,"CAT_SP":"MDR P","CAT_SURFAC":"MDR BT","NEW_SURFAC":"BT","YEARS":"DEVL. IN 2006 OR BE.","SH_NH_ID":null,"DISTRICT":"Bhavnagar","Category":"Major District Road"}},
{"type":"Feature","geometry":{"type":"LineString","coordinates":[[71.82263,21.52181],[71.82205,21.52178],[71.82192,21.51902],[71.82181,21.51765],[71.82119,21.51655],[71.82107,21.51365],[71.82028,21.51086],[71.82002,21.50931],[71.8201,21.50849],[71.82022,21.50754],[71.82022,21.5058],[71.82029,21.50256],[71.82019,21.49983],[71.82022,21.49799],[71.82029,21.49695],[71.82079,21.49438],[71.82137,21.49187],[71.82185,21.48968],[71.82196,21.48915],[71.82206,21.48818],[71.82197,21.48748],[71.82173,21.48633],[71.82137,21.48519],[71.82117,21.48453],[71.82106,21.48409],[71.82087,21.48362],[71.8204,21.48237],[71.81993,21.48119],[71.8198,21.48033],[71.81948,21.47868],[71.81896,21.47752],[71.81801,21.47638],[71.81692,21.47505],[71.81571,21.47284],[71.81479,21.47149],[71.81347,21.46978],[71.81264,21.4687],[71.81152,21.4671]]},"properties":{"icon":null,"CAT":"MDR","NAME":"Palitana Dungarpur Road","FROM_KM":0,"TO_KM":9,"BSSLANE":9,"SSLANE":0,"INTER":0,"SDLANE":0,"SMLTL":0,"CAR_WIDTH":3.6,"FOR_WIDTH":6,"LAND_WIDTH":24,"LENGTH_ROA":9,"SURFACE":"BT","SP":null,"REMARK":null,"CAT_SP":"MDR P","CAT_SURFAC":"MDR BT","NEW_SURFAC":"BT","YEARS":"DEVL. IN 2006 OR BE.","SH_NH_ID":null,"DISTRICT":"Bhavnagar","Category":"Major District Road"}},
{"type":"Feature","geometry":{"type":"LineString","coordinates":[[71.81152,21.4671],[71.8111,21.46612],[71.81017,21.46551],[71.8087,21.46504],[71.80819,21.46456],[71.80811,21.46445],[71.8081,21.4641],[71.80821,21.46357],[71.80825,21.46294],[71.80832,21.4623],[71.80844,21.46173],[71.80831,21.46089],[71.80816,21.46014],[71.80781,21.45918],[71.80733,21.45873],[71.80655,21.45843],[71.80555,21.4586],[71.80532,21.45885],[71.80495,21.45907],[71.8045,21.45907],[71.80329,21.45861],[71.80212,21.4581],[71.80149,21.45678],[71.80113,21.45598],[71.80088,21.45555],[71.80069,21.45546],[71.80002,21.4553],[71.8,21.45448],[71.79998,21.45373],[71.79984,21.45302],[71.79962,21.45275],[71.7977,21.45153],[71.79653,21.4511],[71.79548,21.45092],[71.79471,21.45086],[71.79411,21.45103],[71.79361,21.45142],[71.79313,21.45168],[71.79283,21.45177],[71.79257,21.45186],[71.79225,21.45212],[71.79158,21.45201],[71.79058,21.45184],[71.78994,21.45178],[71.78877,21.45186],[71.78827,21.45195],[71.78742,21.45197],[71.78676,21.45202],[71.78636,21.45208],[71.78564,21.45203],[71.78462,21.45212],[71.78391,21.45209],[71.78314,21.45216],[71.7825,21.45222],[71.78156,21.45224],[71.78093,21.45228],[71.78002,21.45224],[71.77927,21.45206],[71.77787,21.45237],[71.77684,21.45272],[71.7757,21.45303],[71.77497,21.45334],[71.77419,21.45335],[71.77316,21.45356],[71.77234,21.45385],[71.77147,21.4541],[71.77082,21.45437],[71.77028,21.45471],[71.76974,21.45496],[71.76865,21.45512],[71.76786,21.45519],[71.76744,21.45546],[71.76671,21.45566],[71.76597,21.45556],[71.76545,21.45542],[71.76498,21.45548],[71.76448,21.45568],[71.76361,21.45619],[71.7631,21.45654],[71.76268,21.45689],[71.76206,21.45723],[71.76134,21.45705],[71.76037,21.45674],[71.75906,21.45642],[71.75812,21.45601],[71.75727,21.45561],[71.75648,21.45534],[71.75577,21.45516],[71.75473,21.45497],[71.75415,21.45493],[71.75333,21.45519],[71.75302,21.45535],[71.75279,21.45538],[71.75172,21.45504],[71.75094,21.45465],[71.75072,21.45438],[71.75068,21.45399],[71.75063,21.45366],[71.75018,21.45312],[71.7492,21.45261],[71.74716,21.45195],[71.74585,21.45161],[71.74386,21.45112],[71.74342,21.45162],[71.74298,21.45216],[71.74209,21.45229],[71.74011,21.45224],[71.7382,21.45222],[71.73459,21.45185],[71.73401,21.45174],[71.73276,21.45189],[71.73164,21.45222],[71.73068,21.4524],[71.72914,21.45225],[71.72866,21.45214],[71.72875,21.44892],[71.72856,21.44817],[71.72831,21.44743],[71.72715,21.44762],[71.72604,21.44779],[71.72532,21.44736],[71.72387,21.4472],[71.72338,21.44701],[71.72245,21.44538],[71.7224,21.44523]]},"properties":{"icon":null,"CAT":"ODR","NAME":"Dungerpur Jalia Hathej Road","FROM_KM":0,"TO_KM":13,"BSSLANE":13,"SSLANE":0,"INTER":0,"SDLANE":0,"SMLTL":0,"CAR_WIDTH":3.6,"FOR_WIDTH":6,"LAND_WIDTH":18,"LENGTH_ROA":13,"SURFACE":"BT","SP":null,"REMARK":null,"CAT_SP":"ODR P","CAT_SURFAC":"ODR BT","NEW_SURFAC":"BT","YEARS":"DEVL. IN 2006 OR BE.","SH_NH_ID":null,"DISTRICT":"Bhavnagar","Category":"Other District Road"}},
{"type":"Feature","geometry":{"type":"LineString","coordinates":[[71.76206,21.45723],[71.76341,21.45792],[71.76428,21.45856],[71.76457,21.45892],[71.7646,21.45913],[71.76624,21.46046],[71.76678,21.46083],[71.76761,21.46076],[71.76836,21.46077],[71.76889,21.46084],[71.76914,21.46096],[71.76951,21.46132],[71.76986,21.4613],[71.76995,21.4605],[71.76969,21.45986],[71.76938,21.45883],[71.76879,21.45796],[71.76818,21.45692],[71.76775,21.45629],[71.76764,21.45566],[71.76744,21.45546]]},"properties":{"icon":null,"CAT":"VR","NAME":"Gandhol App Road","FROM_KM":0,"TO_KM":1,"BSSLANE":1,"SSLANE":0,"INTER":0,"SDLANE":0,"SMLTL":0,"CAR_WIDTH":3,"FOR_WIDTH":6,"LAND_WIDTH":12,"LENGTH_ROA":1,"SURFACE":"BT","SP":null,"REMARK":null,"CAT_SP":"VR P","CAT_SURFAC":"VR BT","NEW_SURFAC":"BT","YEARS":"DEVL. IN 2006 OR BE.","SH_NH_ID":null,"DISTRICT":"Bhavnagar","Category":"Village Road"}},
{"type":"Feature","geometry":{"type":"LineString","coordinates":[[71.81875,21.52277],[71.8185,21.52261],[71.81779,21.52262],[71.81692,21.52247],[71.81648,21.52237],[71.81551,21.52216],[71.8146,21.52166],[71.81372,21.52119],[71.81168,21.52012],[71.81042,21.51936],[71.80922,21.5184],[71.80843,21.51814],[71.80707,21.51777],[71.80609,21.51732],[71.80434,21.5165],[71.80217,21.51567],[71.80162,21.51531],[71.80048,21.51465],[71.79999,21.51439],[71.79929,21.51413],[71.79789,21.51399],[71.79695,21.51387],[71.7966,21.51384],[71.79574,21.5136],[71.79483,21.51321],[71.79379,21.51272],[71.79318,21.51233],[71.79239,21.5119],[71.79169,21.5116],[71.7912,21.51139],[71.79067,21.51108],[71.78865,21.50986],[71.78725,21.50871],[71.78565,21.50747],[71.78395,21.50587],[71.78325,21.50516],[71.78247,21.50411],[71.78159,21.50315],[71.78099,21.50259],[71.78046,21.50201],[71.78022,21.50156],[71.77958,21.501],[71.77917,21.50059],[71.77819,21.49954],[71.77816,21.49905],[71.77815,21.49832],[71.77832,21.49784],[71.77838,21.4976],[71.77855,21.49726],[71.77859,21.49681],[71.77852,21.49637],[71.77827,21.49593],[71.77796,21.49562],[71.77784,21.49534],[71.77759,21.49437],[71.77744,21.49377],[71.77741,21.49347],[71.77661,21.49198],[71.77633,21.49113],[71.77634,21.49037],[71.77613,21.49109],[71.77569,21.49119],[71.77542,21.4913],[71.77542,21.49152],[71.77518,21.49311],[71.77503,21.49385],[71.77488,21.49451],[71.77424,21.49579],[71.7741,21.49654],[71.77385,21.4972],[71.77372,21.4977],[71.7736,21.49832],[71.77345,21.4991],[71.77331,21.49947],[71.77316,21.5001],[71.77316,21.50038],[71.77312,21.501],[71.772,21.50243],[71.77109,21.50375],[71.7705,21.50452],[71.76973,21.50563],[71.76966,21.50592],[71.76911,21.50749],[71.7686,21.50987],[71.76841,21.51075],[71.76827,21.51182],[71.76774,21.5129],[71.76748,21.51362],[71.76729,21.51409],[71.7667,21.51524],[71.7666,21.51537],[71.76649,21.51636],[71.76646,21.51702]]},"properties":{"icon":null,"CAT":"ODR","NAME":"Palitana Adapur Gheti Road","FROM_KM":0,"TO_KM":9.2,"BSSLANE":9.2,"SSLANE":0,"INTER":0,"SDLANE":0,"SMLTL":0,"CAR_WIDTH":3.75,"FOR_WIDTH":6,"LAND_WIDTH":18,"LENGTH_ROA":9.2,"SURFACE":"BT","SP":null,"REMARK":null,"CAT_SP":"ODR P","CAT_SURFAC":"ODR BT","NEW_SURFAC":"BT","YEARS":"DEVL. IN 2006 OR BE.","SH_NH_ID":null,"DISTRICT":"Bhavnagar","Category":"Other District Road"}},
{"type":"Feature","geometry":{"type":"LineString","coordinates":[[71.71777,21.48332],[71.71935,21.48248],[71.72067,21.48272],[71.72219,21.48262],[71.72252,21.48244],[71.72366,21.48039],[71.72562,21.47735],[71.72697,21.47609],[71.73016,21.47344],[71.73232,21.47153],[71.73672,21.46729],[71.7373,21.46628],[71.73809,21.46398],[71.73901,21.46135],[71.74061,21.46011],[71.74076,21.45896],[71.74099,21.45657],[71.74171,21.45538],[71.74168,21.45322],[71.74166,21.45228]]},"properties":{"icon":null,"CAT":"VR(NP)","NAME":"Dedarda Jaliya(Amaraji) Road","FROM_KM":0,"TO_KM":4,"BSSLANE":4,"SSLANE":0,"INTER":0,"SDLANE":0,"SMLTL":0,"CAR_WIDTH":0,"FOR_WIDTH":5,"LAND_WIDTH":10,"LENGTH_ROA":4,"SURFACE":"Earthen","SP":null,"REMARK":null,"CAT_SP":"VR(NP) P","CAT_SURFAC":"VR(NP) Earthen","NEW_SURFAC":"Earthen","YEARS":"DEVL. IN 2006 OR BE.","SH_NH_ID":null,"DISTRICT":"Bhavnagar","Category":"Village Road"}},
{"type":"Feature","geometry":{"type":"LineString","coordinates":[[71.76558,21.51888],[71.76615,21.51948],[71.7667,21.51995],[71.76755,21.52024],[71.76929,21.52048],[71.771,21.52041],[71.7715,21.52193],[71.77128,21.52262],[71.77142,21.52365],[71.77153,21.52365]]},"properties":{"icon":null,"CAT":"VR(NP)","NAME":"Gheti Hadmatiya Road","FROM_KM":0,"TO_KM":3,"BSSLANE":3,"SSLANE":0,"INTER":0,"SDLANE":0,"SMLTL":0,"CAR_WIDTH":0,"FOR_WIDTH":5,"LAND_WIDTH":10,"LENGTH_ROA":3,"SURFACE":"Earthen","SP":null,"REMARK":null,"CAT_SP":"VR(NP) P","CAT_SURFAC":"VR(NP) Earthen","NEW_SURFAC":"Earthen","YEARS":"DEVL. IN 2006 OR BE.","SH_NH_ID":null,"DISTRICT":"Bhavnagar","Category":"Village Road"}},
{"type":"Feature","geometry":{"type":"LineString","coordinates":[[71.7645,21.51921],[71.76428,21.52078],[71.76469,21.52262],[71.76467,21.52333],[71.76503,21.52434],[71.76519,21.52536],[71.76517,21.52555]]},"properties":{"icon":null,"CAT":"VR(NP)","NAME":"Gheti Ranparda Road","FROM_KM":0,"TO_KM":3,"BSSLANE":3,"SSLANE":0,"INTER":0,"SDLANE":0,"SMLTL":0,"CAR_WIDTH":0,"FOR_WIDTH":5,"LAND_WIDTH":10,"LENGTH_ROA":3,"SURFACE":"Earthen","SP":null,"REMARK":null,"CAT_SP":"VR(NP) P","CAT_SURFAC":"VR(NP) Earthen","NEW_SURFAC":"Earthen","YEARS":"DEVL. IN 2006 OR BE.","SH_NH_ID":null,"DISTRICT":"Bhavnagar","Category":"Village Road"}},
{"type":"Feature","geometry":{"type":"LineString","coordinates":[[71.71529,21.48877],[71.71529,21.4881],[71.7162,21.48815],[71.71671,21.48803],[71.71683,21.48749],[71.71687,21.48667],[71.71679,21.48587],[71.71708,21.48587]]},"properties":{"icon":null,"CAT":"VR(NP)","NAME":"Shivendranagar Dedarda Road","FROM_KM":0,"TO_KM":3,"BSSLANE":3,"SSLANE":0,"INTER":0,"SDLANE":0,"SMLTL":0,"CAR_WIDTH":0,"FOR_WIDTH":5,"LAND_WIDTH":10,"LENGTH_ROA":3,"SURFACE":"Earthen","SP":null,"REMARK":null,"CAT_SP":"VR(NP) P","CAT_SURFAC":"VR(NP) Earthen","NEW_SURFAC":"Earthen","YEARS":"DEVL. IN 2006 OR BE.","SH_NH_ID":null,"DISTRICT":"Bhavnagar","Category":"Village Road"}},
{"type":"Feature","geometry":{"type":"LineString","coordinates":[[71.82334,21.52158],[71.82326,21.52107],[71.82261,21.52032],[71.82233,21.52006],[71.82122,21.51692],[71.82081,21.51573],[71.82067,21.5153],[71.82006,21.51447],[71.81928,21.51349],[71.81809,21.51226],[71.81724,21.51121],[71.81636,21.50963],[71.81562,21.50829],[71.81505,21.50699],[71.81441,21.50532]]},"properties":{"icon":null,"CAT":"VR(NP)","NAME":"Tadati Road Joinin SH Talaja Palitana Road","FROM_KM":0,"TO_KM":1,"BSSLANE":1,"SSLANE":0,"INTER":0,"SDLANE":0,"SMLTL":0,"CAR_WIDTH":3,"FOR_WIDTH":6,"LAND_WIDTH":10,"LENGTH_ROA":1,"SURFACE":"BT","SP":null,"REMARK":null,"CAT_SP":"VR(NP) P","CAT_SURFAC":"VR(NP) BT","NEW_SURFAC":"BT","YEARS":"DEVL. IN 2006 OR BE.","SH_NH_ID":null,"DISTRICT":"Bhavnagar","Category":"Village Road"}},
{"type":"Feature","geometry":{"type":"LineString","coordinates":[[71.73584,21.51094],[71.73594,21.51088],[71.73716,21.51056],[71.73756,21.5101],[71.73817,21.50894],[71.73907,21.50858],[71.73952,21.50789],[71.73981,21.50728],[71.74017,21.50694],[71.74019,21.50589]]},"properties":{"icon":null,"CAT":"VR(NP)","NAME":"dUDHARA NANIVAV","FROM_KM":0,"TO_KM":3,"BSSLANE":0,"SSLANE":0,"INTER":0,"SDLANE":0,"SMLTL":0,"CAR_WIDTH":3,"FOR_WIDTH":6,"LAND_WIDTH":10,"LENGTH_ROA":3,"SURFACE":"WBM","SP":null,"REMARK":null,"CAT_SP":"VR(NP) P","CAT_SURFAC":"VR(NP) WBM","NEW_SURFAC":"WBM","YEARS":"2012","SH_NH_ID":null,"DISTRICT":"Bhavnagar","Category":"Village Road"}},
{"type":"Feature","geometry":{"type":"LineString","coordinates":[[71.71797,21.48687],[71.71887,21.48665],[71.7201,21.4865],[71.72134,21.48642],[71.72303,21.48658],[71.72364,21.48659],[71.72532,21.48641],[71.72888,21.48606],[71.72934,21.48632],[71.72999,21.48629],[71.73069,21.48611],[71.73142,21.48561],[71.73287,21.48488],[71.73419,21.48446],[71.7345,21.48438],[71.73488,21.48472],[71.73563,21.48453]]},"properties":{"icon":null,"CAT":"MDR","NAME":"Kanjarda Dedarda Road","FROM_KM":0,"TO_KM":3,"BSSLANE":3,"SSLANE":0,"INTER":0,"SDLANE":0,"SMLTL":0,"CAR_WIDTH":3.6,"FOR_WIDTH":6,"LAND_WIDTH":24,"LENGTH_ROA":3,"SURFACE":"BT","SP":null,"REMARK":null,"CAT_SP":"MDR P","CAT_SURFAC":"MDR BT","NEW_SURFAC":"BT","YEARS":"DEVL. IN 2006 OR BE.","SH_NH_ID":null,"DISTRICT":"Bhavnagar","Category":"Major District Road"}},
{"type":"Feature","geometry":{"type":"LineString","coordinates":[[71.74019,21.50588],[71.74006,21.50565],[71.74025,21.50539],[71.74067,21.50496],[71.741,21.50438],[71.7413,21.50365],[71.74148,21.50293],[71.74181,21.50182],[71.74217,21.50141],[71.74255,21.50118],[71.74302,21.50016],[71.74329,21.5],[71.74414,21.49992],[71.7448,21.49988],[71.74532,21.4997],[71.74613,21.49899],[71.74654,21.49851],[71.74663,21.49829],[71.74665,21.49787],[71.7468,21.49735],[71.74727,21.49697],[71.74756,21.49683],[71.74776,21.49662]]},"properties":{"icon":null,"CAT":"ODR","NAME":"Nanimal Kanjarada Road","FROM_KM":0,"TO_KM":2,"BSSLANE":2,"SSLANE":0,"INTER":0,"SDLANE":0,"SMLTL":0,"CAR_WIDTH":3.75,"FOR_WIDTH":6,"LAND_WIDTH":18,"LENGTH_ROA":2,"SURFACE":"WBM","SP":null,"REMARK":null,"CAT_SP":"ODR P","CAT_SURFAC":"ODR WBM","NEW_SURFAC":"WBM","YEARS":"DEVL. IN 2006 OR BE.","SH_NH_ID":null,"DISTRICT":"Bhavnagar","Category":"Other District Road"}},
{"type":"Feature","geometry":{"type":"LineString","coordinates":[[71.74595,21.49481],[71.74761,21.49251],[71.7482,21.49166],[71.74906,21.49033],[71.74838,21.48852],[71.7477,21.48622],[71.74721,21.48549],[71.74698,21.48412],[71.74694,21.48351],[71.74665,21.48315],[71.74622,21.48258],[71.74615,21.4824],[71.74559,21.4824],[71.74505,21.48232],[71.74463,21.48249],[71.74384,21.4828],[71.74192,21.48301],[71.74026,21.48361],[71.73858,21.48402],[71.73762,21.48421],[71.73656,21.48429],[71.73565,21.48454]]},"properties":{"icon":null,"CAT":"VR","NAME":"Kanjarda Dedarda Road","FROM_KM":0,"TO_KM":6,"BSSLANE":6,"SSLANE":0,"INTER":0,"SDLANE":0,"SMLTL":0,"CAR_WIDTH":3,"FOR_WIDTH":6,"LAND_WIDTH":12,"LENGTH_ROA":3,"SURFACE":"BT","SP":null,"REMARK":null,"CAT_SP":"VR P","CAT_SURFAC":"VR BT","NEW_SURFAC":"BT","YEARS":"31 March 2008-09","SH_NH_ID":null,"DISTRICT":"Bhavnagar","Category":"Village Road"}},
{"type":"Feature","geometry":{"type":"LineString","coordinates":[[71.74386,21.45112],[71.74413,21.4506],[71.74434,21.4497],[71.74481,21.44911],[71.74603,21.44896],[71.74723,21.44881],[71.74841,21.44898],[71.74985,21.44893],[71.75,21.44881],[71.74978,21.44817],[71.74991,21.44763],[71.7502,21.44721],[71.75114,21.44721]]},"properties":{"icon":null,"CAT":"VR","NAME":"Jaliya(Amaraji) App Road","FROM_KM":0,"TO_KM":1,"BSSLANE":1,"SSLANE":0,"INTER":0,"SDLANE":0,"SMLTL":0,"CAR_WIDTH":3,"FOR_WIDTH":6,"LAND_WIDTH":10,"LENGTH_ROA":1,"SURFACE":"BT","SP":null,"REMARK":null,"CAT_SP":"VR P","CAT_SURFAC":"VR BT","NEW_SURFAC":"BT","YEARS":"31 March 2008-09","SH_NH_ID":null,"DISTRICT":"Bhavnagar","Category":"Village Road"}},
{"type":"Feature","geometry":{"type":"LineString","coordinates":[[71.81177,21.52416],[71.8116,21.52412],[71.81058,21.52419],[71.8094,21.52416],[71.80821,21.52383],[71.80748,21.52444],[71.80663,21.52451],[71.80552,21.52343],[71.8015,21.52342],[71.79874,21.52327],[71.79693,21.52333],[71.7943,21.52296],[71.79219,21.52256],[71.79109,21.52206],[71.7887,21.52177],[71.78692,21.52113],[71.78485,21.52086],[71.78389,21.52085],[71.78238,21.52059],[71.7791,21.52022],[71.77782,21.5198],[71.77535,21.52],[71.77403,21.52],[71.77233,21.51968],[71.7709,21.51952],[71.77017,21.51925],[71.76904,21.51828],[71.76796,21.51768],[71.76735,21.51738],[71.76626,21.51722],[71.76272,21.51239],[71.76106,21.51024],[71.75956,21.50831],[71.75784,21.50661],[71.75465,21.50407],[71.75347,21.5031],[71.75168,21.50107],[71.75073,21.50016],[71.74973,21.49923],[71.74867,21.49816],[71.74793,21.49725],[71.74776,21.49662],[71.74741,21.49606],[71.74615,21.49486],[71.74555,21.49437],[71.74447,21.49298],[71.74298,21.49106],[71.74084,21.48957],[71.73972,21.48884],[71.73788,21.48796],[71.73671,21.48718],[71.73607,21.48592],[71.73488,21.48472],[71.73389,21.48359],[71.73258,21.4812],[71.73234,21.48054],[71.73125,21.47745],[71.7301,21.47392],[71.72995,21.47337],[71.72922,21.46998],[71.72815,21.46905],[71.7265,21.46713],[71.7251,21.46539],[71.72439,21.46432],[71.7232,21.46277],[71.72161,21.46132],[71.72066,21.45992],[71.71972,21.45845],[71.71837,21.45705],[71.71678,21.45535],[71.71557,21.45393],[71.71421,21.453],[71.71375,21.45245],[71.71359,21.45231]]},"properties":{"icon":null,"CAT":"MDR","NAME":"Gujarada Bhandariya Satapada Zaliya Geti Palitana Road Sec. Zaliya To Palitana","FROM_KM":12.8,"TO_KM":17,"BSSLANE":0,"SSLANE":20,"INTER":0,"SDLANE":0,"SMLTL":0,"CAR_WIDTH":3.75,"FOR_WIDTH":7.5,"LAND_WIDTH":24,"LENGTH_ROA":21.5,"SURFACE":"BT","SP":null,"REMARK":null,"CAT_SP":"MDR P","CAT_SURFAC":"MDR BT","NEW_SURFAC":"BT","YEARS":"31 March 2010-11","SH_NH_ID":null,"DISTRICT":"Bhavnagar","Category":"Major District Road"}},
{"type":"Feature","geometry":{"type":"LineString","coordinates":[[71.82018,21.50746],[71.8216,21.50761],[71.8236,21.5067],[71.82455,21.50662],[71.82578,21.50665],[71.82749,21.50672],[71.82918,21.50646],[71.82959,21.50677],[71.83128,21.50631],[71.83169,21.50689],[71.83204,21.50741],[71.83258,21.50723],[71.83248,21.50782],[71.83243,21.50841],[71.83258,21.50874],[71.83246,21.50971],[71.83282,21.51045],[71.8332,21.51045],[71.83361,21.51062],[71.83479,21.51113],[71.83566,21.51168],[71.83593,21.51208]]},"properties":{"icon":null,"CAT":"VR(NP)","NAME":"Talati arisa bhava to Pilvas Road","FROM_KM":0,"TO_KM":1,"BSSLANE":0,"SSLANE":1,"INTER":0,"SDLANE":0,"SMLTL":0,"CAR_WIDTH":3,"FOR_WIDTH":6,"LAND_WIDTH":10,"LENGTH_ROA":1,"SURFACE":"BT","SP":null,"REMARK":null,"CAT_SP":"VR(NP) P","CAT_SURFAC":"VR(NP) BT","NEW_SURFAC":"BT","YEARS":"31 March 2010-11","SH_NH_ID":null,"DISTRICT":"Bhavnagar","Category":"Village Road"}},
{"type":"Feature","geometry":{"type":"LineString","coordinates":[[71.77636,21.49033],[71.77727,21.48882],[71.77746,21.48856],[71.77736,21.48804],[71.77715,21.48715],[71.77736,21.48631],[71.77753,21.48538],[71.77786,21.48458],[71.77788,21.48384],[71.77753,21.4815],[71.77544,21.48138],[71.77468,21.48119],[71.77384,21.48127],[71.77293,21.4811],[71.77192,21.48108],[71.77064,21.48132],[71.76741,21.48207],[71.76617,21.48199],[71.76527,21.48136],[71.76425,21.48136],[71.76284,21.48092],[71.76114,21.48142],[71.76057,21.48142],[71.75979,21.48165],[71.75905,21.48241],[71.75795,21.48302],[71.75707,21.48328],[71.75562,21.48361],[71.75511,21.48412],[71.75446,21.48555],[71.75442,21.48601],[71.75332,21.48688],[71.75311,21.48833],[71.75269,21.48915],[71.75338,21.48985],[71.7538,21.49033],[71.75343,21.4909],[71.75303,21.49149],[71.75279,21.49189],[71.7521,21.49236],[71.75222,21.49316],[71.75189,21.49417],[71.75163,21.49488],[71.75117,21.49547],[71.75102,21.49594],[71.75048,21.49615],[71.74947,21.49657],[71.74885,21.49693],[71.74807,21.49729]]},"properties":{"icon":null,"CAT":"VR(NP)","NAME":"Adpar Sidhvad Road","FROM_KM":0,"TO_KM":6,"BSSLANE":0,"SSLANE":6,"INTER":0,"SDLANE":0,"SMLTL":0,"CAR_WIDTH":3.75,"FOR_WIDTH":6,"LAND_WIDTH":10,"LENGTH_ROA":1.5,"SURFACE":"BT","SP":null,"REMARK":null,"CAT_SP":"VR(NP) P","CAT_SURFAC":"VR(NP) BT","NEW_SURFAC":"BT","YEARS":"31 March 2010-11","SH_NH_ID":null,"DISTRICT":"Bhavnagar","Category":"Village Road"}},
{"type":"Feature","geometry":{"type":"LineString","coordinates":[[71.71446,21.45138],[71.71546,21.45174],[71.7159,21.45176],[71.71662,21.45168],[71.71667,21.45025],[71.71686,21.44959],[71.71683,21.44924],[71.71704,21.44895]]},"properties":{"icon":null,"CAT":"VR(NP)","NAME":"Jaliya Manaji app. road Join Hathsani road","FROM_KM":0,"TO_KM":1.5,"BSSLANE":1.5,"SSLANE":0,"INTER":0,"SDLANE":0,"SMLTL":0,"CAR_WIDTH":3.75,"FOR_WIDTH":6,"LAND_WIDTH":10,"LENGTH_ROA":1.5,"SURFACE":"BT","SP":null,"REMARK":null,"CAT_SP":"VR(NP) P","CAT_SURFAC":"VR(NP) BT","NEW_SURFAC":"BT","YEARS":"2012","SH_NH_ID":null,"DISTRICT":"Bhavnagar","Category":"Village Road"}},
{"type":"Feature","geometry":{"type":"LineString","coordinates":[[71.82196,21.48915],[71.82531,21.48881],[71.82707,21.48878],[71.82915,21.48999],[71.83091,21.49069],[71.83198,21.49066],[71.8328,21.49052],[71.83397,21.48946],[71.83553,21.48872],[71.83665,21.48829],[71.8379,21.48792],[71.83879,21.48768],[71.83976,21.48632],[71.8406,21.48641],[71.84108,21.48664]]},"properties":{"icon":null,"CAT":"ODR","NAME":"Gajariya Aproch Road","FROM_KM":0,"TO_KM":2,"BSSLANE":0,"SSLANE":0,"INTER":0,"SDLANE":0,"SMLTL":0,"CAR_WIDTH":3.75,"FOR_WIDTH":7,"LAND_WIDTH":12,"LENGTH_ROA":5.13899872313,"SURFACE":"BT","SP":null,"REMARK":null,"CAT_SP":"ODR P","CAT_SURFAC":"ODR BT","NEW_SURFAC":"BT","YEARS":"31 March 2007-08","SH_NH_ID":null,"DISTRICT":"Bhavnagar","Category":"Other District Road"}}
]}