{"type":"FeatureCollection", "features": [
{"type":"Feature","geometry":{"type":"Polygon","coordinates":[[[71.76565,21.49088],[71.76565,21.4908],[71.76566,21.49081],[71.76566,21.49088],[71.76565,21.49088]]]},"properties":{"id":2,"Feature":"Checkdam"}},
{"type":"Feature","geometry":{"type":"Polygon","coordinates":[[[71.76397,21.48629],[71.76396,21.48628],[71.76401,21.48622],[71.76402,21.48623],[71.76397,21.48629]]]},"properties":{"id":2,"Feature":"Checkdam"}},
{"type":"Feature","geometry":{"type":"Polygon","coordinates":[[[71.77229,21.48442],[71.77227,21.48455],[71.77208,21.48451],[71.7721,21.48439],[71.77229,21.48442]]]},"properties":{"id":2,"Feature":"Checkdam"}},
{"type":"Feature","geometry":{"type":"Polygon","coordinates":[[[71.77937,21.48171],[71.77947,21.48179],[71.77944,21.48182],[71.77934,21.48174],[71.77937,21.48171]]]},"properties":{"id":2,"Feature":"Checkdam"}},
{"type":"Feature","geometry":{"type":"Polygon","coordinates":[[[71.78053,21.4823],[71.78053,21.48241],[71.7805,21.48241],[71.78049,21.48231],[71.78053,21.4823]]]},"properties":{"id":2,"Feature":"Checkdam"}},
{"type":"Feature","geometry":{"type":"Polygon","coordinates":[[[71.77906,21.48374],[71.779,21.48376],[71.77893,21.48362],[71.77898,21.48359],[71.77906,21.48374]]]},"properties":{"id":2,"Feature":"Checkdam"}},
{"type":"Feature","geometry":{"type":"Polygon","coordinates":[[[71.78223,21.4949],[71.78219,21.49483],[71.7822,21.49483],[71.78224,21.49489],[71.78223,21.4949]]]},"properties":{"id":2,"Feature":"Checkdam"}},
{"type":"Feature","geometry":{"type":"Polygon","coordinates":[[[71.78465,21.4974],[71.7847,21.49739],[71.78472,21.49748],[71.78468,21.49749],[71.78465,21.4974]]]},"properties":{"id":2,"Feature":"Checkdam"}},
{"type":"Feature","geometry":{"type":"Polygon","coordinates":[[[71.79151,21.50098],[71.79147,21.50098],[71.79144,21.50075],[71.79148,21.50074],[71.79151,21.50098]]]},"properties":{"id":2,"Feature":"Checkdam"}},
{"type":"Feature","geometry":{"type":"Polygon","coordinates":[[[71.78958,21.50153],[71.78953,21.50153],[71.78952,21.50135],[71.78958,21.50135],[71.78958,21.50153]]]},"properties":{"id":2,"Feature":"Checkdam"}},
{"type":"Feature","geometry":{"type":"Polygon","coordinates":[[[71.78578,21.50354],[71.78577,21.50359],[71.78563,21.50353],[71.78565,21.50349],[71.78578,21.50354]]]},"properties":{"id":2,"Feature":"Checkdam"}},
{"type":"Feature","geometry":{"type":"Polygon","coordinates":[[[71.7869,21.5051],[71.78692,21.50528],[71.7869,21.50528],[71.78688,21.5051],[71.7869,21.5051]]]},"properties":{"id":2,"Feature":"Checkdam"}},
{"type":"Feature","geometry":{"type":"Polygon","coordinates":[[[71.78845,21.50703],[71.7884,21.50705],[71.78826,21.50682],[71.7883,21.50679],[71.78845,21.50703]]]},"properties":{"id":2,"Feature":"Checkdam"}},
{"type":"Feature","geometry":{"type":"Polygon","coordinates":[[[71.79556,21.50985],[71.79575,21.50977],[71.79577,21.5098],[71.79558,21.50988],[71.79556,21.50985]]]},"properties":{"id":2,"Feature":"Checkdam"}},
{"type":"Feature","geometry":{"type":"Polygon","coordinates":[[[71.79921,21.50824],[71.79919,21.50822],[71.79927,21.50815],[71.79928,21.50817],[71.79921,21.50824]]]},"properties":{"id":2,"Feature":"Checkdam"}},
{"type":"Feature","geometry":{"type":"Polygon","coordinates":[[[71.79832,21.50729],[71.79846,21.50721],[71.79849,21.50725],[71.79835,21.50733],[71.79832,21.50729]]]},"properties":{"id":2,"Feature":"Checkdam"}},
{"type":"Feature","geometry":{"type":"Polygon","coordinates":[[[71.80095,21.50786],[71.80092,21.50783],[71.80112,21.50768],[71.80114,21.5077],[71.80095,21.50786]]]},"properties":{"id":2,"Feature":"Checkdam"}},
{"type":"Feature","geometry":{"type":"Polygon","coordinates":[[[71.80644,21.50526],[71.80641,21.50521],[71.80656,21.50513],[71.80658,21.50517],[71.80644,21.50526]]]},"properties":{"id":2,"Feature":"Checkdam"}},
{"type":"Feature","geometry":{"type":"Polygon","coordinates":[[[71.80675,21.50485],[71.80686,21.5048],[71.80689,21.50484],[71.80678,21.5049],[71.80675,21.50485]]]},"properties":{"id":2,"Feature":"Checkdam"}},
{"type":"Feature","geometry":{"type":"Polygon","coordinates":[[[71.81416,21.47857],[71.81414,21.47845],[71.81415,21.47845],[71.81417,21.47857],[71.81416,21.47857]]]},"properties":{"id":2,"Feature":"Checkdam"}},
{"type":"Feature","geometry":{"type":"Polygon","coordinates":[[[71.81354,21.47876],[71.8135,21.47866],[71.81353,21.47866],[71.81357,21.47875],[71.81354,21.47876]]]},"properties":{"id":2,"Feature":"Checkdam"}},
{"type":"Feature","geometry":{"type":"Polygon","coordinates":[[[71.81157,21.47852],[71.81157,21.47848],[71.81169,21.4785],[71.81169,21.47854],[71.81157,21.47852]]]},"properties":{"id":2,"Feature":"Checkdam"}},
{"type":"Feature","geometry":{"type":"Polygon","coordinates":[[[71.81165,21.47811],[71.81184,21.47817],[71.81183,21.4782],[71.81164,21.47815],[71.81165,21.47811]]]},"properties":{"id":2,"Feature":"Checkdam"}},
{"type":"Feature","geometry":{"type":"Polygon","coordinates":[[[71.81229,21.47346],[71.81231,21.47342],[71.81247,21.47352],[71.81244,21.47356],[71.81229,21.47346]]]},"properties":{"id":2,"Feature":"Checkdam"}},
{"type":"Feature","geometry":{"type":"Polygon","coordinates":[[[71.80749,21.46513],[71.80752,21.4652],[71.80749,21.46521],[71.80746,21.46515],[71.80749,21.46513]]]},"properties":{"id":2,"Feature":"Checkdam"}},
{"type":"Feature","geometry":{"type":"Polygon","coordinates":[[[71.80781,21.46476],[71.8078,21.46481],[71.8077,21.46479],[71.80771,21.46474],[71.80781,21.46476]]]},"properties":{"id":2,"Feature":"Checkdam"}},
{"type":"Feature","geometry":{"type":"Polygon","coordinates":[[[71.80798,21.46403],[71.80786,21.46401],[71.80787,21.46397],[71.80798,21.46399],[71.80798,21.46403]]]},"properties":{"id":2,"Feature":"Checkdam"}},
{"type":"Feature","geometry":{"type":"Polygon","coordinates":[[[71.79529,21.45612],[71.79531,21.45611],[71.79539,21.4562],[71.79537,21.45622],[71.79529,21.45612]]]},"properties":{"id":2,"Feature":"Checkdam"}},
{"type":"Feature","geometry":{"type":"Polygon","coordinates":[[[71.79463,21.45675],[71.79465,21.45673],[71.79475,21.45681],[71.79473,21.45683],[71.79463,21.45675]]]},"properties":{"id":2,"Feature":"Checkdam"}},
{"type":"Feature","geometry":{"type":"Polygon","coordinates":[[[71.78328,21.46149],[71.78326,21.46146],[71.78337,21.46144],[71.78338,21.46147],[71.78328,21.46149]]]},"properties":{"id":2,"Feature":"Checkdam"}},
{"type":"Feature","geometry":{"type":"Polygon","coordinates":[[[71.78293,21.46169],[71.78292,21.46167],[71.78305,21.46161],[71.78306,21.46162],[71.78293,21.46169]]]},"properties":{"id":2,"Feature":"Checkdam"}},
{"type":"Feature","geometry":{"type":"Polygon","coordinates":[[[71.75831,21.45898],[71.7583,21.45893],[71.75838,21.45891],[71.75839,21.45896],[71.75831,21.45898]]]},"properties":{"id":2,"Feature":"Checkdam"}},
{"type":"Feature","geometry":{"type":"Polygon","coordinates":[[[71.73765,21.48325],[71.7376,21.48325],[71.7376,21.48315],[71.73765,21.48316],[71.73765,21.48325]]]},"properties":{"id":2,"Feature":"Checkdam"}},
{"type":"Feature","geometry":{"type":"Polygon","coordinates":[[[71.73999,21.48297],[71.74014,21.48296],[71.74015,21.483],[71.73999,21.48301],[71.73999,21.48297]]]},"properties":{"id":2,"Feature":"Checkdam"}},
{"type":"Feature","geometry":{"type":"Polygon","coordinates":[[[71.75126,21.47456],[71.7514,21.4746],[71.75139,21.47464],[71.75125,21.4746],[71.75126,21.47456]]]},"properties":{"id":2,"Feature":"Checkdam"}},
{"type":"Feature","geometry":{"type":"Polygon","coordinates":[[[71.75136,21.4817],[71.75131,21.48171],[71.75131,21.48164],[71.75135,21.48164],[71.75136,21.4817]]]},"properties":{"id":2,"Feature":"Checkdam"}},
{"type":"Feature","geometry":{"type":"Polygon","coordinates":[[[71.75388,21.47413],[71.75385,21.47414],[71.75376,21.47399],[71.75379,21.47398],[71.75388,21.47413]]]},"properties":{"id":2,"Feature":"Checkdam"}},
{"type":"Feature","geometry":{"type":"Polygon","coordinates":[[[71.75334,21.48392],[71.75331,21.48388],[71.75336,21.48385],[71.75339,21.48389],[71.75334,21.48392]]]},"properties":{"id":2,"Feature":"Checkdam"}},
{"type":"Feature","geometry":{"type":"Polygon","coordinates":[[[71.75571,21.50297],[71.75587,21.50297],[71.75587,21.50301],[71.75571,21.50301],[71.75571,21.50297]]]},"properties":{"id":2,"Feature":"Checkdam"}},
{"type":"Feature","geometry":{"type":"Polygon","coordinates":[[[71.75701,21.50433],[71.75701,21.50431],[71.75706,21.50433],[71.75706,21.50434],[71.75701,21.50433]]]},"properties":{"id":2,"Feature":"Checkdam"}},
{"type":"Feature","geometry":{"type":"Polygon","coordinates":[[[71.75702,21.50316],[71.75702,21.50321],[71.75685,21.50321],[71.75685,21.50317],[71.75702,21.50316]]]},"properties":{"id":2,"Feature":"Checkdam"}},
{"type":"Feature","geometry":{"type":"Polygon","coordinates":[[[71.75738,21.50341],[71.75753,21.50347],[71.75752,21.50351],[71.75737,21.50345],[71.75738,21.50341]]]},"properties":{"id":2,"Feature":"Checkdam"}},
{"type":"Feature","geometry":{"type":"Polygon","coordinates":[[[71.75956,21.50474],[71.75958,21.50475],[71.75957,21.50491],[71.75955,21.5049],[71.75956,21.50474]]]},"properties":{"id":2,"Feature":"Checkdam"}},
{"type":"Feature","geometry":{"type":"Polygon","coordinates":[[[71.76185,21.50543],[71.76184,21.50539],[71.76198,21.50535],[71.76199,21.50538],[71.76185,21.50543]]]},"properties":{"id":2,"Feature":"Checkdam"}},
{"type":"Feature","geometry":{"type":"Polygon","coordinates":[[[71.76669,21.48199],[71.76684,21.48192],[71.76686,21.48196],[71.76671,21.48203],[71.76669,21.48199]]]},"properties":{"id":2,"Feature":"Checkdam"}},
{"type":"Feature","geometry":{"type":"Polygon","coordinates":[[[71.7672,21.48158],[71.76732,21.48147],[71.76735,21.48149],[71.76723,21.48161],[71.7672,21.48158]]]},"properties":{"id":2,"Feature":"Checkdam"}},
{"type":"Feature","geometry":{"type":"Polygon","coordinates":[[[71.76984,21.46312],[71.76982,21.46308],[71.76995,21.46301],[71.76997,21.46305],[71.76984,21.46312]]]},"properties":{"id":2,"Feature":"Checkdam"}},
{"type":"Feature","geometry":{"type":"Polygon","coordinates":[[[71.77029,21.46378],[71.7703,21.46372],[71.77044,21.46374],[71.77044,21.4638],[71.77029,21.46378]]]},"properties":{"id":2,"Feature":"Checkdam"}},
{"type":"Feature","geometry":{"type":"Polygon","coordinates":[[[71.77299,21.47676],[71.77301,21.4766],[71.77306,21.47661],[71.77305,21.47676],[71.77299,21.47676]]]},"properties":{"id":2,"Feature":"Checkdam"}},
{"type":"Feature","geometry":{"type":"Polygon","coordinates":[[[71.77249,21.46135],[71.77276,21.46127],[71.77278,21.46131],[71.77251,21.46139],[71.77249,21.46135]]]},"properties":{"id":2,"Feature":"Checkdam"}},
{"type":"Feature","geometry":{"type":"Polygon","coordinates":[[[71.77221,21.46091],[71.77217,21.46087],[71.77235,21.46074],[71.77238,21.46077],[71.77221,21.46091]]]},"properties":{"id":2,"Feature":"Checkdam"}},
{"type":"Feature","geometry":{"type":"Polygon","coordinates":[[[71.77418,21.4761],[71.77427,21.47616],[71.77424,21.47621],[71.77415,21.47615],[71.77418,21.4761]]]},"properties":{"id":2,"Feature":"Checkdam"}},
{"type":"Feature","geometry":{"type":"Polygon","coordinates":[[[71.78114,21.49474],[71.78129,21.49474],[71.78129,21.49478],[71.78114,21.49477],[71.78114,21.49474]]]},"properties":{"id":2,"Feature":"Checkdam"}},
{"type":"Feature","geometry":{"type":"Polygon","coordinates":[[[71.78829,21.4938],[71.78828,21.49376],[71.78839,21.4937],[71.78841,21.49373],[71.78829,21.4938]]]},"properties":{"id":2,"Feature":"Checkdam"}},
{"type":"Feature","geometry":{"type":"Polygon","coordinates":[[[71.79165,21.49647],[71.79154,21.49663],[71.79151,21.49661],[71.79162,21.49645],[71.79165,21.49647]]]},"properties":{"id":2,"Feature":"Checkdam"}},
{"type":"Feature","geometry":{"type":"Polygon","coordinates":[[[71.79068,21.50191],[71.79066,21.50189],[71.79083,21.50174],[71.79086,21.50176],[71.79068,21.50191]]]},"properties":{"id":2,"Feature":"Checkdam"}},
{"type":"Feature","geometry":{"type":"Polygon","coordinates":[[[71.7896,21.50654],[71.78963,21.50653],[71.78964,21.50661],[71.78961,21.50662],[71.7896,21.50654]]]},"properties":{"id":2,"Feature":"Checkdam"}},
{"type":"Feature","geometry":{"type":"Polygon","coordinates":[[[71.79774,21.47976],[71.79774,21.47973],[71.79786,21.47972],[71.79787,21.47975],[71.79774,21.47976]]]},"properties":{"id":2,"Feature":"Checkdam"}},
{"type":"Feature","geometry":{"type":"Polygon","coordinates":[[[71.80198,21.4824],[71.80196,21.48239],[71.80203,21.48228],[71.80204,21.48229],[71.80198,21.4824]]]},"properties":{"id":2,"Feature":"Checkdam"}},
{"type":"Feature","geometry":{"type":"Polygon","coordinates":[[[71.80787,21.50288],[71.80777,21.50269],[71.80782,21.50266],[71.80792,21.50285],[71.80787,21.50288]]]},"properties":{"id":2,"Feature":"Checkdam"}},
{"type":"Feature","geometry":{"type":"Polygon","coordinates":[[[71.80838,21.50151],[71.80837,21.50146],[71.80862,21.50141],[71.80862,21.50146],[71.80838,21.50151]]]},"properties":{"id":2,"Feature":"Checkdam"}},
{"type":"Feature","geometry":{"type":"Polygon","coordinates":[[[71.80854,21.46285],[71.80863,21.46293],[71.8086,21.46297],[71.8085,21.46289],[71.80854,21.46285]]]},"properties":{"id":2,"Feature":"Checkdam"}},
{"type":"Feature","geometry":{"type":"Polygon","coordinates":[[[71.81131,21.48515],[71.81133,21.48512],[71.81147,21.48525],[71.81145,21.48527],[71.81131,21.48515]]]},"properties":{"id":2,"Feature":"Checkdam"}},
{"type":"Feature","geometry":{"type":"Polygon","coordinates":[[[71.81713,21.50063],[71.81723,21.50044],[71.81727,21.50046],[71.81718,21.50066],[71.81713,21.50063]]]},"properties":{"id":2,"Feature":"Checkam"}},
{"type":"Feature","geometry":{"type":"Polygon","coordinates":[[[71.81702,21.49482],[71.81706,21.49484],[71.81694,21.49506],[71.81689,21.49505],[71.81702,21.49482]]]},"properties":{"id":2,"Feature":"Checkdam"}},
{"type":"Feature","geometry":{"type":"Polygon","coordinates":[[[71.81652,21.4877],[71.81658,21.48769],[71.81661,21.48788],[71.81655,21.4879],[71.81652,21.4877]]]},"properties":{"id":2,"Feature":"Checkdam"}},
{"type":"Feature","geometry":{"type":"Polygon","coordinates":[[[71.81562,21.48245],[71.81566,21.4824],[71.8158,21.48253],[71.81576,21.48257],[71.81562,21.48245]]]},"properties":{"id":2,"Feature":"Checkdam"}},
{"type":"Feature","geometry":{"type":"Polygon","coordinates":[[[71.8189,21.48915],[71.8189,21.4892],[71.8187,21.4892],[71.81869,21.48916],[71.8189,21.48915]]]},"properties":{"id":2,"Feature":"Checkdam"}},
{"type":"Feature","geometry":{"type":"Polygon","coordinates":[[[71.82043,21.48972],[71.82038,21.4897],[71.82043,21.48962],[71.82048,21.48963],[71.82043,21.48972]]]},"properties":{"id":2,"Feature":"Checkdam"}},
{"type":"Feature","geometry":{"type":"Polygon","coordinates":[[[71.8212,21.49002],[71.82116,21.48999],[71.8212,21.48993],[71.82124,21.48996],[71.8212,21.49002]]]},"properties":{"id":2,"Feature":"Checkdam"}},
{"type":"Feature","geometry":{"type":"Polygon","coordinates":[[[71.75671,21.50261],[71.75687,21.50261],[71.75687,21.50265],[71.75671,21.50265],[71.75671,21.50261]]]},"properties":{"id":2,"Feature":"Checkdam"}},
{"type":"Feature","geometry":{"type":"Polygon","coordinates":[[[71.76509,21.5033],[71.76506,21.50327],[71.76522,21.50318],[71.76523,21.50323],[71.76509,21.5033]]]},"properties":{"id":2,"Feature":"Checkdam"}},
{"type":"Feature","geometry":{"type":"Polygon","coordinates":[[[71.76661,21.50163],[71.76657,21.5016],[71.76668,21.50149],[71.7667,21.50153],[71.76661,21.50163]]]},"properties":{"id":2,"Feature":"Checkdam"}},
{"type":"Feature","geometry":{"type":"Polygon","coordinates":[[[71.76472,21.5018],[71.76464,21.50179],[71.76463,21.50176],[71.76471,21.50177],[71.76472,21.5018]]]},"properties":{"id":2,"Feature":"Checkdam"}},
{"type":"Feature","geometry":{"type":"Polygon","coordinates":[[[71.7652,21.50055],[71.76534,21.50049],[71.76535,21.50053],[71.76521,21.50058],[71.7652,21.50055]]]},"properties":{"id":2,"Feature":"Checkdam"}},
{"type":"Feature","geometry":{"type":"Polygon","coordinates":[[[71.79719,21.50868],[71.79721,21.50856],[71.79723,21.50856],[71.79722,21.50869],[71.79719,21.50868]]]},"properties":{"id":2,"Feature":"Checkdam"}},
{"type":"Feature","geometry":{"type":"Polygon","coordinates":[[[71.80699,21.50369],[71.80714,21.5037],[71.80713,21.50376],[71.80699,21.50376],[71.80699,21.50369]]]},"properties":{"id":2,"Feature":"Checkdam"}},
{"type":"Feature","geometry":{"type":"Polygon","coordinates":[[[71.81497,21.50023],[71.815,21.50024],[71.81496,21.50036],[71.81494,21.50035],[71.81497,21.50023]]]},"properties":{"id":2,"Feature":"Checkdam"}},
{"type":"Feature","geometry":{"type":"Polygon","coordinates":[[[71.81984,21.49023],[71.81988,21.4902],[71.82002,21.49032],[71.81999,21.49035],[71.81984,21.49023]]]},"properties":{"id":2,"Feature":"Checkdam"}}
]}