{"type":"FeatureCollection", "features": [
{"type":"Feature","geometry":{"type":"Polygon","coordinates":[[[71.75239,21.48351],[71.75244,21.48345],[71.75243,21.48337],[71.75237,21.48328],[71.75232,21.48316],[71.75224,21.48312],[71.7522,21.48286],[71.75224,21.48264],[71.75226,21.48205],[71.75232,21.48202],[71.7523,21.48192],[71.75229,21.4815],[71.75232,21.48119],[71.75242,21.48101],[71.75251,21.48099],[71.75251,21.48094],[71.75259,21.48087],[71.7527,21.4808],[71.75283,21.48074],[71.75297,21.48062],[71.75297,21.48055],[71.75304,21.48054],[71.7531,21.48051],[71.75313,21.48052],[71.75313,21.48055],[71.75312,21.48058],[71.75307,21.48061],[71.75301,21.48066],[71.75298,21.48074],[71.75304,21.48081],[71.75301,21.48087],[71.753,21.48096],[71.75299,21.48107],[71.75298,21.48121],[71.75295,21.48156],[71.75301,21.48158],[71.75303,21.48184],[71.75302,21.48212],[71.75301,21.48229],[71.75296,21.48249],[71.75288,21.48286],[71.75285,21.48316],[71.75278,21.48345],[71.75239,21.48351]]]},"properties":{"id":3,"Feature":"Vantalawadi"}},
{"type":"Feature","geometry":{"type":"Polygon","coordinates":[[[71.76955,21.47208],[71.76967,21.47202],[71.76978,21.47201],[71.76983,21.47201],[71.76983,21.47207],[71.76983,21.47208],[71.76983,21.47209],[71.76982,21.47209],[71.76982,21.4721],[71.76982,21.47211],[71.76982,21.47212],[71.76981,21.47212],[71.76981,21.47213],[71.76981,21.47214],[71.7698,21.47214],[71.7698,21.47215],[71.76979,21.47215],[71.76979,21.47216],[71.76978,21.47216],[71.76978,21.47217],[71.76977,21.47217],[71.76976,21.47217],[71.76976,21.47218],[71.76975,21.47218],[71.76974,21.47219],[71.76973,21.47219],[71.76972,21.47219],[71.76972,21.4722],[71.76971,21.4722],[71.7697,21.4722],[71.76969,21.4722],[71.76968,21.4722],[71.76967,21.4722],[71.76966,21.4722],[71.76965,21.4722],[71.76964,21.4722],[71.76964,21.47219],[71.76963,21.47219],[71.76962,21.47219],[71.76961,21.47219],[71.7696,21.47219],[71.7696,21.47218],[71.76959,21.47218],[71.76958,21.47218],[71.76958,21.47217],[71.76957,21.47217],[71.76957,21.47216],[71.76956,21.47216],[71.76956,21.47215],[71.76955,21.47215],[71.76955,21.47214],[71.76955,21.47213],[71.76955,21.47212],[71.76954,21.47212],[71.76954,21.47211],[71.76954,21.4721],[71.76955,21.4721],[71.76955,21.47209],[71.76955,21.47208]]]},"properties":{"id":3,"Feature":"Vantalawadi"}},
{"type":"Feature","geometry":{"type":"Polygon","coordinates":[[[71.79462,21.48585],[71.79459,21.4858],[71.79462,21.48575],[71.79467,21.48574],[71.79476,21.4857],[71.79484,21.4857],[71.79488,21.4857],[71.79492,21.4857],[71.79494,21.48573],[71.79496,21.48573],[71.79501,21.48569],[71.79511,21.48569],[71.79522,21.4857],[71.79536,21.48572],[71.79542,21.48576],[71.79549,21.4858],[71.79553,21.48582],[71.79557,21.48586],[71.79562,21.48588],[71.79566,21.48591],[71.79567,21.48596],[71.79567,21.486],[71.79564,21.48603],[71.79557,21.48604],[71.79553,21.48605],[71.7955,21.48602],[71.79544,21.48602],[71.79542,21.48601],[71.79541,21.48602],[71.79538,21.48604],[71.79537,21.48607],[71.79533,21.48611],[71.79528,21.48612],[71.79524,21.48613],[71.7952,21.48612],[71.79517,21.48613],[71.79514,21.48611],[71.79511,21.48607],[71.79506,21.4861],[71.79501,21.48605],[71.79492,21.48601],[71.79484,21.486],[71.7947,21.48593],[71.79462,21.48585]]]},"properties":{"id":3,"Feature":"Vantalawadi"}},
{"type":"Feature","geometry":{"type":"Polygon","coordinates":[[[71.8015,21.48116],[71.80158,21.48114],[71.80167,21.48115],[71.80176,21.48119],[71.80181,21.48121],[71.80184,21.48125],[71.80186,21.48129],[71.80182,21.48133],[71.80175,21.48134],[71.80173,21.48137],[71.80169,21.48137],[71.80166,21.48133],[71.80162,21.48131],[71.80159,21.48129],[71.80154,21.48125],[71.80151,21.48124],[71.80148,21.48121],[71.80147,21.48117],[71.8015,21.48116]]]},"properties":{"id":3,"Feature":"Vantalawadi"}},
{"type":"Feature","geometry":{"type":"Polygon","coordinates":[[[71.80528,21.50278],[71.8053,21.50263],[71.80536,21.50244],[71.80545,21.50228],[71.80561,21.50229],[71.80566,21.50232],[71.8057,21.50241],[71.80577,21.50246],[71.80583,21.50278],[71.80528,21.50278]]]},"properties":{"id":3,"Feature":"Vantalawadi"}},
{"type":"Feature","geometry":{"type":"Polygon","coordinates":[[[71.81865,21.49991],[71.81876,21.49971],[71.81887,21.49957],[71.81892,21.49958],[71.819,21.49959],[71.81907,21.49966],[71.81912,21.49971],[71.81918,21.49979],[71.81924,21.49996],[71.8193,21.50014],[71.81934,21.50028],[71.81929,21.50039],[71.81925,21.5005],[71.81911,21.50071],[71.81906,21.50073],[71.81902,21.50071],[71.819,21.50067],[71.8189,21.50066],[71.81881,21.50066],[71.81878,21.50062],[71.81872,21.50054],[71.81866,21.50048],[71.81862,21.50041],[71.81854,21.50036],[71.8185,21.50029],[71.81847,21.50016],[71.81851,21.50004],[71.81865,21.49991]]]},"properties":{"id":3,"Feature":"Vantalawadi"}},
{"type":"Feature","geometry":{"type":"Polygon","coordinates":[[[71.81867,21.48901],[71.81858,21.48895],[71.81858,21.48887],[71.81869,21.48876],[71.81873,21.48859],[71.81869,21.48846],[71.81871,21.48811],[71.81869,21.48787],[71.81902,21.48784],[71.81906,21.48807],[71.81902,21.48844],[71.8189,21.48902],[71.81867,21.48901]]]},"properties":{"id":3,"Feature":"Vantalawadi"}},
{"type":"Feature","geometry":{"type":"Polygon","coordinates":[[[71.73405,21.47695],[71.73366,21.47609],[71.7343,21.47595],[71.73456,21.47674],[71.73405,21.47695]]]},"properties":{"id":3,"Feature":"Vantalawadi"}},
{"type":"Feature","geometry":{"type":"Polygon","coordinates":[[[71.73838,21.4803],[71.73808,21.47979],[71.73845,21.47959],[71.73877,21.48007],[71.73838,21.4803]]]},"properties":{"id":3,"Feature":"Vantalawadi"}},
{"type":"Feature","geometry":{"type":"Polygon","coordinates":[[[71.73849,21.47552],[71.73853,21.47563],[71.73772,21.47556],[71.73769,21.47544],[71.73765,21.47524],[71.73756,21.47496],[71.73757,21.47465],[71.73761,21.47447],[71.73771,21.47428],[71.73787,21.47451],[71.73797,21.47467],[71.73812,21.47473],[71.73827,21.47478],[71.73843,21.47488],[71.73848,21.47508],[71.73849,21.47552]]]},"properties":{"id":3,"Feature":"Vantalawadi"}},
{"type":"Feature","geometry":{"type":"Polygon","coordinates":[[[71.75863,21.48771],[71.75854,21.48771],[71.7585,21.48765],[71.75845,21.48762],[71.75846,21.48754],[71.75854,21.48737],[71.75855,21.48736],[71.75856,21.48736],[71.75857,21.48736],[71.75858,21.48736],[71.75859,21.48736],[71.7586,21.48736],[71.75861,21.48736],[71.75862,21.48736],[71.75863,21.48736],[71.75863,21.48737],[71.75864,21.48737],[71.75865,21.48737],[71.75866,21.48737],[71.75866,21.48738],[71.75867,21.48738],[71.75868,21.48738],[71.75868,21.48739],[71.75869,21.48739],[71.7587,21.4874],[71.75871,21.4874],[71.75871,21.48741],[71.75872,21.48741],[71.75872,21.48742],[71.75873,21.48742],[71.75873,21.48743],[71.75873,21.48744],[71.75874,21.48744],[71.75878,21.4877],[71.75863,21.48771]]]},"properties":{"id":3,"Feature":"Vantalawadi"}},
{"type":"Feature","geometry":{"type":"Polygon","coordinates":[[[71.76669,21.49456],[71.76661,21.49459],[71.76661,21.49448],[71.76659,21.49432],[71.76658,21.49425],[71.76661,21.49411],[71.76675,21.49401],[71.76693,21.4939],[71.76704,21.4938],[71.76713,21.49383],[71.76724,21.49396],[71.76727,21.49406],[71.7673,21.49417],[71.76729,21.49426],[71.76726,21.49434],[71.76721,21.49439],[71.76707,21.49443],[71.76692,21.49445],[71.76679,21.49452],[71.76669,21.49456]]]},"properties":{"id":3,"Feature":"Vantalawadi"}},
{"type":"Feature","geometry":{"type":"Polygon","coordinates":[[[71.76869,21.46432],[71.76863,21.46442],[71.76812,21.46463],[71.76804,21.46461],[71.76794,21.46449],[71.768,21.46435],[71.76808,21.46418],[71.76807,21.46392],[71.76836,21.46391],[71.76837,21.46391],[71.76838,21.46391],[71.76838,21.4639],[71.76839,21.4639],[71.7684,21.4639],[71.76841,21.4639],[71.76842,21.46389],[71.76843,21.46389],[71.76844,21.46389],[71.76845,21.46389],[71.76846,21.46389],[71.76847,21.46389],[71.76848,21.46389],[71.76849,21.46389],[71.7685,21.46389],[71.76851,21.46389],[71.76852,21.46389],[71.76852,21.4639],[71.76853,21.4639],[71.76854,21.4639],[71.76855,21.4639],[71.76856,21.4639],[71.76856,21.46391],[71.76857,21.46391],[71.76858,21.46391],[71.76859,21.46392],[71.7686,21.46392],[71.76861,21.46393],[71.76862,21.46393],[71.76862,21.46394],[71.76863,21.46394],[71.76864,21.46395],[71.76865,21.46396],[71.76866,21.46396],[71.76866,21.46397],[71.76867,21.46398],[71.76868,21.46399],[71.76868,21.464],[71.76869,21.464],[71.76869,21.46401],[71.7687,21.46409],[71.76869,21.46432]]]},"properties":{"id":3,"Feature":"Vantalawadi"}},
{"type":"Feature","geometry":{"type":"Polygon","coordinates":[[[71.76871,21.48453],[71.76886,21.48457],[71.76907,21.48468],[71.76914,21.48479],[71.7689,21.48494],[71.76864,21.48503],[71.76865,21.48484],[71.76871,21.48453]]]},"properties":{"id":3,"Feature":"Vantalawadi"}},
{"type":"Feature","geometry":{"type":"Polygon","coordinates":[[[71.77976,21.47311],[71.77969,21.47293],[71.7796,21.47267],[71.77964,21.47266],[71.77975,21.47268],[71.77986,21.47273],[71.78,21.4728],[71.7801,21.47289],[71.78024,21.47293],[71.78029,21.47298],[71.78029,21.47307],[71.78023,21.47315],[71.78012,21.4732],[71.78001,21.47319],[71.77985,21.47316],[71.77976,21.47311]]]},"properties":{"id":3,"Feature":"Vantalawadi"}},
{"type":"Feature","geometry":{"type":"Polygon","coordinates":[[[71.7863,21.50391],[71.78626,21.50389],[71.7865,21.50341],[71.7869,21.50373],[71.78662,21.50408],[71.7863,21.50391]]]},"properties":{"id":3,"Feature":"Vantalawadi"}},
{"type":"Feature","geometry":{"type":"Polygon","coordinates":[[[71.78988,21.48442],[71.78979,21.48444],[71.78969,21.48444],[71.78964,21.48443],[71.78961,21.48439],[71.78961,21.48435],[71.78963,21.48429],[71.78967,21.48426],[71.78975,21.48425],[71.78987,21.48432],[71.78988,21.48442]]]},"properties":{"id":3,"Feature":"Vantalawadi"}},
{"type":"Feature","geometry":{"type":"Polygon","coordinates":[[[71.79253,21.51015],[71.7928,21.51021],[71.79291,21.51031],[71.79293,21.51045],[71.7924,21.51039],[71.79253,21.51015]]]},"properties":{"id":3,"Feature":"Vantalawadi"}},
{"type":"Feature","geometry":{"type":"Polygon","coordinates":[[[71.79686,21.49835],[71.797,21.49863],[71.79683,21.49864],[71.79682,21.49864],[71.79681,21.49864],[71.79681,21.49863],[71.7968,21.49863],[71.79679,21.49863],[71.79678,21.49862],[71.79677,21.49862],[71.79676,21.49861],[71.79675,21.49861],[71.79675,21.4986],[71.79674,21.4986],[71.79673,21.49859],[71.79672,21.49859],[71.79672,21.49858],[71.79671,21.49858],[71.79671,21.49857],[71.7967,21.49857],[71.7967,21.49856],[71.79669,21.49856],[71.79669,21.49855],[71.79669,21.49854],[71.79669,21.49853],[71.79668,21.49853],[71.79668,21.49852],[71.79668,21.49851],[71.79668,21.4985],[71.79668,21.49849],[71.79668,21.49848],[71.79669,21.49848],[71.79669,21.49847],[71.79669,21.49846],[71.79669,21.49845],[71.7967,21.49845],[71.7967,21.49844],[71.79671,21.49843],[71.79671,21.49842],[71.79672,21.49842],[71.79672,21.49841],[71.79673,21.49841],[71.79686,21.49835]]]},"properties":{"id":3,"Feature":"Vantalawadi"}},
{"type":"Feature","geometry":{"type":"Polygon","coordinates":[[[71.7974,21.48689],[71.79761,21.48668],[71.79794,21.48665],[71.79795,21.48665],[71.79795,21.48666],[71.79796,21.48666],[71.79797,21.48667],[71.79798,21.48667],[71.79798,21.48668],[71.79799,21.48669],[71.798,21.4867],[71.79801,21.48671],[71.79801,21.48672],[71.79802,21.48672],[71.79802,21.48673],[71.79802,21.48674],[71.79803,21.48674],[71.79803,21.48675],[71.79803,21.48676],[71.79804,21.48676],[71.79804,21.48677],[71.79804,21.48678],[71.79804,21.48679],[71.79804,21.4868],[71.79805,21.48681],[71.79805,21.48682],[71.79805,21.48683],[71.79805,21.48684],[71.79805,21.48685],[71.79805,21.48686],[71.79805,21.48687],[71.79804,21.48687],[71.79804,21.48688],[71.79804,21.48689],[71.79804,21.4869],[71.79803,21.48691],[71.79803,21.48692],[71.79803,21.48693],[71.79802,21.48693],[71.79802,21.48694],[71.79802,21.48695],[71.79801,21.48695],[71.79801,21.48696],[71.798,21.48696],[71.798,21.48697],[71.79799,21.48698],[71.79799,21.48699],[71.79798,21.48699],[71.79797,21.487],[71.79797,21.48701],[71.79796,21.48701],[71.79795,21.48702],[71.79794,21.48702],[71.79794,21.48703],[71.79793,21.48703],[71.79792,21.48703],[71.79791,21.48704],[71.7979,21.48704],[71.79789,21.48704],[71.79788,21.48705],[71.79787,21.48705],[71.79786,21.48705],[71.79785,21.48705],[71.79784,21.48705],[71.79783,21.48706],[71.79782,21.48706],[71.79781,21.48706],[71.7978,21.48706],[71.79779,21.48706],[71.79778,21.48706],[71.79777,21.48706],[71.79776,21.48706],[71.79775,21.48706],[71.79774,21.48706],[71.79773,21.48706],[71.79772,21.48706],[71.79771,21.48706],[71.7977,21.48706],[71.79769,21.48706],[71.79768,21.48705],[71.79767,21.48705],[71.79766,21.48705],[71.79765,21.48705],[71.79764,21.48705],[71.79763,21.48704],[71.79762,21.48704],[71.79761,21.48704],[71.79761,21.48703],[71.7976,21.48703],[71.79759,21.48703],[71.79758,21.48703],[71.79758,21.48702],[71.79757,21.48702],[71.79756,21.48702],[71.79756,21.48701],[71.79755,21.48701],[71.79754,21.48701],[71.79754,21.487],[71.79753,21.487],[71.79752,21.48699],[71.79751,21.48699],[71.7975,21.48698],[71.79749,21.48697],[71.79748,21.48697],[71.79747,21.48696],[71.79746,21.48695],[71.79745,21.48694],[71.79744,21.48693],[71.79743,21.48692],[71.79743,21.48691],[71.79742,21.48691],[71.79742,21.4869],[71.79741,21.4869],[71.79741,21.48689],[71.7974,21.48689]]]},"properties":{"id":3,"Feature":"Vantalawadi"}},
{"type":"Feature","geometry":{"type":"Polygon","coordinates":[[[71.79885,21.50217],[71.79888,21.50229],[71.79889,21.50246],[71.79881,21.50255],[71.79863,21.50262],[71.79827,21.50273],[71.79822,21.50232],[71.79885,21.50217]]]},"properties":{"id":3,"Feature":"Vantalawadi"}},
{"type":"Feature","geometry":{"type":"Polygon","coordinates":[[[71.80933,21.50455],[71.80941,21.50452],[71.80962,21.50471],[71.80973,21.50484],[71.80977,21.50496],[71.80921,21.50497],[71.8092,21.50483],[71.80933,21.50455]]]},"properties":{"id":3,"Feature":"Vantalawadi"}},
{"type":"Feature","geometry":{"type":"Polygon","coordinates":[[[71.81947,21.49945],[71.81946,21.49923],[71.81968,21.49922],[71.81966,21.49947],[71.81947,21.49945]]]},"properties":{"id":3,"Feature":"Vantalawadi"}},
{"type":"Feature","geometry":{"type":"Polygon","coordinates":[[[71.76987,21.47928],[71.77005,21.47929],[71.77005,21.47943],[71.76988,21.47942],[71.76987,21.47928]]]},"properties":{"id":3,"Feature":"Vantalavadi"}},
{"type":"Feature","geometry":{"type":"Polygon","coordinates":[[[71.81909,21.49667],[71.81899,21.4966],[71.81894,21.49637],[71.81902,21.49582],[71.81913,21.49554],[71.81916,21.49532],[71.81944,21.4951],[71.81963,21.49463],[71.81992,21.49463],[71.81989,21.49511],[71.81958,21.49594],[71.81909,21.49667]]]},"properties":{"id":3,"Feature":"Vantalavadi"}},
{"type":"Feature","geometry":{"type":"Polygon","coordinates":[[[71.80181,21.48193],[71.80181,21.48201],[71.80167,21.48202],[71.80152,21.48191],[71.80157,21.48179],[71.80181,21.48193]]]},"properties":{"id":3,"Feature":"Vantalavadi"}},
{"type":"Feature","geometry":{"type":"Polygon","coordinates":[[[71.78467,21.49485],[71.78452,21.49481],[71.78452,21.49463],[71.78478,21.4947],[71.78467,21.49485]]]},"properties":{"id":3,"Feature":"Vantalavadi"}}
]}