{"type":"FeatureCollection", "features": [
{"type":"Feature","geometry":null,"properties":{"id":1,"Feature":"Causeway"}},
{"type":"Feature","geometry":{"type":"Polygon","coordinates":[[[71.7284,21.46227],[71.7284,21.46226],[71.7285,21.46222],[71.72851,21.46222],[71.7284,21.46227]]]},"properties":{"id":1,"Feature":"Causeway"}},
{"type":"Feature","geometry":{"type":"Polygon","coordinates":[[[71.72914,21.4698],[71.72914,21.46972],[71.72915,21.4698],[71.72914,21.4698]]]},"properties":{"id":1,"Feature":"Causeway"}},
{"type":"Feature","geometry":{"type":"Polygon","coordinates":[[[71.72921,21.46973],[71.72922,21.46981],[71.72921,21.46981],[71.72921,21.46973]]]},"properties":{"id":1,"Feature":"Causeway"}},
{"type":"Feature","geometry":{"type":"Polygon","coordinates":[[[71.73074,21.47576],[71.73072,21.47569],[71.73073,21.47569],[71.73074,21.47575],[71.73074,21.47576]]]},"properties":{"id":1,"Feature":"Causeway"}},
{"type":"Feature","geometry":null,"properties":{"id":1,"Feature":"Causeway"}},
{"type":"Feature","geometry":{"type":"Polygon","coordinates":[[[71.73993,21.48385],[71.74001,21.48383],[71.74002,21.48384],[71.73993,21.48385]]]},"properties":{"id":1,"Feature":"Causeway"}},
{"type":"Feature","geometry":{"type":"Polygon","coordinates":[[[71.73989,21.48381],[71.73989,21.4838],[71.73998,21.48377],[71.73998,21.48378],[71.73989,21.48381]]]},"properties":{"id":1,"Feature":"Causeway"}},
{"type":"Feature","geometry":{"type":"Polygon","coordinates":[[[71.75358,21.50081],[71.75354,21.50072],[71.75355,21.50072],[71.75358,21.50081]]]},"properties":{"id":1,"Feature":"Causeway"}},
{"type":"Feature","geometry":{"type":"Polygon","coordinates":[[[71.75348,21.50075],[71.75349,21.50075],[71.75351,21.50083],[71.75348,21.50075]]]},"properties":{"id":1,"Feature":"Causeway"}},
{"type":"Feature","geometry":{"type":"Polygon","coordinates":[[[71.75244,21.50193],[71.7525,21.50199],[71.75249,21.50199],[71.75244,21.50193]]]},"properties":{"id":1,"Feature":"Causeway"}},
{"type":"Feature","geometry":null,"properties":{"id":1,"Feature":"Causeway"}},
{"type":"Feature","geometry":{"type":"Polygon","coordinates":[[[71.75474,21.50401],[71.75472,21.50392],[71.75475,21.50401],[71.75474,21.50401]]]},"properties":{"id":1,"Feature":"Causeway"}},
{"type":"Feature","geometry":{"type":"Polygon","coordinates":[[[71.75467,21.50403],[71.75467,21.50398],[71.75465,21.50394],[71.75466,21.50394],[71.75467,21.50398],[71.75467,21.50403]]]},"properties":{"id":1,"Feature":"Causeway"}},
{"type":"Feature","geometry":{"type":"Polygon","coordinates":[[[71.76421,21.50458],[71.7642,21.50457],[71.7643,21.50446],[71.76421,21.50458]]]},"properties":{"id":1,"Feature":"Causeway"}},
{"type":"Feature","geometry":null,"properties":{"id":1,"Feature":"Causeway"}},
{"type":"Feature","geometry":{"type":"Polygon","coordinates":[[[71.76562,21.505],[71.76569,21.50505],[71.76562,21.50501],[71.76562,21.505]]]},"properties":{"id":1,"Feature":"Causeway"}},
{"type":"Feature","geometry":{"type":"Polygon","coordinates":[[[71.76572,21.50512],[71.76572,21.50513],[71.76563,21.50509],[71.76564,21.50508],[71.76572,21.50512]]]},"properties":{"id":1,"Feature":"Causeway"}},
{"type":"Feature","geometry":{"type":"Polygon","coordinates":[[[71.76516,21.50346],[71.76516,21.50345],[71.76527,21.50335],[71.76516,21.50346]]]},"properties":{"id":1,"Feature":"Causeway"}},
{"type":"Feature","geometry":{"type":"Polygon","coordinates":[[[71.76511,21.50341],[71.76523,21.50329],[71.76523,21.5033],[71.76511,21.50341]]]},"properties":{"id":1,"Feature":"Causeway"}},
{"type":"Feature","geometry":{"type":"Polygon","coordinates":[[[71.76673,21.50174],[71.76677,21.50163],[71.76678,21.50164],[71.76673,21.50174]]]},"properties":{"id":1,"Feature":"Causeway"}},
{"type":"Feature","geometry":{"type":"Polygon","coordinates":[[[71.7667,21.50161],[71.76666,21.50173],[71.76665,21.50173],[71.7667,21.50161]]]},"properties":{"id":1,"Feature":"Causeway"}},
{"type":"Feature","geometry":{"type":"Polygon","coordinates":[[[71.76725,21.49642],[71.76729,21.49657],[71.76728,21.49657],[71.76725,21.49642]]]},"properties":{"id":1,"Feature":"Causeway"}},
{"type":"Feature","geometry":{"type":"Polygon","coordinates":[[[71.76732,21.49638],[71.76735,21.49655],[71.76734,21.49655],[71.76731,21.49639],[71.76732,21.49638]]]},"properties":{"id":1,"Feature":"Causeway"}},
{"type":"Feature","geometry":{"type":"Polygon","coordinates":[[[71.76728,21.49627],[71.76727,21.49621],[71.76728,21.49621],[71.76729,21.49627],[71.76728,21.49627]]]},"properties":{"id":1,"Feature":"Causeway"}},
{"type":"Feature","geometry":{"type":"Polygon","coordinates":[[[71.7672,21.49622],[71.76721,21.49622],[71.76722,21.49627],[71.76721,21.49627],[71.7672,21.49622]]]},"properties":{"id":1,"Feature":"Causeway"}},
{"type":"Feature","geometry":{"type":"Polygon","coordinates":[[[71.76581,21.4927],[71.76587,21.49282],[71.76587,21.49283],[71.7658,21.4927],[71.76581,21.4927]]]},"properties":{"id":1,"Feature":"Causeway"}},
{"type":"Feature","geometry":null,"properties":{"id":1,"Feature":"Causeway"}},
{"type":"Feature","geometry":null,"properties":{"id":1,"Feature":"Causeway"}},
{"type":"Feature","geometry":{"type":"Polygon","coordinates":[[[71.77395,21.48157],[71.77395,21.48156],[71.774,21.48149],[71.77401,21.4815],[71.77395,21.48157]]]},"properties":{"id":1,"Feature":"Causeway"}},
{"type":"Feature","geometry":{"type":"Polygon","coordinates":[[[71.77411,21.4815],[71.77407,21.48154],[71.77405,21.48156],[71.77403,21.4816],[71.77402,21.4816],[71.77405,21.48157],[71.77407,21.48154],[71.7741,21.4815],[71.77411,21.4815]]]},"properties":{"id":1,"Feature":"Causeway"}},
{"type":"Feature","geometry":{"type":"Polygon","coordinates":[[[71.77429,21.48135],[71.77432,21.48135],[71.77436,21.48135],[71.77439,21.48135],[71.77445,21.48135],[71.77445,21.48136],[71.77436,21.48135],[71.77433,21.48135],[71.77429,21.48135]]]},"properties":{"id":1,"Feature":"Causeway"}},
{"type":"Feature","geometry":{"type":"Polygon","coordinates":[[[71.7743,21.48142],[71.77431,21.48142],[71.77436,21.48142],[71.77439,21.48142],[71.77443,21.48142],[71.77446,21.48142],[71.77446,21.48143],[71.77443,21.48143],[71.77438,21.48142],[71.77435,21.48142],[71.77432,21.48142],[71.7743,21.48142]]]},"properties":{"id":1,"Feature":"Causeway"}},
{"type":"Feature","geometry":{"type":"Polygon","coordinates":[[[71.7778,21.48316],[71.77781,21.48327],[71.77779,21.48316],[71.7778,21.48316]]]},"properties":{"id":1,"Feature":"Causeway"}},
{"type":"Feature","geometry":{"type":"Polygon","coordinates":[[[71.77775,21.48332],[71.77774,21.48332],[71.77772,21.48321],[71.77775,21.48332]]]},"properties":{"id":1,"Feature":"Causeway"}},
{"type":"Feature","geometry":{"type":"Polygon","coordinates":[[[71.77781,21.48374],[71.77779,21.48362],[71.7778,21.48362],[71.77781,21.48374]]]},"properties":{"id":1,"Feature":"Causeway"}},
{"type":"Feature","geometry":{"type":"Polygon","coordinates":[[[71.77788,21.48364],[71.77789,21.48373],[71.77788,21.48373],[71.77787,21.48364],[71.77788,21.48364]]]},"properties":{"id":1,"Feature":"Causeway"}},
{"type":"Feature","geometry":{"type":"Polygon","coordinates":[[[71.77788,21.48418],[71.77789,21.48428],[71.77788,21.48428],[71.77788,21.48418]]]},"properties":{"id":1,"Feature":"Causeway"}},
{"type":"Feature","geometry":{"type":"Polygon","coordinates":[[[71.78113,21.49406],[71.78129,21.49405],[71.78129,21.49406],[71.78113,21.49406]]]},"properties":{"id":1,"Feature":"Causeway"}},
{"type":"Feature","geometry":null,"properties":{"id":1,"Feature":"Causeway"}},
{"type":"Feature","geometry":null,"properties":{"id":1,"Feature":"Causeway"}},
{"type":"Feature","geometry":null,"properties":{"id":1,"Feature":"Causeway"}},
{"type":"Feature","geometry":null,"properties":{"id":1,"Feature":"Causeway"}},
{"type":"Feature","geometry":{"type":"Polygon","coordinates":[[[71.82093,21.49435],[71.82094,21.49435],[71.82093,21.49442],[71.82092,21.49442],[71.82093,21.49435]]]},"properties":{"id":1,"Feature":"Causeway"}},
{"type":"Feature","geometry":{"type":"Polygon","coordinates":[[[71.80826,21.46702],[71.8083,21.46712],[71.80825,21.46703],[71.80826,21.46702]]]},"properties":{"id":1,"Feature":"Causeway"}},
{"type":"Feature","geometry":{"type":"Polygon","coordinates":[[[71.80831,21.46702],[71.80831,21.46701],[71.80835,21.46711],[71.80834,21.46711],[71.80831,21.46702]]]},"properties":{"id":1,"Feature":"Causeway"}},
{"type":"Feature","geometry":{"type":"Polygon","coordinates":[[[71.80733,21.46534],[71.80732,21.46534],[71.80725,21.46525],[71.80733,21.46534]]]},"properties":{"id":1,"Feature":"Causeway"}},
{"type":"Feature","geometry":{"type":"Polygon","coordinates":[[[71.80731,21.46521],[71.80739,21.4653],[71.80738,21.46531],[71.80731,21.46521]]]},"properties":{"id":1,"Feature":"Causeway"}},
{"type":"Feature","geometry":{"type":"Polygon","coordinates":[[[71.80874,21.46497],[71.80865,21.46492],[71.80865,21.46491],[71.80874,21.46497]]]},"properties":{"id":1,"Feature":"Causeway"}},
{"type":"Feature","geometry":{"type":"Polygon","coordinates":[[[71.80861,21.46497],[71.80862,21.46497],[71.80871,21.46503],[71.80861,21.46497]]]},"properties":{"id":1,"Feature":"Causeway"}},
{"type":"Feature","geometry":{"type":"Polygon","coordinates":[[[71.80776,21.46449],[71.80776,21.46448],[71.8079,21.46448],[71.80776,21.46449]]]},"properties":{"id":1,"Feature":"Causeway"}},
{"type":"Feature","geometry":null,"properties":{"id":1,"Feature":"Causeway"}},
{"type":"Feature","geometry":{"type":"Polygon","coordinates":[[[71.80704,21.46409],[71.80705,21.46409],[71.80704,21.46419],[71.80704,21.46409]]]},"properties":{"id":1,"Feature":"Causeway"}},
{"type":"Feature","geometry":{"type":"Polygon","coordinates":[[[71.80711,21.46408],[71.80711,21.46421],[71.8071,21.46421],[71.80711,21.46408]]]},"properties":{"id":1,"Feature":"Causeway"}},
{"type":"Feature","geometry":null,"properties":{"id":1,"Feature":"Causeway"}},
{"type":"Feature","geometry":null,"properties":{"id":1,"Feature":"Causeway"}},
{"type":"Feature","geometry":{"type":"Polygon","coordinates":[[[71.80502,21.45912],[71.80513,21.45908],[71.80514,21.45908],[71.80502,21.45912]]]},"properties":{"id":1,"Feature":"Causeway"}},
{"type":"Feature","geometry":null,"properties":{"id":1,"Feature":"Causeway"}},
{"type":"Feature","geometry":{"type":"Polygon","coordinates":[[[71.79491,21.45663],[71.7949,21.45662],[71.79497,21.45644],[71.79504,21.45628],[71.795,21.45638],[71.79496,21.45649],[71.79491,21.45663]]]},"properties":{"id":1,"Feature":"Causeway"}},
{"type":"Feature","geometry":{"type":"Polygon","coordinates":[[[71.79511,21.45632],[71.79512,21.45632],[71.79505,21.45646],[71.79501,21.45655],[71.79498,21.45664],[71.79497,21.45663],[71.795,21.45656],[71.79503,21.45648],[71.79507,21.4564],[71.79511,21.45632]]]},"properties":{"id":1,"Feature":"Causeway"}},
{"type":"Feature","geometry":null,"properties":{"id":1,"Feature":"Causeway"}},
{"type":"Feature","geometry":null,"properties":{"id":1,"Feature":"Causeway"}},
{"type":"Feature","geometry":{"type":"Polygon","coordinates":[[[71.79241,21.45207],[71.79241,21.45206],[71.79244,21.45203],[71.79245,21.45204],[71.79241,21.45207]]]},"properties":{"id":1,"Feature":"Causeway"}},
{"type":"Feature","geometry":{"type":"Polygon","coordinates":[[[71.79246,21.45212],[71.79246,21.45211],[71.79249,21.45208],[71.79249,21.45209],[71.79246,21.45212]]]},"properties":{"id":1,"Feature":"Causeway"}},
{"type":"Feature","geometry":{"type":"Polygon","coordinates":[[[71.79198,21.45211],[71.79207,21.45211],[71.79207,21.45212],[71.79198,21.45211]]]},"properties":{"id":1,"Feature":"Causeway"}},
{"type":"Feature","geometry":null,"properties":{"id":1,"Feature":"Causeway"}},
{"type":"Feature","geometry":{"type":"Polygon","coordinates":[[[71.78788,21.45423],[71.78787,21.45423],[71.78805,21.45411],[71.78806,21.45412],[71.78788,21.45423]]]},"properties":{"id":1,"Feature":"Casueway"}},
{"type":"Feature","geometry":{"type":"Polygon","coordinates":[[[71.78792,21.45428],[71.78808,21.45418],[71.78809,21.45418],[71.78792,21.45428]]]},"properties":{"id":1,"Feature":"Causeway"}},
{"type":"Feature","geometry":{"type":"Polygon","coordinates":[[[71.77642,21.45544],[71.7765,21.45542],[71.77651,21.45542],[71.77642,21.45544]]]},"properties":{"id":1,"Feature":"Causeway"}},
{"type":"Feature","geometry":{"type":"Polygon","coordinates":[[[71.7764,21.45537],[71.77649,21.45536],[71.7764,21.45538],[71.7764,21.45537]]]},"properties":{"id":1,"Feature":"Causeway"}},
{"type":"Feature","geometry":{"type":"Polygon","coordinates":[[[71.76967,21.46165],[71.76966,21.46165],[71.76974,21.46161],[71.76974,21.46162],[71.76967,21.46165]]]},"properties":{"id":1,"Feature":"Causeway"}},
{"type":"Feature","geometry":null,"properties":{"id":1,"Feature":"Causeway"}}
]}