{"type":"FeatureCollection", "features": [
{"type":"Feature","geometry":{"type":"Polygon","coordinates":[[[71.78651,21.49496],[71.78643,21.49494],[71.7866,21.49469],[71.78666,21.49471],[71.78651,21.49496]]]},"properties":{"id":4,"Feature":"Matipala"}},
{"type":"Feature","geometry":{"type":"Polygon","coordinates":[[[71.78538,21.49502],[71.78536,21.49501],[71.78546,21.4949],[71.78549,21.4949],[71.78538,21.49502]]]},"properties":{"id":4,"Feature":"Matipala"}},
{"type":"Feature","geometry":{"type":"Polygon","coordinates":[[[71.78947,21.503],[71.78949,21.50304],[71.78947,21.50305],[71.78946,21.50302],[71.78938,21.50303],[71.78938,21.50305],[71.78936,21.50305],[71.78937,21.50301],[71.78947,21.503]]]},"properties":{"id":4,"Feature":"Matipala"}},
{"type":"Feature","geometry":{"type":"Polygon","coordinates":[[[71.73473,21.46872],[71.73476,21.4687],[71.73496,21.46886],[71.73493,21.4689],[71.73473,21.46872]]]},"properties":{"id":4,"Feature":"Matipala"}},
{"type":"Feature","geometry":{"type":"Polygon","coordinates":[[[71.73407,21.4709],[71.73403,21.4709],[71.73403,21.47073],[71.7341,21.47073],[71.73407,21.4709]]]},"properties":{"id":4,"Feature":"Matipala"}},
{"type":"Feature","geometry":{"type":"Polygon","coordinates":[[[71.73415,21.47117],[71.73415,21.47101],[71.73419,21.47102],[71.7342,21.47118],[71.73415,21.47117]]]},"properties":{"id":4,"Feature":"Matipala"}},
{"type":"Feature","geometry":{"type":"Polygon","coordinates":[[[71.73432,21.47218],[71.73427,21.47218],[71.73428,21.47196],[71.73432,21.47196],[71.73432,21.47218]]]},"properties":{"id":4,"Feature":"Matipala"}},
{"type":"Feature","geometry":{"type":"Polygon","coordinates":[[[71.73413,21.47042],[71.73411,21.47043],[71.73404,21.47034],[71.73407,21.47023],[71.7341,21.47023],[71.73407,21.47035],[71.73413,21.47042]]]},"properties":{"id":4,"Feature":"Matipala"}},
{"type":"Feature","geometry":{"type":"Polygon","coordinates":[[[71.7317,21.47407],[71.73167,21.47393],[71.73172,21.47393],[71.73176,21.47406],[71.7317,21.47407]]]},"properties":{"id":4,"Feature":"Matipala"}},
{"type":"Feature","geometry":{"type":"Polygon","coordinates":[[[71.73136,21.47571],[71.73134,21.47557],[71.73138,21.47556],[71.73139,21.47571],[71.73136,21.47571]]]},"properties":{"id":4,"Feature":"Matipala"}},
{"type":"Feature","geometry":{"type":"Polygon","coordinates":[[[71.73226,21.47609],[71.73226,21.47589],[71.7323,21.47589],[71.73231,21.47608],[71.73226,21.47609]]]},"properties":{"id":4,"Feature":"Matipala"}},
{"type":"Feature","geometry":{"type":"Polygon","coordinates":[[[71.73267,21.47545],[71.73259,21.4753],[71.73263,21.47528],[71.7327,21.47544],[71.73267,21.47545]]]},"properties":{"id":4,"Feature":"Matipala"}},
{"type":"Feature","geometry":{"type":"Polygon","coordinates":[[[71.7334,21.47696],[71.73323,21.47681],[71.73326,21.47679],[71.73341,21.47693],[71.7334,21.47696]]]},"properties":{"id":4,"Feature":"Matipala"}},
{"type":"Feature","geometry":{"type":"Polygon","coordinates":[[[71.73306,21.47731],[71.73305,21.47735],[71.73288,21.47728],[71.73289,21.47724],[71.73306,21.47731]]]},"properties":{"id":4,"Feature":"Matipala"}},
{"type":"Feature","geometry":{"type":"Polygon","coordinates":[[[71.73314,21.4771],[71.73304,21.477],[71.73308,21.47696],[71.73318,21.47707],[71.73314,21.4771]]]},"properties":{"id":4,"Feature":"Matipala"}},
{"type":"Feature","geometry":{"type":"Polygon","coordinates":[[[71.73921,21.47564],[71.73925,21.47563],[71.73935,21.47586],[71.73931,21.47588],[71.73921,21.47564]]]},"properties":{"id":4,"Feature":"Matipala"}},
{"type":"Feature","geometry":{"type":"Polygon","coordinates":[[[71.74033,21.47646],[71.74033,21.47628],[71.74038,21.47629],[71.74039,21.47647],[71.74033,21.47646]]]},"properties":{"id":4,"Feature":"Matipala"}},
{"type":"Feature","geometry":{"type":"Polygon","coordinates":[[[71.74009,21.47685],[71.74008,21.47668],[71.74012,21.47669],[71.74014,21.47685],[71.74009,21.47685]]]},"properties":{"id":4,"Feature":"Matipala"}},
{"type":"Feature","geometry":{"type":"Polygon","coordinates":[[[71.7407,21.47701],[71.74071,21.47679],[71.74076,21.4768],[71.74075,21.47701],[71.7407,21.47701]]]},"properties":{"id":4,"Feature":"Matipala"}},
{"type":"Feature","geometry":{"type":"Polygon","coordinates":[[[71.74139,21.47706],[71.74136,21.47703],[71.74146,21.47684],[71.74145,21.47669],[71.74146,21.47665],[71.7415,21.47676],[71.7415,21.47688],[71.74139,21.47706]]]},"properties":{"id":4,"Feature":"Matipala"}},
{"type":"Feature","geometry":{"type":"Polygon","coordinates":[[[71.74072,21.4787],[71.74053,21.47857],[71.74056,21.47852],[71.74076,21.47865],[71.74072,21.4787]]]},"properties":{"id":4,"Feature":"Matipala"}},
{"type":"Feature","geometry":{"type":"Polygon","coordinates":[[[71.74066,21.47833],[71.74071,21.47829],[71.74091,21.47847],[71.74086,21.47851],[71.74066,21.47833]]]},"properties":{"id":4,"Feature":"Matipala"}},
{"type":"Feature","geometry":{"type":"Polygon","coordinates":[[[71.74102,21.47834],[71.741,21.47809],[71.74107,21.4781],[71.74108,21.47836],[71.74102,21.47834]]]},"properties":{"id":4,"Feature":"Matipala"}},
{"type":"Feature","geometry":{"type":"Polygon","coordinates":[[[71.77032,21.47907],[71.77028,21.47905],[71.7703,21.47892],[71.77022,21.47887],[71.77028,21.47885],[71.77034,21.47892],[71.77032,21.47907]]]},"properties":{"id":4,"Feature":"Matipala"}},
{"type":"Feature","geometry":{"type":"Polygon","coordinates":[[[71.77699,21.45675],[71.77696,21.45678],[71.77689,21.45664],[71.77691,21.45662],[71.77699,21.45675]]]},"properties":{"id":4,"Feature":"Matipala"}},
{"type":"Feature","geometry":{"type":"Polygon","coordinates":[[[71.78599,21.49001],[71.78601,21.49002],[71.78593,21.49012],[71.78591,21.49011],[71.78599,21.49001]]]},"properties":{"id":4,"Feature":"Matipala"}},
{"type":"Feature","geometry":{"type":"Polygon","coordinates":[[[71.78619,21.4903],[71.78623,21.49024],[71.78626,21.49026],[71.78621,21.49032],[71.78619,21.4903]]]},"properties":{"id":4,"Feature":"Matipala"}},
{"type":"Feature","geometry":{"type":"Polygon","coordinates":[[[71.77078,21.47854],[71.77089,21.478],[71.77096,21.47807],[71.77083,21.47855],[71.77078,21.47854]]]},"properties":{"id":4,"Feature":"Matipala"}},
{"type":"Feature","geometry":{"type":"Polygon","coordinates":[[[71.8172,21.48188],[71.81701,21.48139],[71.81712,21.48134],[71.8173,21.48188],[71.8172,21.48188]]]},"properties":{"id":4,"Feature":"Matipala"}},
{"type":"Feature","geometry":{"type":"Polygon","coordinates":[[[71.7598,21.48215],[71.7597,21.48211],[71.75991,21.48169],[71.76004,21.48178],[71.7598,21.48215]]]},"properties":{"id":4,"Feature":"Matipala"}},
{"type":"Feature","geometry":{"type":"Polygon","coordinates":[[[71.76265,21.4855],[71.76255,21.48536],[71.7632,21.48482],[71.76329,21.48491],[71.76265,21.4855]]]},"properties":{"id":4,"Feature":"Matipala"}},
{"type":"Feature","geometry":{"type":"Polygon","coordinates":[[[71.73572,21.48249],[71.73573,21.48245],[71.73611,21.4824],[71.73616,21.48246],[71.73572,21.48249]]]},"properties":{"id":4,"Feature":"Matipala"}},
{"type":"Feature","geometry":{"type":"Polygon","coordinates":[[[71.7356,21.48172],[71.73559,21.48164],[71.73584,21.48164],[71.73584,21.4817],[71.7356,21.48172]]]},"properties":{"id":4,"Feature":"Matipala"}},
{"type":"Feature","geometry":{"type":"Polygon","coordinates":[[[71.73551,21.48145],[71.73551,21.4814],[71.73576,21.48139],[71.73576,21.48143],[71.73551,21.48145]]]},"properties":{"id":4,"Feature":"Matipala"}},
{"type":"Feature","geometry":{"type":"Polygon","coordinates":[[[71.73545,21.48103],[71.73545,21.48099],[71.73561,21.48098],[71.73563,21.48104],[71.73545,21.48103]]]},"properties":{"id":4,"Feature":"Matipala"}},
{"type":"Feature","geometry":{"type":"Polygon","coordinates":[[[71.73541,21.48057],[71.73542,21.48051],[71.73559,21.48052],[71.7356,21.48057],[71.73541,21.48057]]]},"properties":{"id":4,"Feature":"Matipala"}}
]}