{"type":"FeatureCollection", "features": [
{"type":"Feature","geometry":{"type":"LineString","coordinates":[[71.77435,21.478],[71.77404,21.47788],[71.77375,21.47772],[71.77362,21.47773],[71.7734,21.47772],[71.77323,21.4777],[71.7728,21.47759],[71.77264,21.47759],[71.77237,21.4775],[71.77211,21.47751],[71.77191,21.47747],[71.77178,21.47743],[71.77167,21.47738],[71.77149,21.47719],[71.7714,21.47722],[71.77139,21.47713],[71.77135,21.47717],[71.77119,21.47716],[71.77117,21.47709],[71.7711,21.47712],[71.77101,21.47714],[71.77093,21.47716],[71.77086,21.47716],[71.77094,21.47706],[71.77086,21.47708],[71.7708,21.47705],[71.77073,21.47699],[71.77074,21.47691],[71.7706,21.47687],[71.77062,21.4768],[71.77055,21.4767],[71.77046,21.47659],[71.77044,21.47668],[71.7704,21.47671],[71.77027,21.47672],[71.77018,21.47665],[71.77008,21.47643],[71.76984,21.47631],[71.76978,21.47632],[71.76959,21.47616],[71.7692,21.47598],[71.76903,21.47592],[71.76893,21.47584],[71.7689,21.47582],[71.76868,21.47592],[71.76848,21.47605],[71.76833,21.47616],[71.76826,21.47621],[71.76821,21.47628],[71.76817,21.47632],[71.76813,21.47635],[71.76807,21.47637],[71.76798,21.47642],[71.76787,21.47647],[71.76786,21.47648],[71.76781,21.47622],[71.7678,21.47615],[71.76771,21.47614],[71.76759,21.47614],[71.76739,21.47622],[71.76707,21.47638],[71.76699,21.47641],[71.76683,21.47645],[71.76671,21.47646],[71.76655,21.47652],[71.76618,21.47663],[71.76603,21.47668],[71.76598,21.47672],[71.76585,21.47674],[71.76566,21.47674],[71.76546,21.47671],[71.76535,21.4767],[71.76529,21.47663],[71.76525,21.4765],[71.7652,21.47634],[71.76516,21.47621],[71.76511,21.47594],[71.76508,21.47584],[71.76501,21.47571],[71.76487,21.47556],[71.76467,21.47533],[71.76458,21.47519],[71.76455,21.47511],[71.76452,21.475],[71.76445,21.47491],[71.76448,21.47482],[71.76447,21.47468],[71.76447,21.47462],[71.76453,21.47448],[71.76443,21.47449],[71.76431,21.4746],[71.76426,21.4746],[71.76416,21.47449],[71.76393,21.47421],[71.76369,21.47411],[71.76342,21.47394],[71.76331,21.47378],[71.76342,21.47372],[71.76351,21.47364],[71.76367,21.4735],[71.76371,21.47342],[71.76375,21.47339],[71.76386,21.47335],[71.76387,21.47323],[71.76388,21.47313],[71.76387,21.47305],[71.76387,21.47297],[71.76382,21.47291],[71.76386,21.47282],[71.76396,21.47274],[71.76412,21.47265],[71.76427,21.4726],[71.76436,21.47265],[71.76469,21.47254],[71.76524,21.47235],[71.76549,21.47221],[71.76576,21.47214],[71.76612,21.47214],[71.76649,21.47218],[71.76666,21.4722],[71.76685,21.47217],[71.76706,21.47218],[71.7673,21.47215],[71.76753,21.47215],[71.76773,21.47223],[71.7678,21.47227],[71.76783,21.47239],[71.76787,21.47245],[71.76793,21.47247],[71.76805,21.47244],[71.7683,21.47242],[71.76854,21.4724],[71.76869,21.4724],[71.76895,21.47243],[71.76939,21.47228],[71.76964,21.47227],[71.76991,21.47226],[71.77021,21.4723],[71.77028,21.47231],[71.77072,21.47219],[71.77117,21.47206],[71.77165,21.47192],[71.77196,21.47182],[71.77213,21.47178],[71.77238,21.47178],[71.77246,21.47178],[71.77304,21.47166],[71.77348,21.47158],[71.7738,21.47153],[71.77398,21.47149],[71.77412,21.47148],[71.7743,21.47153],[71.77439,21.47155],[71.77456,21.47147],[71.77469,21.47144],[71.77484,21.47126],[71.77497,21.47111],[71.77513,21.47099],[71.77531,21.47088],[71.77552,21.47074],[71.77575,21.47057],[71.77591,21.47052],[71.77609,21.47042],[71.77621,21.47037],[71.77634,21.47039],[71.77647,21.47033],[71.77659,21.47029],[71.7768,21.47029],[71.77694,21.4703],[71.77703,21.47033],[71.7771,21.47037],[71.77721,21.47046],[71.77729,21.47054],[71.77732,21.47056],[71.77742,21.47061],[71.77766,21.47076],[71.77799,21.47104],[71.77824,21.47125],[71.7784,21.47134],[71.77867,21.47161],[71.77885,21.47181],[71.77909,21.47203],[71.77925,21.47219],[71.77935,21.47235],[71.7796,21.47292],[71.77964,21.47304],[71.7797,21.47315],[71.77976,21.47321],[71.78001,21.47328],[71.7803,21.47324],[71.78056,21.47331],[71.78077,21.47336],[71.78087,21.47337],[71.78095,21.47333],[71.78101,21.4733],[71.78117,21.47321],[71.78134,21.47314],[71.78147,21.47308],[71.78162,21.47309],[71.78178,21.47311],[71.78192,21.47313],[71.78208,21.47316],[71.78215,21.47319],[71.78232,21.47323],[71.78245,21.47325],[71.78253,21.47325],[71.78265,21.47327],[71.78276,21.47331],[71.78285,21.47332],[71.78306,21.47333],[71.78322,21.47334],[71.78354,21.47334],[71.78361,21.47332],[71.7838,21.47326],[71.78396,21.47323],[71.78406,21.47322],[71.78415,21.47322],[71.78428,21.47326],[71.78459,21.47337],[71.78473,21.47346],[71.78479,21.4735],[71.78495,21.47361],[71.78506,21.47368],[71.78514,21.47372],[71.78528,21.47376],[71.78534,21.47379],[71.78543,21.47384],[71.7856,21.47389],[71.78569,21.47392],[71.78574,21.47396],[71.78577,21.47397],[71.78579,21.47397],[71.78582,21.47396],[71.78583,21.47391],[71.78589,21.47381],[71.78593,21.4737],[71.78593,21.47368],[71.78596,21.47358],[71.78599,21.47349],[71.78605,21.47344],[71.78611,21.47337],[71.78612,21.4733],[71.78614,21.47321],[71.78618,21.47313],[71.78621,21.47306],[71.78627,21.47299],[71.78632,21.47297],[71.78638,21.473],[71.78641,21.47302],[71.78656,21.47307],[71.78664,21.47308],[71.78675,21.47308],[71.78667,21.47312],[71.78667,21.47313],[71.78678,21.47315],[71.78683,21.47315],[71.78694,21.47314],[71.787,21.47316],[71.78715,21.47317],[71.78724,21.47314],[71.78736,21.47309],[71.78751,21.47303],[71.78761,21.473],[71.78771,21.47294],[71.78778,21.47293],[71.7879,21.47293],[71.78803,21.47296],[71.78819,21.47301],[71.78841,21.47311],[71.78859,21.47316],[71.78877,21.47319],[71.78884,21.4732],[71.78893,21.47316],[71.78897,21.47316],[71.78901,21.47315],[71.78903,21.47312],[71.78904,21.47308],[71.78903,21.47303],[71.78898,21.47288],[71.789,21.47278],[71.78912,21.47267],[71.78919,21.47264],[71.78946,21.47256],[71.78965,21.47252],[71.78974,21.47256],[71.7898,21.47256],[71.78987,21.47255],[71.78995,21.47251],[71.79,21.4725],[71.79019,21.47251],[71.79027,21.47248],[71.79036,21.47244],[71.79043,21.47248],[71.7905,21.47254],[71.79054,21.47259],[71.79062,21.47296],[71.79072,21.47308],[71.79087,21.4733],[71.79095,21.47344],[71.79109,21.47375],[71.79122,21.47397],[71.79129,21.47411],[71.79128,21.4742],[71.79126,21.47439],[71.79136,21.47458],[71.79153,21.47502],[71.79163,21.47522],[71.79179,21.47549],[71.7919,21.47561],[71.79198,21.47571],[71.79211,21.47593],[71.79234,21.47623],[71.79245,21.47635],[71.79272,21.47655],[71.79292,21.47672],[71.79305,21.47705],[71.79323,21.4775],[71.79335,21.47773],[71.79351,21.47812],[71.79352,21.47828],[71.79356,21.47837],[71.79369,21.47847],[71.79374,21.47856],[71.79383,21.47867],[71.79397,21.4788],[71.79415,21.47892],[71.79436,21.47903],[71.79453,21.47917],[71.79459,21.47926],[71.79464,21.47935],[71.79466,21.47955],[71.79475,21.47974]]},"properties":{"id":1,"Name":"Steps"}},
{"type":"Feature","geometry":{"type":"LineString","coordinates":[[71.795,21.45477],[71.79452,21.45643],[71.79433,21.45683],[71.79407,21.45705],[71.79385,21.45725],[71.7936,21.45742],[71.79332,21.45752],[71.79292,21.45775],[71.79229,21.45795],[71.79225,21.45814],[71.79211,21.4585],[71.79199,21.45867],[71.79181,21.45897],[71.79171,21.45908],[71.79165,21.45937],[71.79137,21.45971],[71.79133,21.45999],[71.79121,21.46026],[71.79102,21.46063],[71.7908,21.46107],[71.79077,21.46126],[71.79075,21.46135],[71.79077,21.46161],[71.79075,21.46175],[71.79075,21.46186],[71.7908,21.46191],[71.79083,21.46202],[71.79081,21.46217],[71.79068,21.46259],[71.79066,21.46282],[71.79057,21.46307],[71.79056,21.46318],[71.7905,21.46332],[71.79045,21.46342],[71.79042,21.4636],[71.7904,21.46391],[71.79044,21.46417],[71.79045,21.46433],[71.7904,21.46449],[71.79027,21.46476],[71.79014,21.46506],[71.79005,21.46531],[71.79005,21.4654],[71.79003,21.46574],[71.79006,21.46608],[71.78997,21.46639],[71.78991,21.46673],[71.78991,21.46687],[71.78987,21.46697],[71.78991,21.46713],[71.78995,21.46719],[71.78999,21.46725],[71.78997,21.46738],[71.79,21.46757],[71.79006,21.46777],[71.79009,21.46801],[71.79017,21.46816],[71.79024,21.46837],[71.79027,21.4685],[71.79039,21.4687],[71.79043,21.46884],[71.79039,21.46903],[71.79046,21.46928],[71.7905,21.46936],[71.79065,21.46955],[71.79082,21.46971],[71.79095,21.46995],[71.79098,21.47008],[71.79101,21.47029],[71.79105,21.47042],[71.79105,21.47058],[71.79106,21.47083],[71.79107,21.4709],[71.79111,21.47099],[71.7911,21.47124],[71.79116,21.47151],[71.7912,21.47181],[71.79122,21.47201],[71.79112,21.47216],[71.79093,21.47227],[71.79082,21.47231],[71.79074,21.47239],[71.79066,21.47254],[71.79057,21.47273]]},"properties":{"id":1,"Name":"Steps"}},
{"type":"Feature","geometry":{"type":"LineString","coordinates":[[71.79616,21.48162],[71.79619,21.48167],[71.79643,21.48197],[71.79649,21.48202],[71.79652,21.48213],[71.79657,21.48217],[71.79665,21.48227],[71.79677,21.48237],[71.79697,21.48247],[71.79707,21.48253],[71.79714,21.48259],[71.7972,21.48267],[71.79726,21.48278],[71.79726,21.48284],[71.79722,21.48294],[71.79717,21.48302],[71.79706,21.48299],[71.79697,21.48297],[71.79681,21.48298],[71.79673,21.48295],[71.79669,21.48292],[71.79664,21.48287],[71.79649,21.48287],[71.79637,21.48282],[71.79632,21.48277],[71.79621,21.48277],[71.79608,21.48281],[71.79593,21.48289]]},"properties":{"id":1,"Name":"Steps"}},
{"type":"Feature","geometry":{"type":"LineString","coordinates":[[71.79593,21.48289],[71.79585,21.48308],[71.7958,21.48321],[71.7958,21.4833],[71.79599,21.48338],[71.79623,21.48345],[71.79641,21.48355],[71.79653,21.48366],[71.79662,21.48371],[71.79675,21.48376],[71.79681,21.48384],[71.79694,21.484],[71.79701,21.48409],[71.79706,21.48413],[71.79717,21.48416],[71.79724,21.48419],[71.79737,21.48431],[71.79745,21.48437],[71.79752,21.48447],[71.79759,21.48454],[71.79769,21.48477],[71.79775,21.48494],[71.79779,21.48512],[71.79788,21.4854],[71.79796,21.48559],[71.79797,21.48571],[71.79786,21.48597],[71.79793,21.48616],[71.79804,21.48649],[71.79808,21.4866],[71.79821,21.48673],[71.79824,21.48681],[71.79826,21.48688],[71.79831,21.48691],[71.79841,21.48692],[71.79856,21.487],[71.79863,21.48711],[71.79882,21.4874],[71.79885,21.48746],[71.79903,21.48764],[71.79941,21.48805],[71.79969,21.48835],[71.80005,21.48874],[71.80021,21.48891],[71.80037,21.48906],[71.80058,21.48924],[71.80084,21.48945],[71.80092,21.48954],[71.80096,21.48961],[71.80131,21.48978],[71.8014,21.49029],[71.80156,21.49113],[71.80161,21.49143],[71.80195,21.49194],[71.80219,21.49231],[71.80275,21.49269],[71.80369,21.49275],[71.80417,21.49278],[71.80442,21.49278],[71.80464,21.49275],[71.80473,21.49275],[71.80507,21.49282],[71.80526,21.49286],[71.8054,21.49294],[71.80564,21.49308],[71.80567,21.49308],[71.80569,21.49307],[71.80575,21.49304],[71.80594,21.49301],[71.80604,21.493],[71.80637,21.49307],[71.80684,21.49316],[71.80707,21.49322],[71.80749,21.49334],[71.80781,21.49355],[71.80815,21.49363],[71.80838,21.49368],[71.80842,21.49369],[71.80844,21.49377],[71.80845,21.49396],[71.80847,21.49421],[71.80837,21.49437],[71.8081,21.49467],[71.80798,21.49478],[71.80772,21.49483],[71.80773,21.49485],[71.80774,21.49485],[71.80775,21.49486],[71.80776,21.49486],[71.80777,21.49487],[71.80778,21.49487],[71.80779,21.49487],[71.8078,21.49488],[71.8078,21.49489],[71.8078,21.4949],[71.80779,21.4949],[71.80779,21.49491],[71.80778,21.49491],[71.80777,21.49491],[71.80776,21.49491],[71.80775,21.49491],[71.80774,21.4949],[71.80773,21.4949],[71.80772,21.49489],[71.80771,21.49489],[71.8077,21.49489],[71.8077,21.49488],[71.80769,21.49488],[71.80768,21.49488],[71.80768,21.49487],[71.80767,21.49487],[71.80766,21.49487],[71.80766,21.49486],[71.80765,21.49486],[71.80764,21.49486],[71.80763,21.49485],[71.80762,21.49485],[71.80761,21.49485],[71.8076,21.49485],[71.80759,21.49485],[71.80758,21.49485],[71.80758,21.49486],[71.80758,21.49487],[71.80758,21.49488],[71.80758,21.49489],[71.80759,21.49489],[71.80788,21.49502],[71.80802,21.49508],[71.80803,21.49508],[71.80804,21.49508],[71.80805,21.49508],[71.80805,21.49509],[71.80805,21.4951],[71.80806,21.4951],[71.80806,21.49511],[71.80805,21.49511],[71.80805,21.49512],[71.80804,21.49512],[71.80804,21.49513],[71.80803,21.49513],[71.80802,21.49513],[71.80802,21.49514],[71.80801,21.49514],[71.80795,21.49516],[71.80789,21.49519],[71.80788,21.49519],[71.80787,21.49519],[71.80786,21.49519],[71.80786,21.4952],[71.80785,21.4952],[71.80784,21.4952],[71.80784,21.49521],[71.80783,21.49521],[71.80783,21.49522],[71.80783,21.49523],[71.80783,21.49524],[71.80784,21.49524],[71.80784,21.49525],[71.80785,21.49525],[71.80786,21.49525],[71.80787,21.49525],[71.8079,21.49525],[71.80792,21.49525],[71.80795,21.49525],[71.80797,21.49525],[71.808,21.49525],[71.80802,21.49525],[71.80808,21.49526],[71.80813,21.49526],[71.80818,21.49526],[71.80819,21.49526],[71.8082,21.49526],[71.8082,21.49527],[71.80821,21.49527],[71.80822,21.49527],[71.80822,21.49528],[71.80822,21.49529],[71.80822,21.4953],[71.80821,21.4953],[71.80821,21.49531],[71.80821,21.49532],[71.8082,21.49532],[71.80805,21.49554],[71.80805,21.49556],[71.80806,21.49557],[71.80814,21.49559],[71.80828,21.49561],[71.80836,21.49563],[71.80838,21.49564],[71.80838,21.49566],[71.8083,21.49583],[71.80828,21.49589],[71.80827,21.49593],[71.80828,21.49595],[71.80835,21.49605],[71.80847,21.49622],[71.80855,21.49634],[71.80859,21.49641],[71.80872,21.49653],[71.80878,21.49659],[71.80894,21.49667],[71.80894,21.49672],[71.80892,21.49691],[71.80892,21.49697],[71.80893,21.49701],[71.80898,21.49707],[71.80908,21.49719],[71.80924,21.49739],[71.80929,21.49746],[71.80939,21.49769],[71.80942,21.4978],[71.80944,21.4979],[71.80953,21.49813],[71.80956,21.49821],[71.8096,21.49828],[71.80969,21.49842],[71.80983,21.49863],[71.80998,21.49883],[71.81003,21.49892],[71.81012,21.49912],[71.8102,21.49929],[71.81025,21.49942],[71.81028,21.49951],[71.81029,21.49956],[71.81029,21.49962],[71.81026,21.49985],[71.81025,21.49995],[71.81031,21.50008],[71.81045,21.50035],[71.81054,21.50051],[71.81059,21.50068],[71.81062,21.50076],[71.81071,21.50083],[71.81079,21.50088],[71.81101,21.50095],[71.81131,21.50106],[71.81141,21.5011],[71.81156,21.50119],[71.81177,21.50132],[71.81204,21.50148],[71.81224,21.50161],[71.8125,21.50171],[71.81272,21.50181],[71.81283,21.50185],[71.81304,21.50198],[71.81334,21.50216],[71.81336,21.5022],[71.81341,21.50234],[71.81349,21.50257],[71.81359,21.50286],[71.81366,21.50305],[71.81365,21.50307],[71.81362,21.50309],[71.81348,21.50321],[71.81347,21.50323],[71.81348,21.50325],[71.81358,21.50326],[71.81371,21.50326],[71.81383,21.50327],[71.81383,21.5033],[71.81371,21.50339],[71.81345,21.50357],[71.8135,21.50373],[71.81359,21.50397],[71.81364,21.50412],[71.81368,21.50419],[71.81386,21.50439],[71.81404,21.50463],[71.81415,21.50481],[71.81418,21.50487],[71.81421,21.50497],[71.81422,21.50502]]},"properties":{"id":2,"Name":"Steps"}},
{"type":"Feature","geometry":{"type":"LineString","coordinates":[[71.78252,21.48936],[71.78278,21.48941],[71.78289,21.48944],[71.78309,21.48944],[71.78318,21.48942],[71.78335,21.48938],[71.78347,21.48936],[71.78355,21.48938],[71.78371,21.48952],[71.78389,21.48965],[71.7839,21.48964],[71.7839,21.48954],[71.78395,21.48951],[71.78405,21.48948],[71.7842,21.48949],[71.78427,21.48955],[71.78434,21.48956],[71.78443,21.4896],[71.78452,21.48962],[71.78454,21.48964],[71.78462,21.4897],[71.78466,21.48967],[71.78471,21.48958],[71.78473,21.48957],[71.78475,21.48962],[71.78478,21.48962],[71.78479,21.48961],[71.78489,21.48961],[71.7849,21.48959],[71.78492,21.48958],[71.78497,21.48953],[71.78499,21.48949],[71.78498,21.48943],[71.78501,21.48939],[71.78507,21.4893],[71.78513,21.48921],[71.78516,21.48916],[71.78521,21.48913],[71.78535,21.48909],[71.78546,21.48905],[71.78556,21.489],[71.78568,21.48895],[71.78578,21.48893],[71.78587,21.4889],[71.78598,21.48886],[71.78608,21.48883],[71.78619,21.48878],[71.78628,21.48872],[71.78641,21.48866],[71.78649,21.48863],[71.78654,21.48859],[71.7866,21.48855],[71.78676,21.48841],[71.78684,21.48833],[71.78696,21.48816],[71.78704,21.48798],[71.78704,21.48797],[71.78695,21.48789],[71.78684,21.48798],[71.78672,21.48799],[71.78661,21.48799],[71.78655,21.48793],[71.78652,21.48788],[71.78648,21.48777],[71.78649,21.48767],[71.78647,21.48748],[71.78646,21.48733],[71.78658,21.4872],[71.78661,21.48714],[71.78662,21.48705],[71.78662,21.48698],[71.78687,21.48666],[71.7869,21.48661],[71.78694,21.48658],[71.78701,21.48654],[71.78707,21.48651],[71.7871,21.4865],[71.78713,21.48651],[71.78721,21.48654],[71.78725,21.48651],[71.78731,21.48645],[71.78742,21.48635],[71.78747,21.48632],[71.78754,21.48628],[71.78761,21.48626],[71.78773,21.48622],[71.78784,21.48615],[71.78804,21.48613],[71.7881,21.48607],[71.78814,21.48602],[71.78822,21.48598],[71.7883,21.48594],[71.7884,21.48588],[71.78857,21.4858],[71.78868,21.48569],[71.78876,21.48553],[71.78901,21.48541],[71.78915,21.48535],[71.78935,21.48512],[71.78954,21.48492],[71.78961,21.48472],[71.78964,21.48463],[71.78967,21.48459],[71.78971,21.48456],[71.78978,21.48455],[71.7899,21.48451],[71.79012,21.48442],[71.79025,21.48438],[71.79034,21.48437],[71.79057,21.48433],[71.7907,21.4842],[71.79078,21.48412],[71.79108,21.48402],[71.79119,21.48382],[71.79124,21.48373],[71.79122,21.48365],[71.79141,21.48352],[71.79157,21.48339],[71.79163,21.48333],[71.7917,21.48325],[71.79179,21.4832],[71.79183,21.48319],[71.79194,21.48315],[71.79214,21.48307],[71.79226,21.48301],[71.79239,21.48288],[71.7925,21.48279],[71.7926,21.48272],[71.79269,21.48267],[71.79287,21.48263],[71.79313,21.48257],[71.79332,21.48252],[71.79343,21.48252],[71.79367,21.4825]]},"properties":{"id":2,"Name":"Steps"}},
{"type":"Feature","geometry":{"type":"LineString","coordinates":[[71.79475,21.47974],[71.79461,21.47966],[71.79441,21.4795],[71.79422,21.47935],[71.794,21.47923],[71.79377,21.47911],[71.79369,21.47908],[71.79342,21.47908],[71.79323,21.4791],[71.79285,21.47917],[71.79257,21.47938],[71.79213,21.4797],[71.79204,21.47979],[71.79184,21.48002],[71.79172,21.48027],[71.79167,21.48037],[71.79158,21.48048],[71.79154,21.4806],[71.7915,21.48074],[71.79153,21.48088],[71.79163,21.4811],[71.79173,21.48134],[71.79181,21.48142],[71.79195,21.48155],[71.79207,21.48165],[71.79215,21.48177],[71.79218,21.48189],[71.79217,21.48202],[71.79198,21.4822],[71.79194,21.48238],[71.79185,21.48261],[71.79183,21.48319]]},"properties":{"id":1,"Name":"Steps"}},
{"type":"Feature","geometry":{"type":"LineString","coordinates":[[71.77892,21.48807],[71.77903,21.48809],[71.77913,21.48813],[71.77921,21.48816],[71.7793,21.48819],[71.77932,21.48814],[71.77942,21.48818],[71.77956,21.48824],[71.77966,21.48833],[71.7797,21.48837],[71.77979,21.48855],[71.7799,21.48849],[71.78003,21.48855],[71.78021,21.4886],[71.78045,21.48865],[71.7806,21.48877],[71.78074,21.48894],[71.78105,21.48912],[71.7813,21.48937],[71.78211,21.48947]]},"properties":{"id":2,"Name":"Steps"}}
]}