{"type":"FeatureCollection", "features": [
{"type":"Feature","geometry":{"type":"Polygon","coordinates":[[[71.81201,21.50556],[71.81144,21.50545],[71.81065,21.50532],[71.8102,21.50528],[71.80893,21.50543],[71.8085,21.50552],[71.80781,21.50569],[71.80721,21.50574],[71.80681,21.5056],[71.80653,21.50517],[71.80602,21.50531],[71.80535,21.5058],[71.80486,21.50635],[71.80466,21.50676],[71.80451,21.50744],[71.80396,21.50765],[71.80286,21.50798],[71.80198,21.50813],[71.80135,21.50808],[71.80024,21.50812],[71.79983,21.50818],[71.79921,21.50833],[71.79873,21.5085],[71.79844,21.50871],[71.79804,21.50907],[71.79767,21.50928],[71.79725,21.50946],[71.79689,21.50959],[71.79639,21.5097],[71.79592,21.50976],[71.79565,21.50978],[71.79562,21.50999],[71.79584,21.51008],[71.79595,21.51021],[71.79616,21.51047],[71.79625,21.51086],[71.79627,21.51125],[71.79619,21.51173],[71.79597,21.51201],[71.79446,21.51149],[71.79405,21.51133],[71.79397,21.51115],[71.7938,21.51099],[71.7933,21.51077],[71.79301,21.51067],[71.79242,21.51056],[71.79195,21.51056],[71.79171,21.51073],[71.79133,21.51065],[71.79088,21.51045],[71.79035,21.51006],[71.78995,21.50988],[71.78954,21.50996],[71.78925,21.50968],[71.78872,21.50929],[71.78836,21.50896],[71.78821,21.50846],[71.78831,21.50803],[71.78816,21.5078],[71.78787,21.50739],[71.78791,21.50721],[71.78804,21.50705],[71.78818,21.50675],[71.78809,21.50657],[71.78709,21.5063],[71.78661,21.50579],[71.78634,21.50502],[71.78606,21.50465],[71.78591,21.50416],[71.78611,21.50341],[71.78631,21.50286],[71.78717,21.50191],[71.78747,21.50159],[71.78777,21.50141],[71.78792,21.50134],[71.78819,21.50131],[71.78845,21.50128],[71.78869,21.50129],[71.78894,21.5013],[71.78918,21.50133],[71.78935,21.5014],[71.78975,21.50149],[71.78998,21.50146],[71.78978,21.50123],[71.78977,21.50097],[71.78975,21.50072],[71.78958,21.50043],[71.78929,21.50026],[71.78907,21.50003],[71.7887,21.49945],[71.78869,21.49896],[71.7889,21.49833],[71.78925,21.49756],[71.78948,21.49702],[71.78965,21.49628],[71.78987,21.49536],[71.79013,21.49449],[71.79008,21.49423],[71.78956,21.49426],[71.78907,21.49428],[71.78871,21.49434],[71.78859,21.49446],[71.78867,21.49513],[71.78825,21.49537],[71.78778,21.49559],[71.78713,21.49609],[71.78662,21.49639],[71.78632,21.49651],[71.786,21.49677],[71.78582,21.49707],[71.78542,21.4972],[71.78507,21.49723],[71.78431,21.49733],[71.7837,21.49687],[71.78317,21.49634],[71.78246,21.49572],[71.78184,21.49519],[71.78139,21.4948],[71.78122,21.49371],[71.78124,21.49329],[71.78105,21.49247],[71.78047,21.4919],[71.77986,21.49085],[71.77985,21.49015],[71.77982,21.48916],[71.77933,21.48805],[71.7789,21.4868],[71.77852,21.48587],[71.7783,21.48522],[71.77821,21.48509],[71.77809,21.48493],[71.77804,21.48458],[71.77798,21.4841],[71.77782,21.48339],[71.77762,21.48219],[71.77743,21.4812],[71.7773,21.48049],[71.77727,21.48],[71.7772,21.47959],[71.77667,21.47949],[71.77625,21.4793],[71.77593,21.47902],[71.77554,21.47878],[71.77514,21.4787],[71.77478,21.4787],[71.77441,21.4788],[71.77427,21.47913],[71.77422,21.4797],[71.77409,21.47955],[71.77384,21.47954],[71.77359,21.47959],[71.77354,21.48003],[71.77339,21.48048],[71.77306,21.48068],[71.77273,21.48083],[71.77246,21.48086],[71.77236,21.48105],[71.77255,21.48116],[71.77296,21.48123],[71.7734,21.48127],[71.77384,21.48139],[71.77398,21.48166],[71.77393,21.48207],[71.77377,21.48252],[71.77346,21.48287],[71.77306,21.48328],[71.77275,21.4836],[71.77242,21.48383],[71.77221,21.48409],[71.77207,21.48439],[71.772,21.48486],[71.77184,21.48489],[71.77173,21.48491],[71.77182,21.4853],[71.77135,21.48542],[71.77091,21.48556],[71.77042,21.48556],[71.76989,21.48543],[71.76964,21.48532],[71.76919,21.48525],[71.76861,21.48539],[71.76849,21.48548],[71.7683,21.48569],[71.7682,21.48587],[71.76811,21.48612],[71.76803,21.48635],[71.76793,21.48659],[71.768,21.48666],[71.76819,21.48745],[71.76791,21.48774],[71.7674,21.488],[71.76685,21.48798],[71.76662,21.48789],[71.76633,21.48773],[71.76566,21.48758],[71.76553,21.488],[71.76494,21.48778],[71.76457,21.48731],[71.7642,21.48662],[71.76364,21.48601],[71.76314,21.4855],[71.76291,21.48583],[71.7625,21.48634],[71.76167,21.48685],[71.76143,21.48713],[71.76123,21.48753],[71.76117,21.48775],[71.7612,21.48805],[71.76147,21.48827],[71.76179,21.48849],[71.7622,21.48874],[71.76253,21.48884],[71.76291,21.48913],[71.76325,21.48941],[71.76368,21.48955],[71.76376,21.4898],[71.76395,21.48997],[71.76418,21.48994],[71.76457,21.4905],[71.76473,21.49077],[71.76498,21.49079],[71.76574,21.49087],[71.76599,21.49129],[71.76636,21.49174],[71.76696,21.4921],[71.76743,21.49222],[71.76789,21.49238],[71.76796,21.49269],[71.76802,21.49359],[71.76804,21.49368],[71.76852,21.49394],[71.76872,21.49411],[71.76867,21.49447],[71.76835,21.49458],[71.76825,21.49437],[71.76802,21.49438],[71.76785,21.49465],[71.76777,21.49499],[71.76811,21.49544],[71.76845,21.49601],[71.76863,21.49645],[71.76864,21.4969],[71.76845,21.49732],[71.76811,21.49764],[71.76812,21.49807],[71.76803,21.4986],[71.76793,21.49912],[71.76778,21.49962],[71.76769,21.50004],[71.76772,21.50043],[71.76752,21.5009],[71.76728,21.50127],[71.76694,21.50152],[71.76657,21.5019],[71.76642,21.50234],[71.76628,21.50262],[71.76602,21.5029],[71.76576,21.50321],[71.76557,21.50394],[71.76548,21.50424],[71.76566,21.50502],[71.76486,21.50458],[71.76437,21.50452],[71.76411,21.50464],[71.76378,21.50511],[71.76353,21.50589],[71.76328,21.50619],[71.76297,21.5061],[71.76282,21.50622],[71.76256,21.50642],[71.76262,21.50729],[71.76257,21.50767],[71.76239,21.50697],[71.76213,21.50606],[71.76201,21.50591],[71.76157,21.50573],[71.76092,21.50565],[71.7603,21.5056],[71.75967,21.50559],[71.75918,21.50523],[71.75889,21.50498],[71.75848,21.50488],[71.75796,21.50482],[71.75724,21.50477],[71.7565,21.50468],[71.75591,21.50487],[71.75555,21.50473],[71.75508,21.5043],[71.7546,21.50397],[71.75438,21.50381],[71.75395,21.50345],[71.75359,21.50313],[71.75332,21.50277],[71.7529,21.50244],[71.75273,21.50222],[71.75274,21.50199],[71.753,21.50181],[71.75324,21.5017],[71.75344,21.5012],[71.75358,21.50084],[71.75367,21.50056],[71.75393,21.50012],[71.75421,21.49991],[71.75517,21.49984],[71.75532,21.4992],[71.75518,21.49901],[71.75506,21.49878],[71.75491,21.49845],[71.75477,21.49816],[71.7546,21.49787],[71.75452,21.49763],[71.75454,21.4973],[71.75471,21.49716],[71.75472,21.49701],[71.75453,21.49645],[71.75482,21.49625],[71.75512,21.49618],[71.75537,21.49532],[71.75522,21.49481],[71.75506,21.4943],[71.75479,21.4939],[71.75451,21.49366],[71.75409,21.49343],[71.75364,21.49292],[71.7534,21.49261],[71.75326,21.49236],[71.7531,21.49207],[71.75293,21.49181],[71.75272,21.4916],[71.75266,21.49139],[71.75264,21.49113],[71.75256,21.49088],[71.75231,21.49079],[71.752,21.49071],[71.75162,21.49066],[71.75144,21.49044],[71.75145,21.4902],[71.7512,21.48998],[71.75095,21.4897],[71.751,21.48946],[71.75093,21.4892],[71.75073,21.48892],[71.75051,21.48875],[71.75067,21.48803],[71.75077,21.48769],[71.75082,21.48753],[71.75083,21.48723],[71.751,21.48659],[71.75121,21.48633],[71.75135,21.48618],[71.75149,21.48588],[71.75161,21.48573],[71.75178,21.48553],[71.75196,21.4855],[71.75216,21.48547],[71.75238,21.48548],[71.75251,21.48546],[71.75258,21.48536],[71.75276,21.48505],[71.75288,21.48483],[71.75288,21.48436],[71.7528,21.48396],[71.75282,21.4838],[71.75271,21.48376],[71.75256,21.48384],[71.75244,21.48379],[71.7523,21.48348],[71.75201,21.48282],[71.75202,21.48171],[71.75217,21.48101],[71.75292,21.48054],[71.75322,21.48038],[71.75331,21.4803],[71.75341,21.48023],[71.75363,21.47993],[71.75365,21.47959],[71.75366,21.47931],[71.75348,21.4788],[71.7534,21.47856],[71.75336,21.47825],[71.75328,21.47789],[71.75328,21.47754],[71.75331,21.47739],[71.75335,21.4772],[71.75343,21.47713],[71.75336,21.47691],[71.75301,21.47626],[71.75287,21.47609],[71.75279,21.47598],[71.7525,21.47607],[71.75233,21.47623],[71.75215,21.47606],[71.75196,21.47514],[71.75191,21.47485],[71.75174,21.47465],[71.75138,21.47453],[71.75141,21.47439],[71.75146,21.47422],[71.75147,21.47404],[71.75155,21.47371],[71.75144,21.47336],[71.75109,21.47327],[71.75071,21.47317],[71.75044,21.47315],[71.75005,21.47304],[71.74966,21.47295],[71.7493,21.47287],[71.74905,21.47285],[71.74879,21.4728],[71.74836,21.47272],[71.74816,21.47265],[71.74801,21.47244],[71.74782,21.47237],[71.74767,21.47246],[71.74757,21.47265],[71.74759,21.47279],[71.74726,21.47268],[71.74694,21.47268],[71.74651,21.47262],[71.7461,21.47258],[71.74575,21.47258],[71.7455,21.47261],[71.74531,21.47271],[71.74517,21.47282],[71.74506,21.47289],[71.74502,21.47307],[71.74532,21.47389],[71.74541,21.47395],[71.7455,21.47416],[71.74582,21.47459],[71.74583,21.47467],[71.74544,21.47455],[71.74523,21.4746],[71.74513,21.47441],[71.74437,21.47432],[71.7439,21.47371],[71.74378,21.47377],[71.74373,21.47397],[71.74366,21.47415],[71.74351,21.47429],[71.74327,21.47426],[71.7431,21.47419],[71.74289,21.47415],[71.74262,21.47397],[71.74258,21.4739],[71.74251,21.4739],[71.74245,21.47398],[71.74248,21.47409],[71.74259,21.47422],[71.74266,21.47447],[71.74273,21.4748],[71.74273,21.47515],[71.74276,21.47524],[71.74278,21.4753],[71.74283,21.47542],[71.74278,21.47558],[71.7427,21.47581],[71.74248,21.47611],[71.74216,21.47658],[71.74183,21.47695],[71.74166,21.47716],[71.74153,21.47737],[71.74158,21.47763],[71.74172,21.47781],[71.74196,21.47817],[71.74203,21.47835],[71.74208,21.47852],[71.74206,21.47866],[71.74209,21.47884],[71.74207,21.47905],[71.74209,21.47926],[71.742,21.47948],[71.74201,21.47967],[71.74197,21.4799],[71.7419,21.48012],[71.74176,21.48032],[71.74175,21.48051],[71.74167,21.48074],[71.74166,21.48089],[71.7416,21.48102],[71.74153,21.4812],[71.74145,21.48129],[71.74128,21.48138],[71.74114,21.48149],[71.74101,21.4816],[71.74076,21.48174],[71.74063,21.48172],[71.74042,21.48165],[71.73958,21.48171],[71.73843,21.48191],[71.73813,21.48229],[71.73822,21.48306],[71.73798,21.4832],[71.73772,21.48324],[71.73745,21.48327],[71.73714,21.48322],[71.73694,21.48307],[71.73664,21.48283],[71.73648,21.48264],[71.73613,21.48253],[71.73596,21.48263],[71.73592,21.48279],[71.73592,21.48288],[71.73587,21.48333],[71.73573,21.48386],[71.73564,21.48425],[71.73548,21.48454],[71.73527,21.48469],[71.73499,21.48463],[71.7341,21.48371],[71.73377,21.48307],[71.73257,21.48075],[71.73187,21.47881],[71.73137,21.47752],[71.7311,21.47681],[71.73103,21.47661],[71.73077,21.47566],[71.73035,21.47447],[71.73015,21.47373],[71.73033,21.47354],[71.73121,21.47268],[71.73179,21.47202],[71.73188,21.47189],[71.7321,21.47172],[71.73245,21.4714],[71.73289,21.47098],[71.73263,21.46924],[71.73238,21.46934],[71.73204,21.46928],[71.73171,21.46924],[71.73123,21.46915],[71.73111,21.46892],[71.73007,21.46876],[71.72977,21.46863],[71.72912,21.46846],[71.72922,21.46796],[71.72915,21.46749],[71.729,21.46682],[71.72889,21.46651],[71.72879,21.4661],[71.72872,21.46565],[71.72864,21.4653],[71.72859,21.46491],[71.72853,21.46444],[71.72853,21.46412],[71.72848,21.46377],[71.72869,21.46375],[71.72889,21.46373],[71.72912,21.46371],[71.7293,21.46393],[71.72955,21.46419],[71.72965,21.46377],[71.72993,21.4632],[71.73004,21.46268],[71.73024,21.46209],[71.73066,21.46197],[71.73075,21.46195],[71.73092,21.46192],[71.73105,21.46182],[71.73118,21.46182],[71.73137,21.46178],[71.73149,21.46177],[71.7316,21.46178],[71.7317,21.46175],[71.7318,21.46179],[71.73207,21.46196],[71.73217,21.46195],[71.73224,21.4617],[71.73228,21.46149],[71.73224,21.46138],[71.73254,21.46136],[71.73257,21.46106],[71.73266,21.4605],[71.73293,21.46039],[71.73303,21.46073],[71.73334,21.46065],[71.73332,21.46024],[71.73347,21.46016],[71.73461,21.45968],[71.73454,21.46084],[71.73475,21.46114],[71.735,21.46123],[71.73536,21.46117],[71.73575,21.46083],[71.73596,21.46019],[71.73627,21.46028],[71.73656,21.46024],[71.7371,21.46008],[71.73735,21.45984],[71.73775,21.4596],[71.73814,21.45967],[71.73847,21.45972],[71.73893,21.45985],[71.73934,21.45991],[71.73953,21.46031],[71.73915,21.46055],[71.73915,21.46096],[71.73904,21.46117],[71.73867,21.4616],[71.73833,21.4619],[71.73812,21.46208],[71.7377,21.46248],[71.73761,21.46258],[71.73758,21.46277],[71.73772,21.46299],[71.73804,21.4631],[71.7384,21.46299],[71.7385,21.463],[71.73841,21.46332],[71.73799,21.4644],[71.73801,21.46454],[71.73823,21.46462],[71.73858,21.46455],[71.7387,21.46481],[71.73886,21.46477],[71.73924,21.46475],[71.7397,21.4646],[71.74013,21.46438],[71.74039,21.46437],[71.74069,21.46454],[71.74098,21.4646],[71.74156,21.46496],[71.74184,21.46507],[71.74221,21.46521],[71.74255,21.4652],[71.74289,21.46517],[71.74315,21.46508],[71.74329,21.46484],[71.74337,21.46465],[71.74337,21.46431],[71.74314,21.46378],[71.7434,21.46363],[71.74358,21.46337],[71.74359,21.4631],[71.74383,21.46302],[71.74427,21.46307],[71.74455,21.4631],[71.74485,21.46318],[71.74534,21.4633],[71.74588,21.46337],[71.74627,21.46342],[71.7465,21.46343],[71.74674,21.46372],[71.74733,21.46385],[71.74755,21.4639],[71.7477,21.46402],[71.74813,21.4641],[71.7485,21.46407],[71.74906,21.46401],[71.7495,21.46399],[71.74963,21.46398],[71.75004,21.46407],[71.75075,21.46422],[71.7511,21.46454],[71.75121,21.46486],[71.75131,21.46497],[71.75162,21.46482],[71.75199,21.46447],[71.75232,21.46442],[71.75278,21.46439],[71.75301,21.46425],[71.75326,21.46383],[71.7535,21.46336],[71.75375,21.46343],[71.7542,21.46323],[71.75454,21.46313],[71.75502,21.46288],[71.75509,21.46269],[71.75474,21.46257],[71.75461,21.46229],[71.75477,21.46205],[71.75493,21.46207],[71.7551,21.46211],[71.75517,21.46203],[71.75529,21.46195],[71.75532,21.46181],[71.7554,21.46171],[71.75563,21.46156],[71.75584,21.46156],[71.75613,21.46157],[71.75628,21.46149],[71.7565,21.46111],[71.75677,21.46076],[71.75691,21.46064],[71.75712,21.46008],[71.75719,21.45972],[71.75743,21.45979],[71.75776,21.45981],[71.75772,21.45999],[71.75768,21.46012],[71.7578,21.4602],[71.75795,21.46012],[71.75826,21.4601],[71.75836,21.45992],[71.75844,21.45968],[71.75841,21.45948],[71.75847,21.45937],[71.75855,21.45932],[71.75867,21.45936],[71.75867,21.45963],[71.75863,21.4599],[71.75883,21.45997],[71.75889,21.46008],[71.75885,21.4603],[71.75897,21.46042],[71.7594,21.4603],[71.75942,21.46002],[71.75934,21.45963],[71.7596,21.45959],[71.75962,21.45968],[71.75967,21.45977],[71.75977,21.45978],[71.75965,21.4601],[71.7595,21.46078],[71.75936,21.46115],[71.75918,21.46141],[71.75914,21.46152],[71.75917,21.46172],[71.75944,21.46195],[71.75953,21.46218],[71.7596,21.46241],[71.7596,21.4627],[71.75967,21.46291],[71.75979,21.46302],[71.7604,21.46297],[71.76041,21.4631],[71.76034,21.46333],[71.76027,21.46383],[71.76024,21.46425],[71.76003,21.46495],[71.76001,21.4651],[71.76007,21.46524],[71.76048,21.4652],[71.76079,21.46502],[71.76111,21.46496],[71.76138,21.46493],[71.76138,21.46474],[71.76151,21.46419],[71.76167,21.46395],[71.76164,21.46381],[71.76209,21.46361],[71.76255,21.46365],[71.76301,21.46373],[71.76318,21.46373],[71.7635,21.46383],[71.76368,21.46373],[71.76384,21.46348],[71.7639,21.46318],[71.76405,21.46294],[71.76419,21.46268],[71.76423,21.46219],[71.76462,21.46213],[71.76488,21.46201],[71.76497,21.46189],[71.76507,21.46182],[71.76518,21.46171],[71.76541,21.46169],[71.76595,21.46162],[71.76711,21.46176],[71.76708,21.46239],[71.76728,21.46267],[71.76761,21.4629],[71.76781,21.46292],[71.76836,21.463],[71.76918,21.46291],[71.77087,21.46342],[71.77102,21.46335],[71.77114,21.46204],[71.77122,21.46166],[71.77163,21.46127],[71.77215,21.46125],[71.77157,21.45964],[71.7714,21.45956],[71.77121,21.4593],[71.77134,21.4588],[71.77131,21.45827],[71.77113,21.4578],[71.7708,21.45769],[71.77054,21.45759],[71.7703,21.45755],[71.77009,21.45725],[71.77,21.45709],[71.76995,21.45696],[71.77068,21.45674],[71.77051,21.45626],[71.77032,21.45627],[71.76982,21.45637],[71.76981,21.45625],[71.76997,21.45605],[71.77002,21.4558],[71.76982,21.45577],[71.76978,21.45517],[71.76994,21.45516],[71.77018,21.45509],[71.77075,21.4552],[71.7713,21.45539],[71.77153,21.45564],[71.7717,21.45592],[71.77213,21.4562],[71.77238,21.45612],[71.77272,21.45606],[71.7734,21.45594],[71.77454,21.45588],[71.77531,21.45568],[71.77661,21.4556],[71.77711,21.45605],[71.77751,21.45664],[71.77779,21.45728],[71.77794,21.45786],[71.77831,21.45839],[71.77871,21.45859],[71.77928,21.45869],[71.78055,21.45901],[71.78115,21.459],[71.78201,21.45891],[71.78279,21.45915],[71.78289,21.45924],[71.78295,21.45949],[71.78323,21.46088],[71.78396,21.46094],[71.78433,21.46072],[71.7848,21.46044],[71.78563,21.46003],[71.78659,21.45991],[71.78708,21.45985],[71.7873,21.45972],[71.78752,21.45911],[71.78785,21.45814],[71.78814,21.45693],[71.78854,21.4559],[71.78865,21.45547],[71.78884,21.45525],[71.78937,21.45533],[71.78975,21.45531],[71.78984,21.4552],[71.79019,21.45446],[71.79021,21.4541],[71.78964,21.45397],[71.78834,21.45383],[71.78824,21.45342],[71.78829,21.45302],[71.78834,21.45273],[71.78847,21.45246],[71.78864,21.45226],[71.78893,21.45205],[71.78935,21.45197],[71.79004,21.45198],[71.79107,21.45207],[71.79251,21.45231],[71.79303,21.45248],[71.7931,21.45317],[71.79336,21.45384],[71.7938,21.45429],[71.79444,21.45475],[71.79546,21.45514],[71.79645,21.45524],[71.79692,21.45516],[71.79704,21.45491],[71.7971,21.45481],[71.79721,21.45479],[71.79787,21.45499],[71.79825,21.45505],[71.79893,21.45531],[71.79936,21.45513],[71.79986,21.45525],[71.80015,21.45542],[71.80052,21.45555],[71.8008,21.45569],[71.79895,21.45726],[71.79871,21.45749],[71.7987,21.45757],[71.79878,21.45769],[71.79898,21.45779],[71.79948,21.45797],[71.8001,21.4581],[71.80036,21.45808],[71.80058,21.45822],[71.80098,21.4582],[71.80179,21.45769],[71.80208,21.45815],[71.80226,21.45835],[71.80258,21.45847],[71.80283,21.45861],[71.80311,21.45873],[71.80343,21.45887],[71.80381,21.45903],[71.80411,21.45915],[71.80427,21.45905],[71.805,21.45837],[71.80518,21.45835],[71.80548,21.45833],[71.80592,21.4583],[71.80625,21.45831],[71.80659,21.45836],[71.80689,21.45846],[71.80725,21.45865],[71.80751,21.45887],[71.80788,21.45919],[71.80789,21.45939],[71.80769,21.45938],[71.80751,21.45936],[71.80738,21.45945],[71.80734,21.4596],[71.80741,21.4598],[71.8075,21.45996],[71.80766,21.46001],[71.8079,21.46012],[71.80805,21.46024],[71.80821,21.46078],[71.80832,21.46121],[71.80835,21.46148],[71.80839,21.46183],[71.80829,21.46218],[71.80825,21.46244],[71.8082,21.46257],[71.80816,21.46381],[71.80807,21.46424],[71.80807,21.46442],[71.80809,21.4646],[71.80828,21.46476],[71.80808,21.46488],[71.80794,21.46503],[71.80775,21.46511],[71.80759,21.46522],[71.80752,21.46543],[71.80768,21.46554],[71.80784,21.46553],[71.80816,21.46653],[71.80817,21.4669],[71.80838,21.46728],[71.8083,21.46757],[71.8084,21.46806],[71.80824,21.46847],[71.80812,21.46876],[71.80823,21.46885],[71.80841,21.46886],[71.80888,21.46895],[71.80914,21.46895],[71.80943,21.46898],[71.80979,21.46908],[71.80998,21.46933],[71.81021,21.46944],[71.81042,21.46951],[71.81058,21.46967],[71.81064,21.46993],[71.81075,21.47015],[71.81097,21.47026],[71.81118,21.47033],[71.81139,21.47032],[71.81151,21.47033],[71.81168,21.47048],[71.81184,21.47067],[71.81199,21.47093],[71.8121,21.4712],[71.81226,21.47145],[71.81247,21.4717],[71.81261,21.47175],[71.81294,21.47167],[71.81308,21.47176],[71.81315,21.47192],[71.81325,21.47254],[71.81339,21.47336],[71.81354,21.47395],[71.81379,21.4746],[71.8141,21.47511],[71.81451,21.47532],[71.81494,21.47582],[71.81517,21.47699],[71.81462,21.47697],[71.81426,21.47714],[71.81396,21.47724],[71.81377,21.47742],[71.81376,21.47756],[71.81355,21.47762],[71.8133,21.47758],[71.81306,21.47774],[71.81294,21.47794],[71.81297,21.47817],[71.8131,21.47825],[71.81387,21.47837],[71.81434,21.47833],[71.8148,21.47836],[71.81521,21.47832],[71.81544,21.47836],[71.81566,21.47846],[71.81615,21.47838],[71.81631,21.4787],[71.81616,21.47906],[71.8164,21.4792],[71.81676,21.47971],[71.81693,21.48033],[71.81685,21.48069],[71.81701,21.48097],[71.81703,21.48139],[71.81715,21.48186],[71.81732,21.48186],[71.81753,21.48198],[71.81773,21.48202],[71.81806,21.48204],[71.81834,21.48215],[71.81868,21.4823],[71.81904,21.48248],[71.81922,21.48265],[71.81938,21.48272],[71.81955,21.48282],[71.81986,21.48313],[71.82015,21.48345],[71.82026,21.48342],[71.82045,21.48331],[71.82056,21.4834],[71.82091,21.48389],[71.82108,21.4844],[71.82121,21.48491],[71.82144,21.48555],[71.82164,21.48625],[71.82175,21.4868],[71.82182,21.4875],[71.82105,21.48742],[71.82048,21.48732],[71.8201,21.48749],[71.81978,21.48777],[71.81951,21.48783],[71.8198,21.48852],[71.81977,21.48912],[71.82003,21.48944],[71.82064,21.48984],[71.82034,21.48997],[71.82032,21.49017],[71.82042,21.49041],[71.82042,21.49096],[71.82046,21.49127],[71.82068,21.4917],[71.82125,21.49184],[71.82071,21.49416],[71.82065,21.4947],[71.82048,21.49567],[71.82024,21.49676],[71.82006,21.49764],[71.82005,21.49846],[71.82006,21.49925],[71.82014,21.49986],[71.82015,21.50078],[71.82018,21.50167],[71.81909,21.50225],[71.81895,21.50251],[71.81888,21.50255],[71.81885,21.50266],[71.81876,21.50274],[71.81869,21.50277],[71.81861,21.50286],[71.81849,21.50298],[71.81837,21.50319],[71.81811,21.50343],[71.81806,21.50361],[71.81801,21.50385],[71.81765,21.50402],[71.81728,21.50425],[71.81695,21.5045],[71.81659,21.50467],[71.81627,21.50477],[71.81577,21.50488],[71.81565,21.50489],[71.81508,21.50501],[71.81483,21.50508],[71.81475,21.50512],[71.81445,21.50516],[71.81427,21.50521],[71.81362,21.50526],[71.81362,21.50533],[71.81329,21.50543],[71.81294,21.50547],[71.81201,21.50556]]]},"properties":{"Name":"Shatrunjay hill area outline perimeter 49.1 km , area 8,397 acres","area":3395.963,"areaSqKm":33.9596}}
]}