{"type":"FeatureCollection", "features": [
{"type":"Feature","geometry":{"type":"LineString","coordinates":[[71.76644,21.46145],[71.76632,21.46153],[71.76618,21.46159],[71.76565,21.46164],[71.76525,21.46168],[71.765,21.46187],[71.76473,21.46219],[71.76438,21.46255],[71.76427,21.46281],[71.76424,21.46319],[71.76397,21.46343],[71.76388,21.4636],[71.76379,21.46377],[71.76361,21.46386],[71.76319,21.46397],[71.76275,21.46404],[71.7618,21.4643],[71.76161,21.46462],[71.76144,21.46498],[71.76142,21.46554],[71.76169,21.4658],[71.76204,21.46592],[71.76229,21.46597],[71.76235,21.46598],[71.76242,21.46595],[71.7627,21.46586],[71.76299,21.46569],[71.76328,21.46554],[71.76353,21.46543],[71.76386,21.46533],[71.7641,21.46532],[71.76426,21.46532],[71.76461,21.46541],[71.76502,21.4655],[71.7653,21.46556],[71.76547,21.46572],[71.76561,21.46587],[71.76576,21.46603],[71.76584,21.4661],[71.76583,21.46614],[71.76576,21.46614],[71.76559,21.46604],[71.76534,21.46595],[71.76507,21.46591],[71.7649,21.46586],[71.76469,21.46586],[71.76438,21.46593],[71.76413,21.46602],[71.76396,21.46612],[71.76376,21.46625],[71.76362,21.4664],[71.76358,21.46651],[71.76371,21.46643],[71.76385,21.46637],[71.76399,21.46635],[71.76421,21.4663],[71.76435,21.46629],[71.76453,21.46633],[71.76478,21.46644],[71.76494,21.46652],[71.76515,21.46665],[71.76497,21.46666],[71.76474,21.46663],[71.76449,21.46665],[71.76428,21.46669],[71.76411,21.46676],[71.76401,21.46682],[71.76397,21.46688],[71.76404,21.4669],[71.76425,21.46689],[71.76449,21.46695],[71.76469,21.46705],[71.76493,21.46719],[71.76518,21.46738],[71.76533,21.46752],[71.7654,21.46762],[71.76546,21.46772],[71.76548,21.46784],[71.76544,21.46793],[71.76531,21.46807],[71.76514,21.46826],[71.76503,21.46841]]},"properties":{"id":1,"Name":"Track"}},
{"type":"Feature","geometry":{"type":"LineString","coordinates":[[71.76503,21.46841],[71.76515,21.46844],[71.76543,21.46846],[71.76561,21.46852],[71.76575,21.46865],[71.76591,21.46875],[71.766,21.46877],[71.76609,21.46876],[71.7662,21.46869],[71.76629,21.46863],[71.76645,21.46856],[71.76659,21.46851],[71.76689,21.46847],[71.76707,21.46855],[71.76724,21.46873],[71.76745,21.46891],[71.76755,21.46905],[71.76767,21.4691],[71.76797,21.46907],[71.76817,21.46904],[71.76854,21.46895],[71.76888,21.46886],[71.7691,21.46883],[71.7693,21.46882],[71.76959,21.46889],[71.76991,21.46904],[71.77044,21.46928],[71.77075,21.46943],[71.77093,21.46957],[71.77112,21.46972],[71.77152,21.46962],[71.77174,21.46961],[71.77187,21.46973],[71.77199,21.46988],[71.77215,21.47012],[71.77255,21.47026],[71.77283,21.47029],[71.77325,21.47029],[71.77371,21.47029],[71.7742,21.47031],[71.77477,21.47026],[71.77507,21.47019],[71.77584,21.47018],[71.77605,21.47017],[71.77621,21.47023],[71.77634,21.47026],[71.77641,21.47028],[71.77655,21.47029],[71.77659,21.47029]]},"properties":{"id":1,"Name":"Track"}},
{"type":"Feature","geometry":{"type":"LineString","coordinates":[[71.76992,21.4648],[71.77003,21.46459],[71.77016,21.46443],[71.77041,21.46419],[71.77063,21.46417],[71.77075,21.46421],[71.77085,21.46428],[71.77123,21.46409],[71.77101,21.46371],[71.7709,21.46358],[71.77064,21.46343],[71.77018,21.46312]]},"properties":{"id":1,"Name":"Track"}},
{"type":"Feature","geometry":{"type":"LineString","coordinates":[[71.79194,21.48315],[71.79204,21.48353],[71.79205,21.48373],[71.79214,21.48391],[71.79234,21.48426],[71.79247,21.48446],[71.79268,21.48471],[71.79288,21.48486],[71.79306,21.48499],[71.79324,21.48517],[71.79345,21.48537],[71.79369,21.48559],[71.79393,21.48574],[71.79425,21.48594],[71.79447,21.48605],[71.79477,21.48614],[71.79503,21.48627],[71.79526,21.48633],[71.79556,21.48635],[71.79587,21.48626],[71.7961,21.48616],[71.79631,21.48609],[71.79646,21.48605],[71.79668,21.48604],[71.79696,21.48608],[71.79729,21.48608],[71.79749,21.48605],[71.79786,21.48597]]},"properties":{"id":1,"Name":"Track"}},
{"type":"Feature","geometry":null,"properties":{"id":1,"Name":"Track"}},
{"type":"Feature","geometry":null,"properties":{"id":1,"Name":"Track"}},
{"type":"Feature","geometry":null,"properties":{"id":1,"Name":"Track"}},
{"type":"Feature","geometry":null,"properties":{"id":1,"Name":"Track"}},
{"type":"Feature","geometry":null,"properties":{"id":1,"Name":"Track"}},
{"type":"Feature","geometry":null,"properties":{"id":1,"Name":"Track"}},
{"type":"Feature","geometry":{"type":"LineString","coordinates":[[71.77823,21.48436],[71.7785,21.48428],[71.77892,21.48404],[71.77917,21.48395],[71.77939,21.48397],[71.77955,21.48407],[71.7797,21.48419],[71.77986,21.48434],[71.78004,21.48456],[71.78009,21.48477],[71.7801,21.48503],[71.78028,21.48532],[71.78035,21.4855],[71.7806,21.48599],[71.7808,21.48629],[71.78099,21.48656],[71.78115,21.48675],[71.78115,21.48701],[71.78139,21.48724],[71.78143,21.48734],[71.78141,21.48743],[71.78122,21.4877],[71.78115,21.48787],[71.78108,21.48815],[71.78111,21.48822],[71.78121,21.48831],[71.7813,21.48845],[71.78133,21.48853],[71.78131,21.48872],[71.7813,21.48881],[71.78153,21.48887]]},"properties":{"id":1,"Name":"Track"}},
{"type":"Feature","geometry":{"type":"LineString","coordinates":[[71.79643,21.48457],[71.7964,21.48459],[71.79623,21.48466],[71.79634,21.48475],[71.79683,21.48509],[71.79702,21.48524],[71.79716,21.48536],[71.79722,21.4854],[71.79733,21.48544],[71.79743,21.4855],[71.7975,21.48562],[71.79754,21.48564],[71.79764,21.48568],[71.79766,21.4857],[71.79767,21.48572],[71.79769,21.48581],[71.79774,21.48585],[71.79779,21.48592],[71.79785,21.48597]]},"properties":{"id":1,"Name":"Track"}},
{"type":"Feature","geometry":{"type":"LineString","coordinates":[[71.80131,21.48981],[71.80155,21.48998],[71.80177,21.4902],[71.80185,21.49027],[71.80198,21.49031],[71.80202,21.49034],[71.80204,21.4904],[71.80209,21.49046],[71.8022,21.49057],[71.80236,21.49066],[71.80258,21.49078],[71.80275,21.49089],[71.80293,21.49099],[71.80301,21.49105],[71.80309,21.49118],[71.8031,21.49125],[71.8031,21.49133],[71.80313,21.4914],[71.80319,21.49146],[71.80328,21.49153],[71.80334,21.49161],[71.80337,21.49169],[71.80342,21.49174],[71.8036,21.49191],[71.80374,21.49203],[71.80388,21.49213],[71.80396,21.49218],[71.80401,21.49221],[71.80411,21.49223],[71.80428,21.49227],[71.80459,21.4924],[71.80485,21.49248],[71.80496,21.49253],[71.80503,21.49256],[71.80511,21.49254],[71.80518,21.49255],[71.80523,21.49258],[71.80526,21.49261],[71.80533,21.49268],[71.80538,21.49274],[71.80555,21.49281],[71.80562,21.49291]]},"properties":{"id":1,"Name":"Track"}},
{"type":"Feature","geometry":{"type":"LineString","coordinates":[[71.80412,21.49637],[71.80424,21.49632],[71.80439,21.49626],[71.80447,21.49623],[71.80453,21.49622],[71.80458,21.4962],[71.80461,21.4962],[71.80466,21.49617],[71.80475,21.4961],[71.80485,21.49602],[71.80494,21.49598],[71.80503,21.49596],[71.80508,21.49596],[71.80514,21.49599],[71.80521,21.496],[71.80525,21.49602],[71.8053,21.49607],[71.80536,21.4961],[71.80545,21.49611],[71.80553,21.49612],[71.80561,21.49613],[71.80566,21.49612],[71.80577,21.4961],[71.80587,21.49608],[71.806,21.49603],[71.80609,21.49597],[71.80616,21.49595],[71.80626,21.49592],[71.80633,21.4959],[71.8064,21.49585],[71.8065,21.49574],[71.80659,21.49567],[71.80666,21.49564],[71.80677,21.49561],[71.80685,21.49561],[71.80691,21.49569],[71.80695,21.4958],[71.807,21.49584],[71.80716,21.49592],[71.80722,21.49598],[71.80732,21.49603],[71.8074,21.49607],[71.80755,21.49609],[71.80769,21.49611],[71.80775,21.4961],[71.80788,21.49616],[71.80803,21.49623],[71.80816,21.4963],[71.80827,21.49632],[71.80851,21.49628]]},"properties":{"id":1,"Name":"Track"}},
{"type":"Feature","geometry":{"type":"LineString","coordinates":[[71.79888,21.502],[71.79855,21.50213],[71.79831,21.50223],[71.79817,21.50224],[71.79766,21.50225],[71.79731,21.50219],[71.79714,21.50223],[71.79703,21.50229],[71.79692,21.50235],[71.79682,21.50234],[71.79671,21.50228],[71.79659,21.50219],[71.79649,21.50216],[71.79633,21.50216],[71.79622,21.50219],[71.79603,21.50233],[71.79577,21.50258],[71.79572,21.50267],[71.79571,21.50274],[71.79571,21.50279],[71.79574,21.50283],[71.79579,21.50287],[71.79587,21.5029],[71.79596,21.50294],[71.79601,21.50297],[71.79604,21.50303],[71.79602,21.50311],[71.79597,21.50318],[71.79578,21.50326],[71.79561,21.50335],[71.7954,21.50346],[71.79516,21.50353],[71.79501,21.50358],[71.79497,21.50362],[71.79498,21.50368],[71.79501,21.50371],[71.79506,21.50373],[71.79516,21.50374],[71.79533,21.50375],[71.79555,21.50372],[71.79563,21.50372],[71.79569,21.50374],[71.7957,21.5038],[71.79566,21.50385],[71.79562,21.50388],[71.79549,21.50391],[71.79518,21.50398],[71.79499,21.504],[71.79476,21.504],[71.7946,21.504],[71.7945,21.50402],[71.79444,21.50406],[71.79441,21.50415],[71.79443,21.50436],[71.79448,21.50453],[71.7945,21.50462],[71.79451,21.50471],[71.79454,21.50477],[71.79459,21.50481],[71.79465,21.50483],[71.79472,21.50483],[71.79482,21.50481],[71.7949,21.5048],[71.79501,21.50484],[71.79508,21.50487],[71.79513,21.50491],[71.79517,21.50497],[71.79518,21.50502],[71.79518,21.50513],[71.79513,21.5053],[71.79508,21.50549],[71.79493,21.50609],[71.79489,21.50627],[71.79477,21.5066],[71.79458,21.50697],[71.79453,21.50707],[71.79434,21.5072],[71.79399,21.50731],[71.7938,21.50733],[71.79371,21.50729],[71.79366,21.50721],[71.79354,21.50702],[71.79346,21.5069],[71.79336,21.5067],[71.79331,21.50658],[71.79328,21.50655],[71.79322,21.50655],[71.79319,21.50658],[71.79319,21.50663],[71.7932,21.50677],[71.79322,21.50701],[71.79321,21.50707],[71.79319,21.50709],[71.79316,21.5071],[71.79312,21.50709],[71.79304,21.50702],[71.79293,21.50693],[71.79285,21.50689],[71.79278,21.50689],[71.79268,21.5069],[71.79258,21.50697],[71.79239,21.50711],[71.79229,21.5072],[71.79224,21.50726],[71.79218,21.50736],[71.79214,21.5075],[71.79211,21.5076],[71.79208,21.50768],[71.79199,21.50775],[71.79187,21.50779],[71.79173,21.50777],[71.79166,21.50778],[71.79165,21.50784],[71.79172,21.50791],[71.79183,21.508],[71.79188,21.50805],[71.79185,21.50809],[71.79183,21.50814],[71.79176,21.50811],[71.79166,21.50804],[71.79152,21.50794],[71.79146,21.50789],[71.79141,21.50787],[71.79135,21.50788],[71.79134,21.50793],[71.7914,21.50802],[71.79161,21.50826],[71.79173,21.5084],[71.79175,21.50845],[71.79173,21.50849],[71.79169,21.50851],[71.79163,21.50849],[71.79148,21.50841],[71.79138,21.50834],[71.79133,21.50834],[71.79129,21.50837],[71.79128,21.50843],[71.7913,21.50849],[71.7915,21.50867],[71.79159,21.50874],[71.79169,21.5088],[71.7918,21.50885],[71.79191,21.50888],[71.79201,21.5089],[71.79215,21.5089],[71.79235,21.50889],[71.7926,21.50887],[71.79274,21.50886],[71.79296,21.50889],[71.79318,21.50897],[71.79336,21.50902],[71.79349,21.50911],[71.79361,21.50922],[71.79373,21.50931],[71.79392,21.50937],[71.79405,21.50937],[71.79419,21.50933],[71.79442,21.50924],[71.79459,21.50915],[71.79471,21.50911],[71.79479,21.50912],[71.79491,21.50924],[71.795,21.50937],[71.79504,21.50948],[71.79504,21.50961],[71.79498,21.50987],[71.7949,21.51002],[71.79481,21.51011],[71.79471,21.51023],[71.79466,21.51032],[71.79458,21.5105],[71.7945,21.51057],[71.79448,21.51058],[71.79415,21.51057],[71.79396,21.51057],[71.79361,21.51055],[71.79309,21.51053],[71.79275,21.51051],[71.79244,21.51047],[71.79231,21.51046],[71.7922,21.51047],[71.79211,21.51053],[71.79202,21.5106],[71.7919,21.51079],[71.79177,21.51101],[71.79166,21.51115],[71.79158,21.51124],[71.79144,21.51146]]},"properties":{"id":1,"Name":"Track"}},
{"type":"Feature","geometry":{"type":"LineString","coordinates":[[71.80446,21.50653],[71.80444,21.50671],[71.80438,21.5068],[71.80438,21.50689],[71.8044,21.50695],[71.80447,21.50704],[71.80451,21.50713],[71.80453,21.50721],[71.80454,21.50727],[71.80453,21.50735],[71.8045,21.50738],[71.80438,21.50746],[71.80425,21.50753],[71.8041,21.50759],[71.80368,21.50772],[71.80307,21.5079],[71.80283,21.50798],[71.80254,21.50806],[71.8024,21.50809],[71.80223,21.50808],[71.80205,21.50807],[71.80191,21.50807],[71.80173,21.50804],[71.80163,21.50804],[71.80157,21.50806],[71.80148,21.50805],[71.80135,21.50808],[71.80112,21.50809],[71.8009,21.50808],[71.80067,21.5081],[71.80041,21.50811],[71.80021,21.50812],[71.80001,21.50816],[71.79975,21.50819],[71.79964,21.50823],[71.79949,21.50825],[71.7994,21.50825],[71.7993,21.50827],[71.79899,21.50842],[71.79881,21.50848],[71.79866,21.50856],[71.79845,21.50871],[71.79828,21.50883],[71.7982,21.50888],[71.79806,21.50896],[71.79797,21.50902],[71.7979,21.50908],[71.7978,21.50916],[71.79755,21.50929],[71.79731,21.50942],[71.79717,21.50948],[71.79705,21.50952],[71.79664,21.5096],[71.79642,21.50963],[71.79621,21.5097],[71.79595,21.50977],[71.79578,21.50985],[71.79567,21.50994],[71.79557,21.51005],[71.79549,21.51017],[71.79537,21.51032],[71.79518,21.51047],[71.79499,21.51054],[71.79484,21.51057],[71.79461,21.51059],[71.79448,21.51058]]},"properties":{"id":1,"Name":"track"}},
{"type":"Feature","geometry":{"type":"LineString","coordinates":[[71.81519,21.50419],[71.81569,21.50408],[71.81601,21.50398],[71.81657,21.50373],[71.81688,21.50365],[71.81708,21.50358],[71.81732,21.50354],[71.81749,21.5035],[71.81774,21.50347],[71.81781,21.50344],[71.81789,21.5033],[71.81798,21.50316],[71.81805,21.50308],[71.81817,21.50303],[71.81829,21.50297],[71.81849,21.50285],[71.81861,21.50278],[71.81889,21.50255],[71.81917,21.50233],[71.81933,21.50215],[71.81946,21.50204],[71.81947,21.50195],[71.81946,21.50174],[71.81943,21.50161],[71.81941,21.50154],[71.81937,21.50151],[71.81929,21.50151],[71.81917,21.50148],[71.81901,21.50145],[71.81886,21.50134],[71.81882,21.50128],[71.81878,21.5012],[71.81871,21.50113],[71.81857,21.50105],[71.81842,21.50096],[71.81817,21.50094],[71.81802,21.50092],[71.81793,21.50087],[71.81784,21.50086],[71.81771,21.50086],[71.81754,21.50083],[71.81746,21.5008],[71.8174,21.50081],[71.81729,21.50085],[71.81725,21.50087],[71.81715,21.50086],[71.81711,21.50084],[71.81706,21.50078],[71.81702,21.50074],[71.81697,21.50074],[71.81689,21.50076],[71.81675,21.50078],[71.81662,21.50076],[71.8165,21.50074],[71.81637,21.50074],[71.81627,21.50076],[71.81617,21.50076],[71.81603,21.50078],[71.81582,21.50075],[71.81558,21.50074],[71.81543,21.50075],[71.81525,21.50081],[71.81511,21.50086],[71.81488,21.50088],[71.81477,21.50089],[71.81459,21.50085]]},"properties":{"id":1,"Name":"Track"}},
{"type":"Feature","geometry":{"type":"LineString","coordinates":[[71.81444,21.50224],[71.81467,21.50216],[71.81479,21.50208],[71.81491,21.50202],[71.81501,21.502],[71.81514,21.502],[71.81535,21.50198],[71.8156,21.50195],[71.81574,21.50191],[71.8159,21.50192],[71.81603,21.50193],[71.81618,21.50192],[71.81627,21.50193],[71.81637,21.50195],[71.81647,21.50198],[71.8166,21.50198],[71.81673,21.502],[71.81688,21.50206],[71.81699,21.50211],[71.81709,21.50213],[71.81715,21.50212],[71.81718,21.50209],[71.8172,21.50195],[71.81723,21.5019],[71.8173,21.50183],[71.81736,21.50178],[71.81746,21.50173],[71.81763,21.50166],[71.8178,21.50158],[71.81796,21.50154],[71.81818,21.50155],[71.81837,21.50153],[71.81852,21.50151],[71.81859,21.50151],[71.81865,21.50152],[71.81868,21.50159],[71.81875,21.50171],[71.81882,21.50178],[71.81891,21.50182],[71.81903,21.50185],[71.81911,21.50187],[71.8192,21.50185],[71.81932,21.50179],[71.81946,21.50174],[71.81962,21.50166],[71.81975,21.50161],[71.81983,21.50159],[71.81991,21.50157],[71.82001,21.50151],[71.82006,21.50145],[71.8201,21.50135],[71.82013,21.5012],[71.82015,21.50093],[71.82025,21.50088]]},"properties":{"id":1,"Name":"Track"}},
{"type":"Feature","geometry":{"type":"LineString","coordinates":[[71.81219,21.50441],[71.81203,21.50449],[71.81184,21.50452],[71.81161,21.50448],[71.81136,21.50444],[71.81112,21.50436],[71.81099,21.50434],[71.81071,21.50433],[71.81042,21.50425],[71.81004,21.50412],[71.80969,21.50401],[71.80951,21.50392],[71.80933,21.5038],[71.80915,21.50376],[71.80894,21.5038],[71.80874,21.50381],[71.80851,21.50376],[71.80839,21.50371],[71.80818,21.50372],[71.80798,21.50373],[71.80788,21.50377],[71.80783,21.50382],[71.80781,21.50394],[71.80782,21.504],[71.80788,21.5042],[71.80797,21.50441],[71.80817,21.50462],[71.80831,21.50476],[71.80856,21.50489],[71.80879,21.50495],[71.809,21.50502],[71.80919,21.5051],[71.8094,21.50517],[71.80945,21.50525],[71.80951,21.50532]]},"properties":{"id":1,"Name":"Track"}},
{"type":"Feature","geometry":{"type":"LineString","coordinates":[[71.80696,21.50588],[71.80689,21.50577],[71.80682,21.50569],[71.80675,21.50553],[71.80669,21.50535],[71.80668,21.50529],[71.80671,21.50521],[71.80671,21.50511],[71.80666,21.50499],[71.80653,21.50484],[71.80643,21.50471],[71.80636,21.50466],[71.80633,21.50462],[71.8063,21.50456],[71.80629,21.50448],[71.80629,21.50437],[71.80631,21.50425],[71.80627,21.50414],[71.80624,21.50405],[71.80623,21.50392],[71.8063,21.50363],[71.80631,21.50343],[71.80629,21.50322],[71.80623,21.50305],[71.80611,21.50286],[71.80605,21.50277],[71.80595,21.50269],[71.80592,21.50261],[71.80585,21.50244],[71.80576,21.50223],[71.80573,21.50204],[71.80571,21.50187],[71.80569,21.50174],[71.80564,21.50167],[71.8056,21.50154],[71.80549,21.50144]]},"properties":{"id":1,"Name":"Track"}},
{"type":"Feature","geometry":{"type":"LineString","coordinates":[[71.79495,21.45735],[71.79521,21.45737],[71.79522,21.45746],[71.79509,21.45801],[71.79502,21.45828],[71.795,21.4584],[71.79496,21.4588],[71.79497,21.45892],[71.79502,21.45898],[71.79511,21.45897]]},"properties":{"id":1,"Name":"Track"}},
{"type":"Feature","geometry":{"type":"LineString","coordinates":[[71.79495,21.45735],[71.79486,21.45734],[71.7948,21.45739],[71.79475,21.45747],[71.79471,21.45761],[71.79469,21.45764],[71.79456,21.45765],[71.79448,21.45774],[71.79443,21.45781],[71.79441,21.45792],[71.79441,21.45814],[71.79444,21.45835],[71.79443,21.45839],[71.79435,21.45859],[71.79433,21.45867],[71.79433,21.45879],[71.79435,21.45891],[71.7944,21.45905],[71.79446,21.45912],[71.79455,21.45916],[71.79469,21.4592],[71.79484,21.45922],[71.79491,21.45921],[71.795,21.45916],[71.79506,21.45908],[71.79511,21.45897],[71.79521,21.45882],[71.79534,21.45867],[71.79542,21.45855],[71.79547,21.45852],[71.79552,21.45852],[71.79555,21.45854],[71.79557,21.45857],[71.79561,21.45877],[71.79563,21.45901],[71.79567,21.45908],[71.79574,21.4592],[71.79578,21.45929],[71.79586,21.45941],[71.79592,21.45952],[71.79594,21.45958],[71.79595,21.45976],[71.79596,21.45983],[71.79599,21.45986],[71.79602,21.45984],[71.79604,21.45983],[71.79607,21.45977],[71.79608,21.4597],[71.79609,21.45965],[71.79612,21.45962],[71.79615,21.45963],[71.79617,21.45965],[71.79619,21.45969],[71.7962,21.45976],[71.7962,21.45983],[71.79617,21.45994],[71.79615,21.45999],[71.79606,21.46014],[71.79594,21.46031],[71.79589,21.46037],[71.79577,21.46047],[71.79574,21.46053],[71.79567,21.46069],[71.7956,21.46085],[71.79552,21.46103],[71.79547,21.46112],[71.79543,21.46119],[71.7954,21.46125],[71.79539,21.46132],[71.79542,21.46145],[71.79544,21.46161],[71.79546,21.46171],[71.7955,21.46181],[71.79553,21.46188],[71.79553,21.46191],[71.79552,21.46194],[71.79549,21.46195],[71.79537,21.46194],[71.79529,21.46195],[71.79523,21.46197],[71.79517,21.46201],[71.79511,21.46207],[71.79504,21.46216],[71.79493,21.46231],[71.79487,21.46241],[71.79484,21.46247],[71.79483,21.46253],[71.79483,21.46262],[71.79485,21.46276],[71.7949,21.46301],[71.79494,21.46302],[71.79506,21.46299],[71.79519,21.46296],[71.79531,21.46294],[71.79539,21.46296],[71.79547,21.46299],[71.79548,21.46304],[71.79547,21.46308],[71.79525,21.46341],[71.79519,21.46351],[71.79515,21.46361],[71.79511,21.46372],[71.79512,21.4638],[71.79514,21.46382],[71.79517,21.46382],[71.79522,21.4638],[71.79537,21.46364],[71.79546,21.46357],[71.79554,21.46351],[71.79559,21.46349],[71.79563,21.46352],[71.79564,21.46358],[71.79562,21.46368],[71.79551,21.4639],[71.79547,21.46399],[71.79548,21.46407],[71.79551,21.46419],[71.79554,21.46427],[71.79563,21.46438],[71.79569,21.46443],[71.79583,21.46452],[71.7962,21.46471],[71.7963,21.4648],[71.79633,21.4649],[71.79632,21.46509],[71.79637,21.46516],[71.79639,21.46531],[71.79645,21.46549],[71.79647,21.46562],[71.79652,21.4657],[71.79656,21.46573],[71.79671,21.46576],[71.7968,21.46578],[71.79685,21.46582],[71.79694,21.46597],[71.79707,21.46624],[71.79723,21.46651],[71.79737,21.46664],[71.79747,21.46674],[71.79759,21.46692],[71.79763,21.46697],[71.79766,21.46707],[71.79764,21.46714],[71.79758,21.46717],[71.79745,21.46718],[71.7974,21.4672],[71.79733,21.46726],[71.79732,21.46737],[71.79731,21.46753],[71.79728,21.46781],[71.79727,21.46795],[71.79721,21.46806],[71.79715,21.46817],[71.79702,21.46826],[71.79686,21.4684],[71.79685,21.46852],[71.79688,21.46866],[71.79681,21.46874],[71.79662,21.46886],[71.79648,21.46906],[71.79639,21.46919],[71.79634,21.46932],[71.79632,21.46942],[71.79635,21.46951],[71.79641,21.46954],[71.79651,21.46952],[71.79662,21.46944],[71.79672,21.4694],[71.79685,21.46935],[71.79695,21.4693],[71.79705,21.46926],[71.79713,21.46928],[71.79713,21.46933],[71.79707,21.46944],[71.7968,21.46965],[71.79671,21.46976],[71.79666,21.46986],[71.79662,21.46999],[71.79666,21.4703],[71.7967,21.47042],[71.79683,21.47057],[71.79688,21.47056],[71.79694,21.4705],[71.79708,21.47044],[71.79718,21.47049],[71.79732,21.47061],[71.7974,21.4707],[71.79746,21.47076],[71.79752,21.47082],[71.79761,21.47088],[71.79776,21.4709],[71.7979,21.47093],[71.79805,21.47102],[71.79818,21.47109],[71.79834,21.47123],[71.7984,21.47133],[71.79842,21.47151],[71.7984,21.47169],[71.79835,21.47193],[71.79837,21.47251],[71.79835,21.4727],[71.79834,21.47287],[71.7984,21.47311],[71.79848,21.47344],[71.79856,21.47372],[71.79861,21.47389],[71.79864,21.474],[71.79853,21.4741],[71.79835,21.47417],[71.79824,21.47421],[71.79813,21.47433],[71.79823,21.47456],[71.79826,21.47474],[71.79827,21.47484],[71.79824,21.47489],[71.79817,21.4749],[71.79802,21.47489],[71.79787,21.47487],[71.79774,21.47483],[71.79767,21.47481],[71.7976,21.47478]]},"properties":{"id":1,"Name":"Track"}},
{"type":"Feature","geometry":{"type":"LineString","coordinates":[[71.7946,21.45765],[71.7946,21.45751],[71.79461,21.45739],[71.79463,21.45734],[71.79469,21.45728],[71.79482,21.45718],[71.79487,21.45712],[71.79486,21.457],[71.79487,21.45687],[71.79494,21.45662]]},"properties":{"id":1,"Name":"Track"}},
{"type":"Feature","geometry":{"type":"LineString","coordinates":[[71.79475,21.47974],[71.795,21.47989],[71.7951,21.48008],[71.79515,21.48028],[71.79519,21.48048],[71.79527,21.48065],[71.79534,21.48086],[71.79542,21.48098],[71.79569,21.48115],[71.79586,21.48129],[71.79597,21.48137],[71.79606,21.48148],[71.79616,21.48162]]},"properties":{"id":1,"Name":"Track"}}
]}