{"type":"FeatureCollection", "features": [
{"type":"Feature","geometry":{"type":"Polygon","coordinates":[[[71.72202,21.50165],[71.72192,21.50168],[71.7206,21.50203],[71.71974,21.50223],[71.71874,21.50253],[71.71806,21.50268],[71.71677,21.50277],[71.71615,21.50278],[71.71555,21.50278],[71.71481,21.50271],[71.71446,21.50274],[71.71399,21.50286],[71.7136,21.50305],[71.71283,21.50314],[71.7123,21.50321],[71.71171,21.50321],[71.71119,21.50326],[71.71059,21.50328],[71.70924,21.50333],[71.70786,21.50325],[71.70701,21.50313],[71.70635,21.50298],[71.70525,21.5029],[71.70495,21.50247],[71.70446,21.50175],[71.70369,21.50084],[71.70282,21.5003],[71.70201,21.49993],[71.70137,21.49964],[71.70077,21.49936],[71.70054,21.49923],[71.69907,21.49851],[71.69812,21.49818],[71.69818,21.49801],[71.69847,21.49704],[71.69865,21.49619],[71.69883,21.49549],[71.699,21.49492],[71.69906,21.49451],[71.69922,21.49383],[71.69937,21.49315],[71.69936,21.49283],[71.69959,21.49209],[71.69965,21.49172],[71.69976,21.49115],[71.69983,21.49025],[71.69996,21.48884],[71.7001,21.48808],[71.70016,21.48777],[71.70031,21.48694],[71.70038,21.48615],[71.70066,21.48521],[71.70082,21.484],[71.70088,21.48323],[71.70068,21.48221],[71.70061,21.48203],[71.70029,21.48051],[71.70021,21.4798],[71.69985,21.47749],[71.69944,21.47483],[71.69931,21.47395],[71.6983,21.47433],[71.69771,21.4742],[71.69792,21.47309],[71.69818,21.47194],[71.69839,21.4708],[71.69857,21.46999],[71.69879,21.46864],[71.699,21.46803],[71.69906,21.46729],[71.6991,21.46694],[71.69941,21.46576],[71.70063,21.46604],[71.70253,21.46638],[71.70321,21.46652],[71.70303,21.46734],[71.70293,21.46883],[71.70327,21.47033],[71.70452,21.47015],[71.70534,21.47074],[71.70662,21.47026],[71.70708,21.47007],[71.70776,21.46971],[71.70834,21.46941],[71.70904,21.46912],[71.70977,21.46876],[71.71109,21.46825],[71.71146,21.46814],[71.71219,21.46782],[71.71268,21.46743],[71.71325,21.46691],[71.71359,21.46689],[71.71417,21.46676],[71.71501,21.46646],[71.71611,21.46612],[71.71732,21.46587],[71.71766,21.46585],[71.71833,21.46574],[71.71976,21.46511],[71.72131,21.46418],[71.72353,21.46331],[71.72385,21.46321],[71.72492,21.463],[71.72569,21.46278],[71.72762,21.46231],[71.72776,21.46247],[71.72811,21.46268],[71.72875,21.46323],[71.72886,21.46361],[71.7292,21.46408],[71.72974,21.46441],[71.72973,21.46456],[71.72987,21.46477],[71.73015,21.46515],[71.73064,21.46508],[71.73118,21.46521],[71.73176,21.46531],[71.73245,21.46559],[71.73334,21.46577],[71.73449,21.46546],[71.73467,21.4657],[71.73568,21.46733],[71.73597,21.46743],[71.73605,21.46786],[71.73641,21.46825],[71.73782,21.46963],[71.73915,21.47106],[71.73938,21.47092],[71.73989,21.47146],[71.7394,21.47234],[71.73937,21.47294],[71.73888,21.47357],[71.73836,21.47443],[71.73847,21.47511],[71.73813,21.47607],[71.73728,21.47688],[71.73683,21.47757],[71.73627,21.47886],[71.73641,21.47977],[71.73649,21.48048],[71.73632,21.48165],[71.73623,21.48259],[71.73586,21.48265],[71.73562,21.48348],[71.73509,21.48433],[71.73474,21.48476],[71.73443,21.48546],[71.73439,21.48582],[71.73438,21.48607],[71.73439,21.48659],[71.73444,21.48706],[71.73371,21.48688],[71.73332,21.48667],[71.73274,21.48699],[71.73229,21.48696],[71.73156,21.48685],[71.73152,21.48697],[71.73142,21.48744],[71.7313,21.48807],[71.73124,21.4885],[71.73114,21.48905],[71.73102,21.4897],[71.73093,21.49014],[71.73058,21.49071],[71.73013,21.49157],[71.72993,21.49165],[71.72987,21.49176],[71.72948,21.49267],[71.72915,21.49328],[71.72895,21.49427],[71.72868,21.49493],[71.72851,21.49525],[71.7281,21.49588],[71.72785,21.49624],[71.72811,21.49647],[71.72759,21.49725],[71.72705,21.49813],[71.72658,21.49891],[71.72668,21.49914],[71.72655,21.49947],[71.72632,21.49995],[71.72586,21.50078],[71.72483,21.50054],[71.72474,21.50084],[71.72406,21.50102],[71.72341,21.50133],[71.72285,21.50144],[71.72228,21.50155],[71.72202,21.50165]]]},"properties":{"District":"Bhavnagar","Taluka":"Palitana","Village":"Dedarada","Dist_Id":"14","Taluka_Id":"14009","Village_Id":"140090101950000","S_Name":"Dedarada","Remark":null,"GUJ_NAM":"HL<,M o EFJGUZ","GUJ_NAM2":"TF,]SM o 5F,LTF6F","GUJ_NAM_1":"UFD o N[NZ0F","Popu_2001":"1733","Status":null,"BEAT":"Kanjarda","ROUND":"Palitana","RANGE":"Palitana","DIVISION":"Bhavnagar","CIRCLE":"Junagadh","VILL_TYPE":null,"FOREST_AR":null}},
{"type":"Feature","geometry":{"type":"Polygon","coordinates":[[[71.73489,21.48457],[71.73537,21.48504],[71.73568,21.4854],[71.73607,21.48592],[71.73626,21.48623],[71.73646,21.48677],[71.73664,21.48711],[71.73679,21.48736],[71.73731,21.48737],[71.73748,21.48748],[71.73758,21.48761],[71.73775,21.48793],[71.73793,21.48803],[71.73848,21.48825],[71.73915,21.48852],[71.73951,21.48878],[71.74035,21.48926],[71.74115,21.48981],[71.74214,21.49056],[71.74252,21.49079],[71.74315,21.49144],[71.74349,21.49187],[71.7438,21.49226],[71.74463,21.49337],[71.74504,21.49385],[71.74553,21.49441],[71.74574,21.4947],[71.74633,21.495],[71.74644,21.49513],[71.74702,21.49585],[71.74756,21.49655],[71.74778,21.49682],[71.74796,21.49733],[71.7486,21.49802],[71.74892,21.49846],[71.75008,21.49842],[71.75173,21.49836],[71.75209,21.49832],[71.75303,21.49832],[71.75444,21.49819],[71.75465,21.49762],[71.75496,21.49697],[71.75534,21.49613],[71.75546,21.49598],[71.75557,21.49584],[71.75611,21.49572],[71.75685,21.49523],[71.75782,21.49488],[71.75842,21.49487],[71.75893,21.49576],[71.7593,21.49641],[71.75997,21.49722],[71.76036,21.49784],[71.76002,21.49852],[71.75987,21.49914],[71.7596,21.49989],[71.75949,21.50031],[71.75935,21.50072],[71.7591,21.50126],[71.75878,21.50193],[71.7579,21.50226],[71.75753,21.50242],[71.75657,21.50276],[71.75516,21.50336],[71.75407,21.50291],[71.75262,21.50221],[71.75219,21.50202],[71.75164,21.50142],[71.75083,21.50052],[71.74994,21.49968],[71.74912,21.49886],[71.74886,21.4993],[71.74827,21.49898],[71.7481,21.49914],[71.7479,21.49912],[71.74743,21.49901],[71.74704,21.49993],[71.74679,21.50051],[71.74691,21.5007],[71.74657,21.50187],[71.74633,21.50249],[71.74604,21.50334],[71.74624,21.50342],[71.74603,21.50413],[71.74576,21.50569],[71.74561,21.50688],[71.74527,21.50716],[71.74483,21.5076],[71.74399,21.5078],[71.74424,21.50815],[71.74494,21.50856],[71.74586,21.50893],[71.7462,21.50919],[71.74633,21.50985],[71.74687,21.51057],[71.74742,21.51085],[71.74792,21.51218],[71.74796,21.5128],[71.74806,21.51306],[71.74858,21.51368],[71.74912,21.51432],[71.74963,21.51436],[71.75003,21.5141],[71.75042,21.51418],[71.75109,21.51445],[71.75202,21.51576],[71.75229,21.5162],[71.75258,21.51765],[71.75267,21.51778],[71.75327,21.51789],[71.75389,21.51786],[71.75424,21.51807],[71.75513,21.51862],[71.75578,21.51892],[71.75578,21.51912],[71.75582,21.51921],[71.7534,21.51945],[71.75165,21.5195],[71.75108,21.51941],[71.75027,21.51935],[71.74985,21.51941],[71.74848,21.51946],[71.74714,21.51948],[71.74629,21.51944],[71.74394,21.51962],[71.74283,21.51964],[71.74112,21.51965],[71.74057,21.51961],[71.73961,21.5196],[71.73854,21.51963],[71.73756,21.51974],[71.73664,21.51976],[71.7363,21.51971],[71.73536,21.5197],[71.73445,21.51956],[71.73317,21.51941],[71.73206,21.51927],[71.73203,21.5192],[71.7322,21.51844],[71.73229,21.518],[71.73248,21.51738],[71.73254,21.51707],[71.73207,21.51686],[71.73169,21.51668],[71.73079,21.51615],[71.72974,21.51572],[71.7283,21.51513],[71.7284,21.5142],[71.72841,21.51376],[71.72819,21.51277],[71.72804,21.51212],[71.728,21.51132],[71.728,21.50966],[71.72793,21.50843],[71.72789,21.5077],[71.72793,21.50696],[71.72808,21.50624],[71.72815,21.50558],[71.72638,21.50555],[71.72642,21.50509],[71.72647,21.50474],[71.72657,21.50402],[71.72531,21.50362],[71.724,21.50328],[71.72413,21.50264],[71.72308,21.50247],[71.72189,21.50234],[71.72202,21.50165],[71.72228,21.50155],[71.72285,21.50144],[71.72341,21.50133],[71.72406,21.50102],[71.72474,21.50084],[71.72483,21.50054],[71.72586,21.50078],[71.72632,21.49995],[71.72655,21.49947],[71.72668,21.49914],[71.72658,21.49891],[71.72705,21.49813],[71.72759,21.49725],[71.72811,21.49647],[71.72785,21.49624],[71.7281,21.49588],[71.72851,21.49525],[71.72868,21.49493],[71.72895,21.49427],[71.72915,21.49328],[71.72948,21.49267],[71.72987,21.49176],[71.72993,21.49165],[71.73013,21.49157],[71.73058,21.49071],[71.73093,21.49014],[71.73102,21.4897],[71.73114,21.48905],[71.73124,21.4885],[71.7313,21.48807],[71.73142,21.48744],[71.73152,21.48697],[71.73156,21.48685],[71.73229,21.48696],[71.73274,21.48699],[71.73332,21.48667],[71.73371,21.48688],[71.73444,21.48706],[71.73439,21.48659],[71.73438,21.48607],[71.73439,21.48582],[71.73443,21.48546],[71.73474,21.48476],[71.73486,21.48461],[71.73489,21.48457]]]},"properties":{"District":"Bhavnagar","Taluka":"Palitana","Village":"Nanimal","Dist_Id":"14","Taluka_Id":"14009","Village_Id":"140090101850000","S_Name":"Nanimal","Remark":null,"GUJ_NAM":"HL<,M o EFJGUZ","GUJ_NAM2":"TF,]SM o 5F,LTF6F","GUJ_NAM_1":"UFD o GFGLDF/","Popu_2001":"1812","Status":null,"BEAT":"Adpur","ROUND":"Palitana","RANGE":"Palitana","DIVISION":"Bhavnagar","CIRCLE":"Junagadh","VILL_TYPE":null,"FOREST_AR":null}},
{"type":"Feature","geometry":{"type":"Polygon","coordinates":[[[71.75842,21.49487],[71.75819,21.49454],[71.75815,21.49392],[71.758,21.49325],[71.75791,21.49244],[71.7577,21.49071],[71.75759,21.48971],[71.75746,21.48881],[71.75743,21.4882],[71.75725,21.48697],[71.75724,21.48657],[71.75732,21.48614],[71.75793,21.48619],[71.75947,21.48699],[71.76091,21.48783],[71.76101,21.48785],[71.76128,21.48817],[71.76145,21.48831],[71.76189,21.48852],[71.76186,21.48868],[71.76225,21.48876],[71.76269,21.48897],[71.76284,21.48933],[71.76312,21.48925],[71.76328,21.48942],[71.76355,21.48937],[71.76364,21.48971],[71.76399,21.48992],[71.76431,21.49008],[71.7643,21.49033],[71.76442,21.4905],[71.76477,21.49041],[71.76484,21.49044],[71.76489,21.49069],[71.76532,21.49073],[71.76577,21.49118],[71.76639,21.49191],[71.76715,21.49213],[71.7678,21.49227],[71.76799,21.49251],[71.76789,21.49297],[71.76786,21.4933],[71.76826,21.49334],[71.76804,21.4936],[71.7683,21.49368],[71.76831,21.49392],[71.76862,21.49401],[71.76841,21.49416],[71.76866,21.49459],[71.7681,21.49458],[71.76796,21.49436],[71.76781,21.49433],[71.76781,21.4947],[71.76751,21.49473],[71.76762,21.49494],[71.76777,21.49504],[71.76854,21.49598],[71.76838,21.49625],[71.76841,21.49648],[71.76847,21.49656],[71.76864,21.49655],[71.76901,21.49676],[71.76905,21.49726],[71.76908,21.49768],[71.76909,21.49797],[71.76908,21.49817],[71.76919,21.49836],[71.76944,21.4985],[71.7695,21.49868],[71.76969,21.49884],[71.76978,21.49884],[71.76973,21.4993],[71.76995,21.49953],[71.77005,21.49976],[71.77041,21.49977],[71.77042,21.4992],[71.77076,21.49925],[71.77157,21.49925],[71.77165,21.49845],[71.77169,21.49794],[71.7714,21.49781],[71.77152,21.49751],[71.77181,21.49742],[71.77184,21.49706],[71.77204,21.49701],[71.772,21.49661],[71.77278,21.49674],[71.77303,21.49673],[71.77316,21.49717],[71.77327,21.4974],[71.77348,21.49761],[71.77371,21.49783],[71.7737,21.49807],[71.77345,21.49831],[71.77317,21.49852],[71.7729,21.49861],[71.77278,21.49896],[71.77342,21.499],[71.77428,21.49921],[71.7755,21.49942],[71.7754,21.50015],[71.77543,21.50054],[71.77535,21.50132],[71.77523,21.50197],[71.77516,21.50227],[71.77499,21.50286],[71.77483,21.5036],[71.77473,21.50391],[71.77467,21.50423],[71.77451,21.5048],[71.77581,21.50489],[71.77712,21.50497],[71.77673,21.50425],[71.77716,21.50372],[71.77735,21.50373],[71.77772,21.50379],[71.77951,21.50438],[71.77998,21.50446],[71.77996,21.50508],[71.78107,21.50518],[71.78131,21.5052],[71.78183,21.50525],[71.78242,21.50553],[71.78238,21.50581],[71.78333,21.50579],[71.78405,21.50597],[71.78457,21.50613],[71.78523,21.50627],[71.78554,21.50633],[71.78556,21.5065],[71.78542,21.50682],[71.78576,21.50714],[71.78604,21.50734],[71.78645,21.50737],[71.7867,21.5073],[71.78723,21.5072],[71.78744,21.50745],[71.78783,21.50782],[71.78834,21.50867],[71.78852,21.50911],[71.78862,21.50921],[71.78883,21.5093],[71.78908,21.50999],[71.78932,21.51018],[71.78983,21.5105],[71.79014,21.51073],[71.79122,21.51162],[71.79145,21.51192],[71.79135,21.51215],[71.79137,21.51229],[71.79134,21.5126],[71.79143,21.51336],[71.79211,21.51402],[71.79215,21.51416],[71.79229,21.51455],[71.79133,21.51446],[71.79126,21.51467],[71.7912,21.51533],[71.79108,21.51571],[71.79097,21.51635],[71.79174,21.51655],[71.79243,21.51701],[71.79237,21.51734],[71.79237,21.51752],[71.79224,21.51792],[71.79208,21.51813],[71.79197,21.51846],[71.79177,21.51941],[71.79175,21.51964],[71.79178,21.51975],[71.79195,21.51984],[71.79202,21.51996],[71.79211,21.52032],[71.79311,21.52102],[71.79281,21.52197],[71.79311,21.52203],[71.79312,21.52191],[71.7939,21.52209],[71.79418,21.52235],[71.79444,21.52252],[71.79449,21.52268],[71.79461,21.523],[71.79413,21.52317],[71.79282,21.52279],[71.79232,21.5227],[71.79219,21.52265],[71.79184,21.52258],[71.79186,21.52316],[71.7919,21.52403],[71.79193,21.52424],[71.79203,21.52478],[71.79201,21.52554],[71.79198,21.5258],[71.79198,21.52609],[71.792,21.52666],[71.79197,21.52715],[71.79202,21.52755],[71.79208,21.52781],[71.7921,21.52858],[71.79222,21.52951],[71.79228,21.53006],[71.79239,21.5306],[71.79243,21.53128],[71.79254,21.53215],[71.79249,21.53229],[71.79164,21.5323],[71.791,21.53238],[71.79025,21.53227],[71.78948,21.53235],[71.78889,21.53236],[71.78866,21.53237],[71.78882,21.53346],[71.78805,21.53367],[71.78772,21.53371],[71.78724,21.53402],[71.78637,21.53432],[71.78563,21.53451],[71.78501,21.53489],[71.78435,21.53529],[71.78373,21.53566],[71.78356,21.53584],[71.78357,21.53651],[71.78355,21.53728],[71.78323,21.53728],[71.78266,21.5373],[71.78246,21.53787],[71.7824,21.53846],[71.78225,21.53849],[71.78211,21.53889],[71.7819,21.53967],[71.7817,21.54026],[71.78132,21.54136],[71.78126,21.5414],[71.78173,21.54182],[71.78201,21.54227],[71.78221,21.54265],[71.78238,21.54331],[71.78214,21.54331],[71.78169,21.54336],[71.78141,21.54354],[71.78123,21.54386],[71.7812,21.54403],[71.78132,21.54468],[71.78101,21.54489],[71.78023,21.54552],[71.78043,21.54603],[71.78098,21.54622],[71.78023,21.54621],[71.7786,21.54603],[71.77781,21.54595],[71.7763,21.54589],[71.77517,21.54589],[71.77459,21.54588],[71.77239,21.54565],[71.77128,21.54545],[71.77159,21.54383],[71.77168,21.54328],[71.77185,21.5433],[71.77192,21.54266],[71.7712,21.54256],[71.7712,21.54223],[71.77099,21.5421],[71.77073,21.54194],[71.7696,21.54076],[71.76796,21.53914],[71.76753,21.54058],[71.7672,21.54053],[71.76719,21.5402],[71.76697,21.54013],[71.76742,21.53882],[71.76698,21.53872],[71.76715,21.53815],[71.76619,21.53706],[71.76513,21.53588],[71.765,21.5361],[71.76343,21.53568],[71.76201,21.53531],[71.75998,21.53478],[71.75884,21.53454],[71.75719,21.5342],[71.75698,21.53421],[71.75605,21.53402],[71.75537,21.5339],[71.75518,21.53385],[71.75502,21.53484],[71.75495,21.53521],[71.7547,21.53559],[71.75451,21.53573],[71.75435,21.53585],[71.75427,21.53605],[71.75416,21.53623],[71.75344,21.53603],[71.75235,21.53579],[71.75136,21.53553],[71.7506,21.53533],[71.75003,21.53702],[71.7497,21.53808],[71.74934,21.53955],[71.74924,21.54018],[71.74893,21.54014],[71.74878,21.54084],[71.74857,21.54167],[71.74847,21.5422],[71.74843,21.54225],[71.74807,21.5429],[71.74793,21.54328],[71.74688,21.54529],[71.74679,21.54605],[71.74668,21.54701],[71.74595,21.54692],[71.74604,21.54657],[71.7463,21.54499],[71.74643,21.54415],[71.7467,21.54221],[71.74676,21.54178],[71.74557,21.54132],[71.74456,21.54092],[71.7435,21.54029],[71.74205,21.53942],[71.74138,21.53857],[71.74115,21.5383],[71.74073,21.53804],[71.73932,21.53703],[71.73874,21.53657],[71.73733,21.53551],[71.73686,21.53514],[71.73641,21.53491],[71.73573,21.53448],[71.73518,21.53382],[71.73405,21.53227],[71.73375,21.53153],[71.73265,21.53],[71.73261,21.52955],[71.73201,21.52841],[71.73177,21.52729],[71.73167,21.52672],[71.73187,21.52585],[71.73242,21.52581],[71.73253,21.52547],[71.73282,21.52549],[71.73289,21.52534],[71.73392,21.52546],[71.73514,21.52558],[71.73538,21.52463],[71.73566,21.52311],[71.73579,21.52249],[71.73593,21.5219],[71.73611,21.52096],[71.73627,21.51996],[71.7363,21.51971],[71.73664,21.51976],[71.73756,21.51974],[71.73854,21.51963],[71.73961,21.5196],[71.74057,21.51961],[71.74112,21.51965],[71.74283,21.51964],[71.74394,21.51962],[71.74629,21.51944],[71.74714,21.51948],[71.74848,21.51946],[71.74985,21.51941],[71.75027,21.51935],[71.75108,21.51941],[71.75165,21.5195],[71.7534,21.51945],[71.75582,21.51921],[71.75578,21.51912],[71.75578,21.51892],[71.75513,21.51862],[71.75424,21.51807],[71.75389,21.51786],[71.75327,21.51789],[71.75267,21.51778],[71.75258,21.51765],[71.75229,21.5162],[71.75202,21.51576],[71.75109,21.51445],[71.75042,21.51418],[71.75003,21.5141],[71.74963,21.51436],[71.74912,21.51432],[71.74858,21.51368],[71.74806,21.51306],[71.74796,21.5128],[71.74792,21.51218],[71.74742,21.51085],[71.74687,21.51057],[71.74633,21.50985],[71.7462,21.50919],[71.74586,21.50893],[71.74494,21.50856],[71.74424,21.50815],[71.74399,21.5078],[71.74483,21.5076],[71.74527,21.50716],[71.74561,21.50688],[71.74576,21.50569],[71.74603,21.50413],[71.74624,21.50342],[71.74604,21.50334],[71.74633,21.50249],[71.74657,21.50187],[71.74691,21.5007],[71.74679,21.50051],[71.74704,21.49993],[71.74743,21.49901],[71.7479,21.49912],[71.7481,21.49914],[71.74827,21.49898],[71.74886,21.4993],[71.74912,21.49886],[71.74994,21.49968],[71.75083,21.50052],[71.75164,21.50142],[71.75219,21.50202],[71.75262,21.50221],[71.75407,21.50291],[71.75516,21.50336],[71.75657,21.50276],[71.75753,21.50242],[71.7579,21.50226],[71.75878,21.50193],[71.7591,21.50126],[71.75935,21.50072],[71.75949,21.50031],[71.7596,21.49989],[71.75987,21.49914],[71.76002,21.49852],[71.76036,21.49784],[71.75997,21.49722],[71.7593,21.49641],[71.75893,21.49576],[71.75845,21.49492],[71.75842,21.49487]]]},"properties":{"District":"Bhavnagar","Taluka":"Palitana","Village":"Gheti","Dist_Id":"14","Taluka_Id":"14009","Village_Id":"140090101830000","S_Name":"Gheti","Remark":null,"GUJ_NAM":"HL<,M o EFJGUZ","GUJ_NAM2":"TF,]SM o 5F,LTF6F","GUJ_NAM_1":"UFD o 3[8L","Popu_2001":"6300","Status":null,"BEAT":"Adpur","ROUND":"Palitana","RANGE":"Palitana","DIVISION":"Bhavnagar","CIRCLE":"Junagadh","VILL_TYPE":null,"FOREST_AR":null}},
{"type":"Feature","geometry":{"type":"Polygon","coordinates":[[[71.73989,21.47146],[71.73984,21.47141],[71.73938,21.47092],[71.73915,21.47106],[71.73782,21.46963],[71.73641,21.46825],[71.73605,21.46786],[71.73597,21.46743],[71.73568,21.46733],[71.73467,21.4657],[71.73449,21.46546],[71.73334,21.46577],[71.73245,21.46559],[71.73176,21.46531],[71.73118,21.46521],[71.73064,21.46508],[71.73015,21.46515],[71.72987,21.46477],[71.72973,21.46456],[71.72974,21.46441],[71.7292,21.46408],[71.72886,21.46361],[71.72875,21.46323],[71.72811,21.46268],[71.72776,21.46247],[71.72762,21.46231],[71.72779,21.46171],[71.72789,21.46155],[71.72789,21.46137],[71.72791,21.46067],[71.72803,21.45949],[71.7281,21.45862],[71.72815,21.45789],[71.72823,21.45698],[71.72827,21.45669],[71.72835,21.45593],[71.72834,21.45567],[71.72839,21.45473],[71.72846,21.45389],[71.72854,21.45302],[71.72851,21.45292],[71.7286,21.45223],[71.72868,21.45136],[71.72871,21.45058],[71.72871,21.45036],[71.72874,21.45003],[71.72884,21.44919],[71.72893,21.4483],[71.72896,21.44776],[71.72902,21.44704],[71.72908,21.4463],[71.72927,21.44558],[71.72932,21.44549],[71.72933,21.44461],[71.72966,21.44435],[71.72982,21.44391],[71.73008,21.44309],[71.7309,21.44219],[71.73171,21.44128],[71.73215,21.44086],[71.73322,21.43957],[71.73359,21.43926],[71.73376,21.43903],[71.73465,21.43782],[71.73523,21.43699],[71.73571,21.43614],[71.73606,21.43551],[71.73686,21.43472],[71.73718,21.43419],[71.7374,21.43372],[71.73795,21.4336],[71.73918,21.43291],[71.73989,21.43236],[71.74054,21.43208],[71.74144,21.43173],[71.74233,21.43133],[71.74262,21.43128],[71.74343,21.43106],[71.74391,21.43176],[71.74406,21.43249],[71.74447,21.43344],[71.74484,21.43372],[71.74533,21.43385],[71.74602,21.43406],[71.74708,21.43424],[71.7473,21.43438],[71.74813,21.43502],[71.74831,21.43523],[71.74865,21.43516],[71.74973,21.43504],[71.75161,21.43502],[71.75195,21.43502],[71.75331,21.43534],[71.75377,21.43537],[71.75488,21.43543],[71.75617,21.43557],[71.75666,21.43558],[71.75757,21.43548],[71.75959,21.4355],[71.76049,21.43535],[71.76144,21.43556],[71.76257,21.43548],[71.76347,21.43548],[71.76383,21.4355],[71.76429,21.43557],[71.76476,21.43557],[71.7658,21.43555],[71.76662,21.43546],[71.76732,21.4354],[71.76789,21.43541],[71.76866,21.43563],[71.76921,21.43571],[71.77067,21.43578],[71.77168,21.43592],[71.77169,21.43674],[71.77175,21.43679],[71.77333,21.43704],[71.77467,21.43701],[71.77665,21.43687],[71.77734,21.4372],[71.77762,21.43744],[71.77792,21.43755],[71.77879,21.4379],[71.77873,21.43855],[71.77861,21.43885],[71.77841,21.43896],[71.77757,21.43882],[71.77726,21.43878],[71.77703,21.4388],[71.77694,21.43896],[71.777,21.43919],[71.77698,21.43941],[71.77686,21.43954],[71.77665,21.43957],[71.77661,21.43964],[71.77675,21.43975],[71.777,21.43991],[71.77704,21.44009],[71.77678,21.44025],[71.77661,21.44029],[71.77622,21.44033],[71.77558,21.44058],[71.77528,21.44053],[71.77483,21.44045],[71.77473,21.44027],[71.77473,21.44003],[71.77497,21.4399],[71.77515,21.43946],[71.77466,21.43948],[71.77448,21.43953],[71.77432,21.43966],[71.7742,21.43993],[71.77416,21.44018],[71.77436,21.4404],[71.77417,21.44059],[71.7735,21.44063],[71.77321,21.44064],[71.77288,21.44075],[71.77282,21.44088],[71.77266,21.44119],[71.77241,21.44132],[71.77221,21.44134],[71.7721,21.44124],[71.77208,21.441],[71.77218,21.44087],[71.77226,21.44077],[71.77224,21.44066],[71.77202,21.44062],[71.77124,21.44055],[71.77043,21.44054],[71.77001,21.44056],[71.76963,21.44066],[71.76951,21.44093],[71.76951,21.44118],[71.76927,21.44131],[71.76898,21.44105],[71.7688,21.44076],[71.7686,21.44073],[71.76811,21.4409],[71.76772,21.44124],[71.76714,21.44178],[71.7669,21.44186],[71.76639,21.44214],[71.76605,21.44212],[71.76567,21.44196],[71.76508,21.4418],[71.76481,21.44218],[71.76399,21.44341],[71.76359,21.44411],[71.76317,21.445],[71.76316,21.44554],[71.76299,21.44598],[71.76253,21.44636],[71.7617,21.44655],[71.76041,21.44728],[71.76035,21.44792],[71.76079,21.44874],[71.7607,21.44931],[71.7601,21.4498],[71.75951,21.45012],[71.75848,21.45055],[71.7582,21.45087],[71.75791,21.45117],[71.75739,21.45134],[71.75659,21.45163],[71.7566,21.45184],[71.75667,21.45244],[71.75665,21.45259],[71.75633,21.45291],[71.75618,21.45305],[71.75585,21.45326],[71.75538,21.45349],[71.75523,21.45361],[71.75492,21.45424],[71.75447,21.45435],[71.75392,21.45492],[71.75342,21.45534],[71.75342,21.45569],[71.75357,21.45725],[71.75352,21.45776],[71.75425,21.4586],[71.754,21.45919],[71.75384,21.45985],[71.7537,21.46016],[71.75362,21.46068],[71.75357,21.46102],[71.7537,21.46119],[71.75368,21.4617],[71.7537,21.46218],[71.75377,21.46314],[71.75365,21.46329],[71.75314,21.46399],[71.75252,21.46448],[71.75259,21.46479],[71.7528,21.4651],[71.75296,21.46549],[71.75313,21.46566],[71.75353,21.46576],[71.75488,21.46741],[71.75557,21.46792],[71.75588,21.46904],[71.75416,21.46969],[71.75228,21.46983],[71.75015,21.46965],[71.7483,21.46949],[71.74754,21.469],[71.74703,21.46904],[71.74452,21.46916],[71.74113,21.46989],[71.74015,21.47101],[71.73989,21.47146]]]},"properties":{"District":"Bhavnagar","Taluka":"Palitana","Village":"JaliyaAmaraji","Dist_Id":"14","Taluka_Id":"14009","Village_Id":"140090101970000","S_Name":"Jaliya(Amaraji)","Remark":null,"GUJ_NAM":"HL<,M o EFJGUZ","GUJ_NAM2":"TF,]SM o 5F,LTF6F","GUJ_NAM_1":"UFD o HF/LIF sVDZFHLf","Popu_2001":"2022","Status":null,"BEAT":"Kanjarda","ROUND":"Palitana","RANGE":"Palitana","DIVISION":"Bhavnagar","CIRCLE":"Junagadh","VILL_TYPE":null,"FOREST_AR":null}},
{"type":"Feature","geometry":{"type":"Polygon","coordinates":[[[71.76128,21.48817],[71.7617,21.48764],[71.76177,21.48713],[71.76203,21.48709],[71.76188,21.48685],[71.76216,21.48681],[71.7624,21.48646],[71.76268,21.48625],[71.76306,21.48606],[71.76314,21.48575],[71.76309,21.48549],[71.76419,21.48439],[71.76486,21.48379],[71.76608,21.4826],[71.76688,21.48187],[71.76743,21.48142],[71.76821,21.48071],[71.76953,21.47959],[71.76996,21.47925],[71.77034,21.47893],[71.77114,21.47835],[71.77184,21.47773],[71.77267,21.47708],[71.77407,21.476],[71.77529,21.47643],[71.77614,21.47672],[71.77752,21.47715],[71.77864,21.4776],[71.77944,21.47787],[71.78053,21.47815],[71.78243,21.47883],[71.78433,21.47946],[71.7851,21.47973],[71.78457,21.48027],[71.78388,21.48094],[71.78331,21.4816],[71.78354,21.48276],[71.78369,21.48304],[71.78356,21.4835],[71.78336,21.48372],[71.78315,21.48387],[71.783,21.48413],[71.78278,21.48417],[71.78233,21.48434],[71.78224,21.48486],[71.78242,21.48546],[71.7826,21.48595],[71.78268,21.48663],[71.78259,21.4874],[71.78259,21.48767],[71.78262,21.488],[71.78275,21.48903],[71.78359,21.4903],[71.78445,21.49166],[71.78454,21.4917],[71.78495,21.49186],[71.78522,21.49192],[71.78541,21.49204],[71.78569,21.49199],[71.78637,21.49263],[71.78723,21.49316],[71.78859,21.49445],[71.78884,21.49402],[71.78976,21.49384],[71.78987,21.49386],[71.7904,21.49376],[71.79066,21.49405],[71.79073,21.49475],[71.79076,21.49501],[71.79063,21.49612],[71.79069,21.49628],[71.79044,21.49633],[71.79026,21.49672],[71.79006,21.49711],[71.78956,21.49756],[71.78916,21.49776],[71.78896,21.49792],[71.78911,21.49804],[71.7889,21.49858],[71.78875,21.49889],[71.7888,21.49933],[71.78938,21.49992],[71.78966,21.50019],[71.78961,21.50043],[71.78971,21.50073],[71.78986,21.50128],[71.78976,21.50149],[71.78901,21.50126],[71.78838,21.50118],[71.78815,21.50117],[71.7872,21.50226],[71.78683,21.50266],[71.78625,21.50319],[71.78571,21.50411],[71.78633,21.50509],[71.78667,21.50563],[71.78685,21.50589],[71.78737,21.50638],[71.78813,21.50646],[71.78812,21.50659],[71.78826,21.50665],[71.78808,21.50697],[71.78796,21.50739],[71.78783,21.50782],[71.78744,21.50745],[71.78723,21.5072],[71.7867,21.5073],[71.78645,21.50737],[71.78604,21.50734],[71.78576,21.50714],[71.78542,21.50682],[71.78556,21.5065],[71.78554,21.50633],[71.78523,21.50627],[71.78457,21.50613],[71.78405,21.50597],[71.78333,21.50579],[71.78238,21.50581],[71.78242,21.50553],[71.78183,21.50525],[71.78131,21.5052],[71.78107,21.50518],[71.77996,21.50508],[71.77998,21.50446],[71.77951,21.50438],[71.77772,21.50379],[71.77735,21.50373],[71.77716,21.50372],[71.77673,21.50425],[71.77712,21.50497],[71.77581,21.50489],[71.77451,21.5048],[71.77467,21.50423],[71.77473,21.50391],[71.77483,21.5036],[71.77499,21.50286],[71.77516,21.50227],[71.77523,21.50197],[71.77535,21.50132],[71.77543,21.50054],[71.7754,21.50015],[71.7755,21.49942],[71.77428,21.49921],[71.77342,21.499],[71.77278,21.49896],[71.7729,21.49861],[71.77317,21.49852],[71.77345,21.49831],[71.7737,21.49807],[71.77371,21.49783],[71.77348,21.49761],[71.77327,21.4974],[71.77316,21.49717],[71.77303,21.49673],[71.77278,21.49674],[71.772,21.49661],[71.77204,21.49701],[71.77184,21.49706],[71.77181,21.49742],[71.77152,21.49751],[71.7714,21.49781],[71.77169,21.49794],[71.77165,21.49845],[71.77157,21.49925],[71.77076,21.49925],[71.77042,21.4992],[71.77041,21.49977],[71.77005,21.49976],[71.76995,21.49953],[71.76973,21.4993],[71.76978,21.49884],[71.76969,21.49884],[71.7695,21.49868],[71.76944,21.4985],[71.76919,21.49836],[71.76908,21.49817],[71.76909,21.49797],[71.76908,21.49768],[71.76905,21.49726],[71.76901,21.49676],[71.76864,21.49655],[71.76847,21.49656],[71.76841,21.49648],[71.76838,21.49625],[71.76854,21.49598],[71.76777,21.49504],[71.76762,21.49494],[71.76751,21.49473],[71.76781,21.4947],[71.76781,21.49433],[71.76796,21.49436],[71.7681,21.49458],[71.76866,21.49459],[71.76841,21.49416],[71.76862,21.49401],[71.76831,21.49392],[71.7683,21.49368],[71.76804,21.4936],[71.76826,21.49334],[71.76786,21.4933],[71.76789,21.49297],[71.76799,21.49251],[71.7678,21.49227],[71.76715,21.49213],[71.76639,21.49191],[71.76577,21.49118],[71.76532,21.49073],[71.76489,21.49069],[71.76484,21.49044],[71.76477,21.49041],[71.76442,21.4905],[71.7643,21.49033],[71.76431,21.49008],[71.76399,21.48992],[71.76364,21.48971],[71.76355,21.48937],[71.76328,21.48942],[71.76312,21.48925],[71.76284,21.48933],[71.76269,21.48897],[71.76225,21.48876],[71.76186,21.48868],[71.76189,21.48852],[71.76145,21.48831],[71.76133,21.48821],[71.76128,21.48817]]]},"properties":{"District":"Bhavnagar","Taluka":"Palitana","Village":"Adapar","Dist_Id":"14","Taluka_Id":"14009","Village_Id":"140090101860000","S_Name":"Adapur","Remark":null,"GUJ_NAM":"HL<,M o EFJGUZ","GUJ_NAM2":"TF,]SM o 5F,LTF6F","GUJ_NAM_1":"UFD o VFN5Z","Popu_2001":"2084","Status":null,"BEAT":"Adpur","ROUND":"Palitana","RANGE":"Palitana","DIVISION":"Bhavnagar","CIRCLE":"Junagadh","VILL_TYPE":null,"FOREST_AR":null}},
{"type":"Feature","geometry":{"type":"Polygon","coordinates":[[[71.82042,21.4747],[71.8202,21.47467],[71.82027,21.47483],[71.81931,21.47528],[71.81901,21.47548],[71.81899,21.47615],[71.81863,21.4765],[71.81839,21.4766],[71.81783,21.47596],[71.81754,21.4754],[71.81688,21.47447],[71.81642,21.47386],[71.8157,21.47283],[71.81498,21.47177],[71.81449,21.47101],[71.81416,21.4704],[71.8137,21.46963],[71.81346,21.46934],[71.8127,21.46813],[71.81222,21.4676],[71.81194,21.46721],[71.81089,21.46689],[71.81003,21.46658],[71.80899,21.46674],[71.8076,21.46722],[71.80707,21.46491],[71.80695,21.46428],[71.807,21.46343],[71.80704,21.46316],[71.80697,21.46302],[71.80617,21.46169],[71.80573,21.46077],[71.80547,21.46032],[71.80506,21.45952],[71.80432,21.45888],[71.80486,21.45831],[71.80504,21.4582],[71.80526,21.45808],[71.80575,21.45809],[71.80605,21.45802],[71.80703,21.45796],[71.80734,21.45794],[71.80796,21.45762],[71.80858,21.45733],[71.80963,21.45651],[71.81049,21.45584],[71.81148,21.45492],[71.8123,21.45427],[71.81312,21.45359],[71.81799,21.45766],[71.81966,21.45914],[71.82098,21.45972],[71.82405,21.46035],[71.82385,21.46127],[71.82349,21.46311],[71.82341,21.46331],[71.82321,21.46334],[71.82274,21.46337],[71.82231,21.46361],[71.82222,21.46385],[71.82235,21.46412],[71.8227,21.46428],[71.82294,21.4642],[71.82336,21.46396],[71.82369,21.46391],[71.82381,21.46421],[71.82378,21.46449],[71.82355,21.46523],[71.82333,21.46601],[71.82326,21.46672],[71.82328,21.46777],[71.82364,21.46843],[71.82354,21.46867],[71.8232,21.46893],[71.8224,21.46918],[71.82187,21.46963],[71.82166,21.46991],[71.82174,21.47035],[71.82183,21.47073],[71.8218,21.47097],[71.82148,21.47134],[71.8213,21.47153],[71.82159,21.47217],[71.82172,21.47242],[71.82188,21.47269],[71.82176,21.47279],[71.82151,21.47273],[71.82118,21.47291],[71.8211,21.4731],[71.82138,21.47408],[71.82162,21.4746],[71.82092,21.47465],[71.82042,21.4747]]]},"properties":{"District":"Bhavnagar","Taluka":"Palitana","Village":"Dungarpur","Dist_Id":"14","Taluka_Id":"14009","Village_Id":"140090102000000","S_Name":"Dungarpur","Remark":null,"GUJ_NAM":"HL<,M o EFJGUZ","GUJ_NAM2":"TF,]SM o 5F,LTF6F","GUJ_NAM_1":"UFD o 0]\\UZ5]Z","Popu_2001":"1350","Status":null,"BEAT":"Jivapur","ROUND":"Palitana","RANGE":"Palitana","DIVISION":"Bhavnagar","CIRCLE":"Junagadh","VILL_TYPE":null,"FOREST_AR":null}},
{"type":"Feature","geometry":{"type":"Polygon","coordinates":[[[71.75588,21.46904],[71.75611,21.46898],[71.75706,21.46952],[71.75765,21.46995],[71.7581,21.47038],[71.75857,21.47115],[71.75919,21.4719],[71.7596,21.47221],[71.75986,21.47461],[71.75996,21.47638],[71.75951,21.47723],[71.7589,21.47908],[71.75846,21.4802],[71.75809,21.48158],[71.75832,21.48184],[71.75837,21.48227],[71.75851,21.48249],[71.75876,21.48389],[71.75847,21.48451],[71.75818,21.48477],[71.75815,21.48506],[71.7577,21.48569],[71.75732,21.486],[71.75732,21.48614],[71.75724,21.48657],[71.75725,21.48697],[71.75743,21.4882],[71.75746,21.48881],[71.75759,21.48971],[71.7577,21.49071],[71.75791,21.49244],[71.758,21.49325],[71.75815,21.49392],[71.75819,21.49454],[71.75842,21.49487],[71.75782,21.49488],[71.75685,21.49523],[71.75611,21.49572],[71.75557,21.49584],[71.75546,21.49598],[71.75534,21.49613],[71.75496,21.49697],[71.75465,21.49762],[71.75444,21.49819],[71.75303,21.49832],[71.75209,21.49832],[71.75173,21.49836],[71.75008,21.49842],[71.74892,21.49846],[71.7486,21.49802],[71.74796,21.49733],[71.74778,21.49682],[71.74756,21.49655],[71.74702,21.49585],[71.74644,21.49513],[71.74633,21.495],[71.74574,21.4947],[71.74553,21.49441],[71.74504,21.49385],[71.74463,21.49337],[71.7438,21.49226],[71.74349,21.49187],[71.74315,21.49144],[71.74252,21.49079],[71.74214,21.49056],[71.74115,21.48981],[71.74035,21.48926],[71.73951,21.48878],[71.73915,21.48852],[71.73848,21.48825],[71.73793,21.48803],[71.73775,21.48793],[71.73758,21.48761],[71.73748,21.48748],[71.73731,21.48737],[71.73679,21.48736],[71.73664,21.48711],[71.73646,21.48677],[71.73626,21.48623],[71.73607,21.48592],[71.73568,21.4854],[71.73537,21.48504],[71.73489,21.48457],[71.73509,21.48433],[71.73562,21.48348],[71.73586,21.48265],[71.73623,21.48259],[71.73632,21.48165],[71.73649,21.48048],[71.73641,21.47977],[71.73627,21.47886],[71.73683,21.47757],[71.73728,21.47688],[71.73813,21.47607],[71.73847,21.47511],[71.73836,21.47443],[71.73888,21.47357],[71.73937,21.47294],[71.7394,21.47234],[71.73989,21.47146],[71.74015,21.47101],[71.74113,21.46989],[71.74452,21.46916],[71.74703,21.46904],[71.74754,21.469],[71.7483,21.46949],[71.75015,21.46965],[71.75228,21.46983],[71.75416,21.46969],[71.75588,21.46904]]]},"properties":{"District":"Bhavnagar","Taluka":"Palitana","Village":"Kanjarada","Dist_Id":"14","Taluka_Id":"14009","Village_Id":"140090101940000","S_Name":"Kanjarada","Remark":null,"GUJ_NAM":"HL<,M o EFJGUZ","GUJ_NAM2":"TF,]SM o 5F,LTF6F","GUJ_NAM_1":"UFD o S\\HZ0F","Popu_2001":"750","Status":null,"BEAT":"Kanjarda","ROUND":"Palitana","RANGE":"Palitana","DIVISION":"Bhavnagar","CIRCLE":"Junagadh","VILL_TYPE":null,"FOREST_AR":null}},
{"type":"Feature","geometry":{"type":"Polygon","coordinates":[[[71.79113,21.47074],[71.79197,21.47089],[71.79593,21.46863],[71.79672,21.46842],[71.79749,21.46809],[71.79843,21.46778],[71.79927,21.46761],[71.79991,21.46558],[71.79992,21.46539],[71.80004,21.46498],[71.80051,21.4636],[71.80112,21.46222],[71.80128,21.46201],[71.80189,21.46132],[71.80227,21.46105],[71.80269,21.46071],[71.80395,21.45933],[71.80432,21.45888],[71.80506,21.45952],[71.80547,21.46032],[71.80573,21.46077],[71.80617,21.46169],[71.80697,21.46302],[71.80704,21.46316],[71.807,21.46343],[71.80695,21.46428],[71.80707,21.46491],[71.8076,21.46722],[71.80899,21.46674],[71.81003,21.46658],[71.81078,21.46685],[71.81108,21.46768],[71.8113,21.46839],[71.81162,21.46873],[71.81182,21.46924],[71.812,21.46954],[71.81215,21.47057],[71.81244,21.47078],[71.81236,21.47119],[71.81273,21.47161],[71.8133,21.47114],[71.81327,21.47149],[71.81305,21.47163],[71.81306,21.47226],[71.81308,21.47258],[71.81345,21.47376],[71.81367,21.47448],[71.81383,21.47489],[71.81486,21.47624],[71.81495,21.47634],[71.81419,21.47685],[71.81403,21.47652],[71.81339,21.47689],[71.81279,21.47706],[71.81254,21.47725],[71.81212,21.47742],[71.81153,21.47794],[71.81139,21.47817],[71.8113,21.47858],[71.81067,21.47909],[71.81058,21.47941],[71.81047,21.47965],[71.81022,21.47983],[71.80964,21.48142],[71.80969,21.48161],[71.80957,21.48226],[71.80937,21.48263],[71.80945,21.48301],[71.80962,21.48351],[71.81024,21.48413],[71.81124,21.48396],[71.81138,21.4839],[71.81182,21.4836],[71.81227,21.48353],[71.81336,21.48249],[71.81429,21.48138],[71.81476,21.48093],[71.81529,21.48021],[71.81568,21.47945],[71.81612,21.47964],[71.81619,21.48018],[71.81637,21.48069],[71.81693,21.48186],[71.81796,21.48182],[71.81863,21.4822],[71.82002,21.48316],[71.82034,21.48324],[71.82121,21.48514],[71.82135,21.4855],[71.8217,21.4866],[71.82199,21.48747],[71.82076,21.48734],[71.82019,21.48753],[71.8195,21.48778],[71.81985,21.48863],[71.81975,21.4892],[71.82026,21.48954],[71.82056,21.48982],[71.82032,21.49001],[71.82046,21.49076],[71.82042,21.49135],[71.82048,21.49163],[71.82077,21.49182],[71.82125,21.49184],[71.82125,21.49189],[71.82121,21.49204],[71.82111,21.49244],[71.8209,21.49322],[71.82081,21.49383],[71.82064,21.49436],[71.82055,21.49498],[71.82038,21.49578],[71.8202,21.49622],[71.82003,21.49719],[71.81994,21.49754],[71.81986,21.49807],[71.81986,21.49816],[71.81977,21.49834],[71.81987,21.49834],[71.81988,21.49887],[71.81998,21.49957],[71.8199,21.50001],[71.81991,21.50071],[71.81982,21.50071],[71.81982,21.50089],[71.82001,21.50115],[71.82002,21.50159],[71.81984,21.50168],[71.81956,21.50177],[71.81937,21.50195],[71.81881,21.50231],[71.81863,21.50258],[71.81863,21.50267],[71.81854,21.50276],[71.81854,21.50294],[71.81836,21.5032],[71.81836,21.50338],[71.81827,21.50347],[71.81827,21.50356],[71.81809,21.50382],[71.81809,21.50391],[71.81791,21.50409],[71.81772,21.50418],[71.81754,21.50436],[71.81716,21.50454],[71.81688,21.50464],[71.81679,21.50473],[71.8166,21.50473],[71.81623,21.50491],[71.81557,21.50492],[71.8151,21.50502],[71.81492,21.50502],[71.81464,21.50511],[71.81435,21.50503],[71.81426,21.50503],[71.81407,21.50512],[71.81338,21.50346],[71.81338,21.50329],[71.81366,21.50311],[71.81326,21.50214],[71.81184,21.50129],[71.8107,21.50087],[71.81021,21.49991],[71.8103,21.49947],[71.80922,21.49737],[71.80893,21.49703],[71.80893,21.49667],[71.80855,21.49642],[71.80825,21.49589],[71.80834,21.49572],[71.80796,21.49555],[71.80815,21.49528],[71.80787,21.49528],[71.80748,21.49476],[71.80786,21.49484],[71.80841,21.49431],[71.8084,21.49378],[71.80726,21.49336],[71.80673,21.49321],[71.80604,21.49303],[71.80566,21.49303],[71.80509,21.49287],[71.80406,21.49275],[71.80274,21.49264],[71.80217,21.4923],[71.80159,21.49152],[71.80118,21.48985],[71.79974,21.48856],[71.79887,21.48748],[71.79849,21.48699],[71.79811,21.48682],[71.79801,21.48654],[71.79782,21.48604],[71.7979,21.4856],[71.7977,21.48489],[71.79722,21.4842],[71.79684,21.48412],[71.79626,21.48351],[71.79579,21.48325],[71.79588,21.4829],[71.79606,21.48281],[71.79634,21.48281],[71.79663,21.48289],[71.79682,21.48297],[71.79729,21.48305],[71.79738,21.48279],[71.79642,21.4821],[71.79594,21.4814],[71.79527,21.48089],[71.79507,21.47992],[71.79459,21.47958],[71.79458,21.47932],[71.79439,21.47897],[71.79382,21.4788],[71.79363,21.47845],[71.79343,21.47784],[71.79284,21.4767],[71.79237,21.47645],[71.79179,21.47567],[71.79139,21.47462],[71.79119,21.47392],[71.79071,21.47313],[71.79051,21.47287],[71.7906,21.47261],[71.79088,21.47234],[71.79116,21.47216],[71.79124,21.47172],[71.79121,21.47144],[71.79113,21.47075],[71.79113,21.47074]]]},"properties":{"District":"Bhavnagar","Taluka":"Palitana","Village":"Palitana_M","Dist_Id":"14","Taluka_Id":"14009","Village_Id":"14009IX","S_Name":"Palitana (M)","Remark":null,"GUJ_NAM":"HL<,M o EFJGUZ","GUJ_NAM2":"TF,]SM o 5F,LTF6F","GUJ_NAM_1":"UFD o 5F,LTF6F sGP5FPf","Popu_2001":"41870","Status":null,"BEAT":"Jivapur","ROUND":"Palitana","RANGE":"Palitana","DIVISION":"Bhavnagar","CIRCLE":"Junagadh","VILL_TYPE":null,"FOREST_AR":null}},
{"type":"Feature","geometry":{"type":"Polygon","coordinates":[[[71.77517,21.46649],[71.77446,21.46681],[71.77456,21.46719],[71.77487,21.46791],[71.77498,21.46801],[71.77544,21.46839],[71.77591,21.46876],[71.77622,21.46888],[71.77632,21.4693],[71.77656,21.46945],[71.77709,21.46993],[71.77721,21.47046],[71.77645,21.47041],[71.77532,21.47033],[71.77433,21.47051],[71.77256,21.47043],[71.77238,21.47034],[71.77191,21.4697],[71.77115,21.46986],[71.77092,21.4696],[71.77011,21.4691],[71.76975,21.46891],[71.76924,21.46887],[71.7679,21.46927],[71.76758,21.46898],[71.76755,21.46886],[71.76714,21.46875],[71.76667,21.46864],[71.76613,21.46887],[71.76568,21.46854],[71.7647,21.46858],[71.76447,21.46858],[71.764,21.46876],[71.76382,21.4691],[71.76351,21.46923],[71.76335,21.46891],[71.76232,21.46907],[71.76196,21.46943],[71.76146,21.46971],[71.7612,21.4703],[71.76106,21.47128],[71.75941,21.4712],[71.75834,21.47038],[71.7581,21.47038],[71.75765,21.46995],[71.75706,21.46952],[71.75611,21.46898],[71.75588,21.46904],[71.75557,21.46792],[71.75488,21.46741],[71.75353,21.46576],[71.75313,21.46566],[71.75296,21.46549],[71.7528,21.4651],[71.75259,21.46479],[71.75252,21.46448],[71.75314,21.46399],[71.75365,21.46329],[71.75377,21.46314],[71.7537,21.46218],[71.75368,21.4617],[71.7537,21.46119],[71.75357,21.46102],[71.75362,21.46068],[71.7537,21.46016],[71.75384,21.45985],[71.754,21.45919],[71.75425,21.4586],[71.75352,21.45776],[71.75357,21.45725],[71.75342,21.45569],[71.75342,21.45534],[71.75392,21.45492],[71.75447,21.45435],[71.75492,21.45424],[71.75523,21.45361],[71.75538,21.45349],[71.75585,21.45326],[71.75618,21.45305],[71.75633,21.45291],[71.75665,21.45259],[71.75667,21.45244],[71.7566,21.45184],[71.75659,21.45163],[71.75739,21.45134],[71.75791,21.45117],[71.7582,21.45087],[71.75848,21.45055],[71.75951,21.45012],[71.7601,21.4498],[71.7607,21.44931],[71.76079,21.44874],[71.76035,21.44792],[71.76041,21.44728],[71.7617,21.44655],[71.76253,21.44636],[71.76299,21.44598],[71.76316,21.44554],[71.76317,21.445],[71.76359,21.44411],[71.76399,21.44341],[71.76481,21.44218],[71.76508,21.4418],[71.76567,21.44196],[71.76605,21.44212],[71.76639,21.44214],[71.7669,21.44186],[71.76714,21.44178],[71.76772,21.44124],[71.76811,21.4409],[71.7686,21.44073],[71.7688,21.44076],[71.76898,21.44105],[71.76927,21.44131],[71.76951,21.44118],[71.76951,21.44093],[71.76963,21.44066],[71.77001,21.44056],[71.77043,21.44054],[71.77124,21.44055],[71.77202,21.44062],[71.77224,21.44066],[71.77226,21.44077],[71.77218,21.44087],[71.77208,21.441],[71.7721,21.44124],[71.77221,21.44134],[71.77241,21.44132],[71.77266,21.44119],[71.77282,21.44088],[71.77288,21.44075],[71.77321,21.44064],[71.7735,21.44063],[71.77417,21.44059],[71.77436,21.4404],[71.77416,21.44018],[71.7742,21.43993],[71.77432,21.43966],[71.77448,21.43953],[71.77466,21.43948],[71.77515,21.43946],[71.77497,21.4399],[71.77473,21.44003],[71.77473,21.44027],[71.77483,21.44045],[71.77528,21.44053],[71.77535,21.44054],[71.77533,21.44073],[71.77524,21.44107],[71.77495,21.44173],[71.77463,21.44257],[71.77438,21.44355],[71.77424,21.44416],[71.77421,21.44521],[71.77414,21.44539],[71.77413,21.44583],[71.77407,21.4461],[71.77403,21.44681],[71.77395,21.44694],[71.77398,21.44713],[71.7739,21.44773],[71.7739,21.44803],[71.77395,21.44849],[71.77392,21.44868],[71.77393,21.44922],[71.77388,21.44932],[71.77394,21.44968],[71.77394,21.45004],[71.77393,21.45041],[71.774,21.45078],[71.77396,21.45103],[71.77395,21.45138],[71.77397,21.45188],[71.774,21.45206],[71.77413,21.45268],[71.77425,21.45273],[71.77442,21.45332],[71.77452,21.45389],[71.77449,21.45395],[71.77468,21.45486],[71.77466,21.45505],[71.77479,21.45567],[71.7749,21.4562],[71.77494,21.45667],[71.77494,21.45682],[71.7753,21.45769],[71.7755,21.45829],[71.77579,21.45944],[71.77567,21.46],[71.77563,21.4609],[71.77557,21.46093],[71.77562,21.46149],[71.77559,21.46158],[71.77564,21.46215],[71.77538,21.4624],[71.77539,21.46248],[71.77538,21.46305],[71.77535,21.46385],[71.77528,21.46525],[71.77517,21.46554],[71.77515,21.46586],[71.77517,21.46649]]]},"properties":{"District":"Bhavnagar","Taluka":"Palitana","Village":"Gandhol","Dist_Id":"14","Taluka_Id":"14009","Village_Id":"140090101980000","S_Name":"Gandhol","Remark":null,"GUJ_NAM":"HL<,M o EFJGUZ","GUJ_NAM2":"TF,]SM o 5F,LTF6F","GUJ_NAM_1":"UFD o U6WM/","Popu_2001":"763","Status":null,"BEAT":"Jivapur","ROUND":"Palitana","RANGE":"Palitana","DIVISION":"Bhavnagar","CIRCLE":"Junagadh","VILL_TYPE":null,"FOREST_AR":null}},
{"type":"Feature","geometry":{"type":"Polygon","coordinates":[[[71.77879,21.4379],[71.77854,21.4378],[71.77911,21.4377],[71.77931,21.43776],[71.77981,21.43777],[71.77961,21.43755],[71.78004,21.43717],[71.77913,21.43617],[71.77903,21.43591],[71.77937,21.4357],[71.77991,21.43449],[71.78024,21.43367],[71.78104,21.4325],[71.78134,21.43212],[71.78132,21.43202],[71.78201,21.4309],[71.78277,21.42968],[71.78313,21.42906],[71.78374,21.4282],[71.78446,21.4273],[71.78471,21.42699],[71.78607,21.42793],[71.78676,21.42867],[71.78786,21.42937],[71.78856,21.43016],[71.78921,21.43096],[71.79022,21.4319],[71.79094,21.43236],[71.79308,21.43479],[71.79373,21.43536],[71.79399,21.43588],[71.79435,21.43736],[71.79516,21.44107],[71.79652,21.44362],[71.7985,21.44421],[71.79901,21.44429],[71.801,21.44349],[71.80188,21.44309],[71.80276,21.44298],[71.80377,21.44306],[71.80603,21.44404],[71.80716,21.44418],[71.80723,21.4443],[71.80734,21.44449],[71.80731,21.44482],[71.80717,21.44499],[71.80707,21.44508],[71.80689,21.44506],[71.80645,21.4448],[71.80603,21.44494],[71.80596,21.44507],[71.8059,21.44534],[71.80555,21.44552],[71.80509,21.4454],[71.80523,21.44611],[71.80807,21.44745],[71.81097,21.45078],[71.81161,21.45169],[71.81244,21.45285],[71.81312,21.45359],[71.8123,21.45427],[71.81148,21.45492],[71.81049,21.45584],[71.80963,21.45651],[71.80858,21.45733],[71.80796,21.45762],[71.80734,21.45794],[71.80703,21.45796],[71.80605,21.45802],[71.80575,21.45809],[71.80526,21.45808],[71.80504,21.4582],[71.80486,21.45831],[71.80432,21.45888],[71.80395,21.45933],[71.80269,21.46071],[71.80227,21.46105],[71.80189,21.46132],[71.80128,21.46201],[71.80112,21.46222],[71.80051,21.4636],[71.80004,21.46498],[71.79992,21.46539],[71.79991,21.46558],[71.79927,21.46761],[71.79843,21.46778],[71.79749,21.46809],[71.79672,21.46842],[71.79593,21.46863],[71.79197,21.47089],[71.79087,21.4707],[71.78941,21.47019],[71.78716,21.46935],[71.7862,21.46893],[71.78545,21.46882],[71.78236,21.46835],[71.78166,21.46824],[71.78074,21.46809],[71.78064,21.46794],[71.77773,21.46651],[71.77759,21.46648],[71.77517,21.46649],[71.77515,21.46586],[71.77517,21.46554],[71.77528,21.46525],[71.77535,21.46385],[71.77538,21.46305],[71.77539,21.46248],[71.77538,21.4624],[71.77564,21.46215],[71.77559,21.46158],[71.77562,21.46149],[71.77557,21.46093],[71.77563,21.4609],[71.77567,21.46],[71.77579,21.45944],[71.7755,21.45829],[71.7753,21.45769],[71.77494,21.45682],[71.77494,21.45667],[71.7749,21.4562],[71.77479,21.45567],[71.77466,21.45505],[71.77468,21.45486],[71.77449,21.45395],[71.77452,21.45389],[71.77442,21.45332],[71.77425,21.45273],[71.77413,21.45268],[71.774,21.45206],[71.77397,21.45188],[71.77395,21.45138],[71.77396,21.45103],[71.774,21.45078],[71.77393,21.45041],[71.77394,21.45004],[71.77394,21.44968],[71.77388,21.44932],[71.77393,21.44922],[71.77392,21.44868],[71.77395,21.44849],[71.7739,21.44803],[71.7739,21.44773],[71.77398,21.44713],[71.77395,21.44694],[71.77403,21.44681],[71.77407,21.4461],[71.77413,21.44583],[71.77414,21.44539],[71.77421,21.44521],[71.77424,21.44416],[71.77438,21.44355],[71.77463,21.44257],[71.77495,21.44173],[71.77524,21.44107],[71.77533,21.44073],[71.77535,21.44054],[71.77558,21.44058],[71.77622,21.44033],[71.77661,21.44029],[71.77678,21.44025],[71.77704,21.44009],[71.777,21.43991],[71.77675,21.43975],[71.77661,21.43964],[71.77665,21.43957],[71.77686,21.43954],[71.77698,21.43941],[71.777,21.43919],[71.77694,21.43896],[71.77703,21.4388],[71.77726,21.43878],[71.77757,21.43882],[71.77841,21.43896],[71.77861,21.43885],[71.77873,21.43855],[71.77879,21.4379]]]},"properties":{"District":"Bhavnagar","Taluka":"Palitana","Village":"Rohishala","Dist_Id":"14","Taluka_Id":"14009","Village_Id":"140090101990000","S_Name":"Rohishala","Remark":null,"GUJ_NAM":"HL<,M o EFJGUZ","GUJ_NAM2":"TF,]SM o 5F,LTF6F","GUJ_NAM_1":"UFD o ZMCLXF/F","Popu_2001":"1105","Status":null,"BEAT":"Jivapur","ROUND":"Palitana","RANGE":"Palitana","DIVISION":"Bhavnagar","CIRCLE":"Junagadh","VILL_TYPE":null,"FOREST_AR":null}},
{"type":"Feature","geometry":{"type":"Polygon","coordinates":[[[71.81495,21.47634],[71.81486,21.47624],[71.81383,21.47489],[71.81367,21.47448],[71.81345,21.47376],[71.81308,21.47258],[71.81306,21.47226],[71.81305,21.47163],[71.81327,21.47149],[71.8133,21.47114],[71.81273,21.47161],[71.81236,21.47119],[71.81244,21.47078],[71.81215,21.47057],[71.812,21.46954],[71.81182,21.46924],[71.81162,21.46873],[71.8113,21.46839],[71.81108,21.46768],[71.81078,21.46685],[71.81089,21.46689],[71.81194,21.46721],[71.81222,21.4676],[71.8127,21.46813],[71.81346,21.46934],[71.8137,21.46963],[71.81416,21.4704],[71.81449,21.47101],[71.81498,21.47177],[71.8157,21.47283],[71.81642,21.47386],[71.81688,21.47447],[71.81754,21.4754],[71.81783,21.47596],[71.81839,21.4766],[71.81863,21.4765],[71.81899,21.47615],[71.81901,21.47548],[71.81931,21.47528],[71.82027,21.47483],[71.8202,21.47467],[71.82042,21.4747],[71.82092,21.47465],[71.82134,21.47462],[71.82132,21.47558],[71.82155,21.47575],[71.82202,21.47722],[71.82169,21.478],[71.82182,21.4784],[71.82222,21.47921],[71.82249,21.48029],[71.8221,21.48044],[71.82156,21.48112],[71.82148,21.4815],[71.82085,21.48154],[71.82122,21.48207],[71.82207,21.48165],[71.82219,21.48223],[71.82263,21.48235],[71.82298,21.48235],[71.82383,21.48331],[71.8247,21.48467],[71.82496,21.48527],[71.82571,21.48665],[71.82472,21.48749],[71.82364,21.48772],[71.82361,21.48736],[71.82235,21.48744],[71.82207,21.48756],[71.82214,21.48776],[71.82215,21.48811],[71.82195,21.48957],[71.82145,21.49184],[71.82137,21.49184],[71.82077,21.49182],[71.82048,21.49163],[71.82042,21.49135],[71.82046,21.49076],[71.82032,21.49001],[71.82056,21.48982],[71.82026,21.48954],[71.81975,21.4892],[71.81985,21.48863],[71.8195,21.48778],[71.82019,21.48753],[71.82076,21.48734],[71.82199,21.48747],[71.8217,21.4866],[71.82135,21.4855],[71.82121,21.48514],[71.82034,21.48324],[71.82002,21.48316],[71.81863,21.4822],[71.81796,21.48182],[71.81693,21.48186],[71.81637,21.48069],[71.81619,21.48018],[71.81612,21.47964],[71.81568,21.47945],[71.81529,21.48021],[71.81476,21.48093],[71.81429,21.48138],[71.81336,21.48249],[71.81227,21.48353],[71.81182,21.4836],[71.81138,21.4839],[71.81124,21.48396],[71.81024,21.48413],[71.80962,21.48351],[71.80945,21.48301],[71.80937,21.48263],[71.80957,21.48226],[71.80969,21.48161],[71.80964,21.48142],[71.81022,21.47983],[71.81047,21.47965],[71.81058,21.47941],[71.81067,21.47909],[71.8113,21.47858],[71.81139,21.47817],[71.81153,21.47794],[71.81212,21.47742],[71.81254,21.47725],[71.81279,21.47706],[71.81339,21.47689],[71.81403,21.47652],[71.81419,21.47685],[71.81495,21.47634]]]},"properties":{"District":"Bhavnagar","Taluka":"Palitana","Village":"Jivapur","Dist_Id":"14","Taluka_Id":"14009","Village_Id":"140090102010000","S_Name":"Jivapar","Remark":null,"GUJ_NAM":"HL<,M o EFJGUZ","GUJ_NAM2":"TF,]SM o 5F,LTF6F","GUJ_NAM_1":"UFD o HLJF5]Z","Popu_2001":"394","Status":null,"BEAT":"Jivapur","ROUND":"Palitana","RANGE":"Palitana","DIVISION":"Bhavnagar","CIRCLE":"Junagadh","VILL_TYPE":null,"FOREST_AR":null}},
{"type":"Feature","geometry":{"type":"Polygon","coordinates":[[[71.78903,21.50985],[71.78883,21.5093],[71.78862,21.50921],[71.78852,21.50911],[71.78834,21.50867],[71.78783,21.50782],[71.78796,21.50739],[71.78808,21.50697],[71.78826,21.50665],[71.78812,21.50659],[71.78813,21.50646],[71.78737,21.50638],[71.78685,21.50589],[71.78667,21.50563],[71.78633,21.50509],[71.78571,21.50411],[71.78625,21.50319],[71.78683,21.50266],[71.7872,21.50226],[71.78815,21.50117],[71.78838,21.50118],[71.78901,21.50126],[71.78976,21.50149],[71.78986,21.50128],[71.78971,21.50073],[71.78961,21.50043],[71.78963,21.50043],[71.78972,21.50043],[71.79001,21.50051],[71.79085,21.5005],[71.79095,21.50058],[71.79142,21.50058],[71.79189,21.50066],[71.79217,21.50065],[71.79255,21.50073],[71.79415,21.50071],[71.79434,21.50079],[71.7949,21.50078],[71.79528,21.50086],[71.79537,21.50086],[71.79632,21.50102],[71.79735,21.501],[71.79773,21.50109],[71.79839,21.50107],[71.79857,21.50109],[71.79933,21.50115],[71.7998,21.50105],[71.80081,21.50114],[71.80158,21.5012],[71.80285,21.50118],[71.80337,21.50117],[71.80441,21.50124],[71.80469,21.50132],[71.80488,21.50123],[71.80516,21.50123],[71.80555,21.5021],[71.80604,21.50288],[71.80627,21.50387],[71.80644,21.50455],[71.80645,21.50472],[71.80655,21.50525],[71.80655,21.50534],[71.80599,21.50535],[71.80487,21.50589],[71.80478,21.5059],[71.80479,21.50642],[71.80475,21.50673],[71.80471,21.50704],[71.80471,21.5073],[71.80434,21.50749],[71.80424,21.50749],[71.80382,21.50761],[71.80359,21.50768],[71.80302,21.50788],[71.80256,21.50804],[71.80247,21.50813],[71.80247,21.50805],[71.802,21.50814],[71.80163,21.50824],[71.80144,21.50833],[71.80115,21.50816],[71.80087,21.50816],[71.80022,21.50826],[71.80003,21.50826],[71.79975,21.50836],[71.79956,21.50836],[71.79947,21.50845],[71.79919,21.50854],[71.79854,21.5089],[71.79844,21.50891],[71.79797,21.509],[71.79779,21.50909],[71.79742,21.50936],[71.79723,21.50945],[71.79704,21.50946],[71.79667,21.50955],[71.79648,21.50964],[71.79629,21.50965],[71.79582,21.50974],[71.79583,21.50983],[71.79611,21.51018],[71.79621,21.51035],[71.79632,21.51097],[71.79614,21.51167],[71.79615,21.51211],[71.79492,21.51178],[71.79435,21.51153],[71.79388,21.51136],[71.79388,21.51118],[71.79246,21.51059],[71.79123,21.51061],[71.79085,21.51044],[71.79,21.50993],[71.78991,21.51028],[71.78915,21.50985],[71.78906,21.50985],[71.78903,21.50985]]]},"properties":{"District":"Bhavnagar","Taluka":"Palitana","Village":"Palitana_M","Dist_Id":"14","Taluka_Id":"14009","Village_Id":"14009IX","S_Name":"Palitana (M)","Remark":null,"GUJ_NAM":"HL<,M o EFJGUZ","GUJ_NAM2":"TF,]SM o 5F,LTF6F","GUJ_NAM_1":"UFD o 5F,LTF6F sGP5FPf","Popu_2001":"41870","Status":null,"BEAT":"Adpur","ROUND":"Palitana","RANGE":"Palitana","DIVISION":"Bhavnagar","CIRCLE":"Junagadh","VILL_TYPE":null,"FOREST_AR":null}},
{"type":"Feature","geometry":{"type":"Polygon","coordinates":[[[71.7851,21.47974],[71.7851,21.47973],[71.78433,21.47946],[71.78243,21.47883],[71.78053,21.47815],[71.77944,21.47787],[71.77864,21.4776],[71.77752,21.47715],[71.77614,21.47672],[71.77529,21.47643],[71.77407,21.476],[71.77267,21.47708],[71.77184,21.47773],[71.77114,21.47835],[71.77034,21.47893],[71.76996,21.47925],[71.76953,21.47959],[71.76821,21.48071],[71.76743,21.48142],[71.76688,21.48187],[71.76608,21.4826],[71.76486,21.48379],[71.76419,21.48439],[71.76309,21.48549],[71.76314,21.48575],[71.76306,21.48606],[71.76268,21.48625],[71.7624,21.48646],[71.76216,21.48681],[71.76188,21.48685],[71.76203,21.48709],[71.76177,21.48713],[71.7617,21.48764],[71.76128,21.48817],[71.76101,21.48785],[71.76091,21.48783],[71.75947,21.48699],[71.75793,21.48619],[71.75732,21.48614],[71.75732,21.486],[71.7577,21.48569],[71.75815,21.48506],[71.75818,21.48477],[71.75847,21.48451],[71.75876,21.48389],[71.75851,21.48249],[71.75837,21.48227],[71.75832,21.48184],[71.75809,21.48158],[71.75846,21.4802],[71.7589,21.47908],[71.75951,21.47723],[71.75996,21.47638],[71.75986,21.47461],[71.7596,21.47221],[71.75919,21.4719],[71.75857,21.47115],[71.7581,21.47038],[71.75834,21.47038],[71.75941,21.4712],[71.76106,21.47128],[71.7612,21.4703],[71.76146,21.46971],[71.76196,21.46943],[71.76232,21.46907],[71.76335,21.46891],[71.76351,21.46923],[71.76382,21.4691],[71.764,21.46876],[71.76447,21.46858],[71.7647,21.46858],[71.76568,21.46854],[71.76613,21.46887],[71.76667,21.46864],[71.76714,21.46875],[71.76755,21.46886],[71.76758,21.46898],[71.7679,21.46927],[71.76924,21.46887],[71.76975,21.46891],[71.77011,21.4691],[71.77092,21.4696],[71.77115,21.46986],[71.77191,21.4697],[71.77238,21.47034],[71.77256,21.47043],[71.77433,21.47051],[71.77532,21.47033],[71.77645,21.47041],[71.77721,21.47046],[71.77709,21.46993],[71.77656,21.46945],[71.77632,21.4693],[71.77622,21.46888],[71.77591,21.46876],[71.77544,21.46839],[71.77498,21.46801],[71.77487,21.46791],[71.77456,21.46719],[71.77446,21.46681],[71.77517,21.46649],[71.77759,21.46648],[71.77773,21.46651],[71.78064,21.46794],[71.78074,21.46809],[71.78166,21.46824],[71.78236,21.46835],[71.78545,21.46882],[71.7862,21.46893],[71.78716,21.46935],[71.78941,21.47019],[71.79087,21.4707],[71.79113,21.47074],[71.79113,21.47075],[71.79121,21.47144],[71.79124,21.47172],[71.79116,21.47216],[71.79088,21.47234],[71.7906,21.47261],[71.79051,21.47287],[71.79071,21.47313],[71.79119,21.47392],[71.79139,21.47462],[71.79179,21.47567],[71.79237,21.47645],[71.79284,21.4767],[71.79343,21.47784],[71.79363,21.47845],[71.79382,21.4788],[71.79439,21.47897],[71.79458,21.47932],[71.79459,21.47958],[71.79411,21.47924],[71.79345,21.47907],[71.79261,21.47926],[71.79187,21.47989],[71.79142,21.48078],[71.79171,21.48139],[71.79182,21.482],[71.78827,21.48081],[71.7851,21.47974]]]},"properties":{"District":"Bhavnagar","Taluka":"Palitana","Village":"Palitana_M","Dist_Id":"14","Taluka_Id":"14009","Village_Id":"14009IX","S_Name":"Palitana (M)","Remark":null,"GUJ_NAM":"HL<,M o EFJGUZ","GUJ_NAM2":"TF,]SM o 5F,LTF6F","GUJ_NAM_1":"UFD o 5F,LTF6F sGP5FPf","Popu_2001":"41870","Status":null,"BEAT":"Adpur","ROUND":"Palitana","RANGE":"Palitana","DIVISION":"Bhavnagar","CIRCLE":"Junagadh","VILL_TYPE":null,"FOREST_AR":null}},
{"type":"Feature","geometry":{"type":"Polygon","coordinates":[[[71.78961,21.50043],[71.78966,21.50019],[71.78938,21.49992],[71.7888,21.49933],[71.78875,21.49889],[71.7889,21.49858],[71.78911,21.49804],[71.78896,21.49792],[71.78916,21.49776],[71.78956,21.49756],[71.79006,21.49711],[71.79026,21.49672],[71.79044,21.49633],[71.79069,21.49628],[71.79063,21.49612],[71.79076,21.49501],[71.79073,21.49475],[71.79066,21.49405],[71.7904,21.49376],[71.78987,21.49386],[71.78976,21.49384],[71.78884,21.49402],[71.78859,21.49445],[71.78723,21.49316],[71.78637,21.49263],[71.78569,21.49199],[71.78541,21.49204],[71.78522,21.49192],[71.78495,21.49186],[71.78454,21.4917],[71.78445,21.49166],[71.78359,21.4903],[71.78275,21.48903],[71.78262,21.488],[71.78259,21.48767],[71.78259,21.4874],[71.78268,21.48663],[71.7826,21.48595],[71.78242,21.48546],[71.78224,21.48486],[71.78233,21.48434],[71.78278,21.48417],[71.783,21.48413],[71.78315,21.48387],[71.78336,21.48372],[71.78356,21.4835],[71.78369,21.48304],[71.78354,21.48276],[71.78331,21.4816],[71.78388,21.48094],[71.78457,21.48027],[71.7851,21.47974],[71.78827,21.48081],[71.79182,21.482],[71.79171,21.48139],[71.79142,21.48078],[71.79187,21.47989],[71.79261,21.47926],[71.79345,21.47907],[71.79411,21.47924],[71.79459,21.47958],[71.79507,21.47992],[71.79527,21.48089],[71.79594,21.4814],[71.79642,21.4821],[71.79738,21.48279],[71.79729,21.48305],[71.79682,21.48297],[71.79663,21.48289],[71.79634,21.48281],[71.79606,21.48281],[71.79588,21.4829],[71.79579,21.48325],[71.79626,21.48351],[71.79684,21.48412],[71.79722,21.4842],[71.7977,21.48489],[71.7979,21.4856],[71.79782,21.48604],[71.79801,21.48654],[71.79811,21.48682],[71.79849,21.48699],[71.79887,21.48748],[71.79974,21.48856],[71.80118,21.48985],[71.80159,21.49152],[71.80217,21.4923],[71.80274,21.49264],[71.80406,21.49275],[71.80509,21.49287],[71.80566,21.49303],[71.80604,21.49303],[71.80673,21.49321],[71.80726,21.49336],[71.8084,21.49378],[71.80841,21.49431],[71.80786,21.49484],[71.80748,21.49476],[71.80787,21.49528],[71.80815,21.49528],[71.80796,21.49555],[71.80834,21.49572],[71.80825,21.49589],[71.80855,21.49642],[71.80893,21.49667],[71.80893,21.49703],[71.80922,21.49737],[71.8103,21.49947],[71.81021,21.49991],[71.8107,21.50087],[71.81184,21.50129],[71.81326,21.50214],[71.81366,21.50311],[71.81338,21.50329],[71.81338,21.50346],[71.81407,21.50512],[71.81426,21.50503],[71.81435,21.50503],[71.81464,21.50511],[71.81492,21.50502],[71.8151,21.50502],[71.81557,21.50492],[71.81623,21.50491],[71.8166,21.50473],[71.81679,21.50473],[71.81688,21.50464],[71.81716,21.50454],[71.81754,21.50436],[71.81772,21.50418],[71.81791,21.50409],[71.81809,21.50391],[71.81809,21.50382],[71.81827,21.50356],[71.81827,21.50347],[71.81836,21.50338],[71.81836,21.5032],[71.81854,21.50294],[71.81854,21.50276],[71.81863,21.50267],[71.81863,21.50258],[71.81881,21.50231],[71.81937,21.50195],[71.81956,21.50177],[71.81984,21.50168],[71.82002,21.50159],[71.82001,21.50115],[71.81982,21.50089],[71.81982,21.50071],[71.81991,21.50071],[71.8199,21.50001],[71.81998,21.49957],[71.81988,21.49887],[71.81987,21.49834],[71.81977,21.49834],[71.81986,21.49816],[71.81986,21.49807],[71.81994,21.49754],[71.82003,21.49719],[71.8202,21.49622],[71.82038,21.49578],[71.82055,21.49498],[71.82064,21.49436],[71.82081,21.49383],[71.8209,21.49322],[71.82111,21.49244],[71.82121,21.49204],[71.82125,21.49189],[71.82125,21.49184],[71.82137,21.49184],[71.82145,21.49184],[71.82195,21.48957],[71.82215,21.48811],[71.82214,21.48776],[71.82207,21.48756],[71.82235,21.48744],[71.82361,21.48736],[71.82364,21.48772],[71.82472,21.48749],[71.82571,21.48665],[71.82496,21.48527],[71.8247,21.48467],[71.82383,21.48331],[71.82298,21.48235],[71.82263,21.48235],[71.82219,21.48223],[71.82207,21.48165],[71.82122,21.48207],[71.82085,21.48154],[71.82148,21.4815],[71.82156,21.48112],[71.8221,21.48044],[71.82249,21.48029],[71.82222,21.47921],[71.82182,21.4784],[71.82169,21.478],[71.82202,21.47722],[71.82155,21.47575],[71.82132,21.47558],[71.82134,21.47462],[71.82162,21.4746],[71.82176,21.47437],[71.8231,21.47402],[71.82389,21.47382],[71.82441,21.47363],[71.82468,21.4737],[71.82517,21.47321],[71.8253,21.47373],[71.82542,21.47501],[71.82643,21.47521],[71.82806,21.47556],[71.82845,21.47689],[71.82838,21.47713],[71.82926,21.47908],[71.83109,21.47948],[71.83191,21.47989],[71.83237,21.48012],[71.8326,21.4804],[71.83272,21.48065],[71.83344,21.48164],[71.83351,21.4817],[71.83363,21.48169],[71.83477,21.48339],[71.83468,21.48401],[71.8335,21.48502],[71.83211,21.4863],[71.83033,21.48829],[71.82915,21.48999],[71.83097,21.49097],[71.83549,21.49136],[71.83608,21.49119],[71.83601,21.49079],[71.83695,21.49019],[71.8369,21.49036],[71.83709,21.49287],[71.83723,21.49452],[71.83846,21.49736],[71.83936,21.50042],[71.83991,21.50221],[71.84113,21.50287],[71.84249,21.50335],[71.84266,21.50309],[71.84363,21.50341],[71.8446,21.50417],[71.84465,21.50457],[71.84497,21.50467],[71.8452,21.50424],[71.84584,21.50471],[71.84645,21.50417],[71.84657,21.50425],[71.8472,21.50503],[71.84729,21.50527],[71.84775,21.50572],[71.84794,21.50618],[71.84817,21.5065],[71.84852,21.50663],[71.84899,21.50704],[71.84963,21.50738],[71.85084,21.50679],[71.85108,21.50682],[71.85177,21.50723],[71.85221,21.5073],[71.85321,21.50795],[71.85469,21.50916],[71.85553,21.50987],[71.85518,21.51027],[71.85454,21.51087],[71.85477,21.51146],[71.85495,21.51196],[71.85506,21.51224],[71.85542,21.51248],[71.85503,21.51327],[71.85496,21.51367],[71.8536,21.51497],[71.85272,21.51592],[71.8523,21.51588],[71.85179,21.51535],[71.85142,21.5154],[71.85088,21.51507],[71.85038,21.51542],[71.85001,21.51566],[71.84956,21.51541],[71.84898,21.51518],[71.84847,21.51495],[71.84692,21.51463],[71.84665,21.51424],[71.84622,21.51371],[71.84612,21.51333],[71.84526,21.51368],[71.84458,21.51608],[71.8443,21.51759],[71.84391,21.51949],[71.8439,21.52006],[71.84378,21.5213],[71.84379,21.52276],[71.84165,21.52396],[71.84118,21.52428],[71.84096,21.52456],[71.84053,21.52458],[71.84018,21.52484],[71.84031,21.52513],[71.84031,21.52538],[71.84011,21.52545],[71.84005,21.52565],[71.84012,21.52584],[71.84031,21.52598],[71.84038,21.52621],[71.84033,21.52647],[71.84013,21.52714],[71.84023,21.52743],[71.84051,21.52754],[71.84064,21.52891],[71.84036,21.52894],[71.84004,21.52888],[71.83934,21.52907],[71.83912,21.52924],[71.8387,21.52963],[71.83804,21.53023],[71.83742,21.5307],[71.83665,21.53145],[71.83604,21.53202],[71.83522,21.53268],[71.83494,21.53291],[71.83455,21.5333],[71.83378,21.53388],[71.83378,21.53417],[71.83401,21.5352],[71.83404,21.5354],[71.83426,21.53665],[71.83419,21.53683],[71.83428,21.53716],[71.83477,21.53817],[71.83547,21.53962],[71.83546,21.53997],[71.83504,21.54196],[71.835,21.54247],[71.83508,21.54268],[71.83533,21.54357],[71.83531,21.54387],[71.83531,21.54525],[71.83528,21.54545],[71.83551,21.5463],[71.83573,21.54714],[71.83607,21.54848],[71.83617,21.54953],[71.83621,21.55104],[71.83631,21.55174],[71.83643,21.55272],[71.83655,21.55306],[71.83612,21.55279],[71.83426,21.5523],[71.83419,21.55214],[71.83371,21.5519],[71.83353,21.55177],[71.83324,21.55165],[71.83301,21.55166],[71.83278,21.55163],[71.83242,21.55166],[71.83207,21.55162],[71.83163,21.55131],[71.83126,21.55151],[71.83091,21.55144],[71.83075,21.5512],[71.83043,21.55123],[71.83006,21.55072],[71.82992,21.5501],[71.82923,21.54896],[71.82868,21.5481],[71.82824,21.54674],[71.82782,21.54627],[71.82769,21.54623],[71.82696,21.54521],[71.8266,21.54524],[71.82673,21.54567],[71.82657,21.54634],[71.82651,21.54687],[71.82567,21.54686],[71.82418,21.54678],[71.82391,21.54573],[71.82379,21.5453],[71.82357,21.54484],[71.8234,21.54444],[71.82349,21.54413],[71.82393,21.54407],[71.82398,21.5433],[71.82426,21.54313],[71.82454,21.54307],[71.82496,21.54281],[71.82518,21.54287],[71.82545,21.54274],[71.82514,21.54217],[71.82504,21.54169],[71.82507,21.54149],[71.82469,21.54099],[71.82454,21.54106],[71.82431,21.54081],[71.82406,21.54073],[71.82246,21.54104],[71.822,21.54114],[71.82208,21.54149],[71.8221,21.5418],[71.82212,21.5422],[71.82211,21.54243],[71.82207,21.5426],[71.82223,21.54354],[71.82229,21.54383],[71.82235,21.54445],[71.82245,21.54498],[71.82214,21.54498],[71.82128,21.54492],[71.8194,21.5448],[71.8181,21.54473],[71.81727,21.54473],[71.81545,21.54457],[71.8134,21.54437],[71.8116,21.54422],[71.80941,21.54511],[71.80835,21.54553],[71.8082,21.54517],[71.80796,21.54517],[71.80573,21.54546],[71.80505,21.5456],[71.80463,21.54363],[71.80447,21.54294],[71.80428,21.54222],[71.80383,21.54115],[71.80367,21.54089],[71.80355,21.54044],[71.80192,21.54051],[71.80114,21.54059],[71.80096,21.53925],[71.80092,21.53905],[71.80044,21.53787],[71.80029,21.53729],[71.80018,21.5373],[71.8001,21.53681],[71.79997,21.53681],[71.79996,21.53636],[71.79875,21.53633],[71.79868,21.53597],[71.79859,21.53535],[71.79861,21.53391],[71.79879,21.53243],[71.79821,21.53239],[71.79524,21.53239],[71.7952,21.53194],[71.79435,21.53193],[71.79251,21.5319],[71.79243,21.53128],[71.79239,21.5306],[71.79228,21.53006],[71.79222,21.52951],[71.7921,21.52858],[71.79208,21.52781],[71.79202,21.52755],[71.79197,21.52715],[71.792,21.52666],[71.79198,21.52609],[71.79198,21.5258],[71.79201,21.52554],[71.79203,21.52478],[71.79193,21.52424],[71.7919,21.52403],[71.79186,21.52316],[71.79184,21.52258],[71.79219,21.52265],[71.79232,21.5227],[71.79282,21.52279],[71.79413,21.52317],[71.79461,21.523],[71.79449,21.52268],[71.79444,21.52252],[71.79418,21.52235],[71.7939,21.52209],[71.79312,21.52191],[71.79311,21.52203],[71.79281,21.52197],[71.79311,21.52102],[71.79211,21.52032],[71.79202,21.51996],[71.79195,21.51984],[71.79178,21.51975],[71.79175,21.51964],[71.79177,21.51941],[71.79197,21.51846],[71.79208,21.51813],[71.79224,21.51792],[71.79237,21.51752],[71.79237,21.51734],[71.79243,21.51701],[71.79174,21.51655],[71.79097,21.51635],[71.79108,21.51571],[71.7912,21.51533],[71.79126,21.51467],[71.79133,21.51446],[71.79229,21.51455],[71.79215,21.51416],[71.79211,21.51402],[71.79143,21.51336],[71.79134,21.5126],[71.79137,21.51229],[71.79135,21.51215],[71.79145,21.51192],[71.79122,21.51162],[71.79014,21.51073],[71.78983,21.5105],[71.78932,21.51018],[71.78908,21.50999],[71.78903,21.50985],[71.78906,21.50985],[71.78915,21.50985],[71.78991,21.51028],[71.79,21.50993],[71.79085,21.51044],[71.79123,21.51061],[71.79246,21.51059],[71.79388,21.51118],[71.79388,21.51136],[71.79435,21.51153],[71.79492,21.51178],[71.79615,21.51211],[71.79614,21.51167],[71.79632,21.51097],[71.79621,21.51035],[71.79611,21.51018],[71.79583,21.50983],[71.79582,21.50974],[71.79629,21.50965],[71.79648,21.50964],[71.79667,21.50955],[71.79704,21.50946],[71.79723,21.50945],[71.79742,21.50936],[71.79779,21.50909],[71.79797,21.509],[71.79844,21.50891],[71.79854,21.5089],[71.79919,21.50854],[71.79947,21.50845],[71.79956,21.50836],[71.79975,21.50836],[71.80003,21.50826],[71.80022,21.50826],[71.80087,21.50816],[71.80115,21.50816],[71.80144,21.50833],[71.80163,21.50824],[71.802,21.50814],[71.80247,21.50805],[71.80247,21.50813],[71.80256,21.50804],[71.80302,21.50788],[71.80359,21.50768],[71.80382,21.50761],[71.80424,21.50749],[71.80434,21.50749],[71.80471,21.5073],[71.80471,21.50704],[71.80475,21.50673],[71.80479,21.50642],[71.80478,21.5059],[71.80487,21.50589],[71.80599,21.50535],[71.80655,21.50534],[71.80655,21.50525],[71.80645,21.50472],[71.80644,21.50455],[71.80627,21.50387],[71.80604,21.50288],[71.80555,21.5021],[71.80516,21.50123],[71.80488,21.50123],[71.80469,21.50132],[71.80441,21.50124],[71.80337,21.50117],[71.80285,21.50118],[71.80158,21.5012],[71.80081,21.50114],[71.7998,21.50105],[71.79933,21.50115],[71.79857,21.50109],[71.79839,21.50107],[71.79773,21.50109],[71.79735,21.501],[71.79632,21.50102],[71.79537,21.50086],[71.79528,21.50086],[71.7949,21.50078],[71.79434,21.50079],[71.79415,21.50071],[71.79255,21.50073],[71.79217,21.50065],[71.79189,21.50066],[71.79142,21.50058],[71.79095,21.50058],[71.79085,21.5005],[71.79001,21.50051],[71.78972,21.50043],[71.78963,21.50043],[71.78961,21.50043]]]},"properties":{"District":"Bhavnagar","Taluka":"Palitana","Village":"Palitana_M","Dist_Id":"14","Taluka_Id":"14009","Village_Id":"14009IX","S_Name":"Palitana (M)","Remark":null,"GUJ_NAM":"HL<,M o EFJGUZ","GUJ_NAM2":"TF,]SM o 5F,LTF6F","GUJ_NAM_1":"UFD o 5F,LTF6F sGP5FPf","Popu_2001":"41870","Status":null,"BEAT":"Taleti","ROUND":"Palitana","RANGE":"Palitana","DIVISION":"Bhavnagar","CIRCLE":"Junagadh","VILL_TYPE":null,"FOREST_AR":null}}
]}